{"version": 0.6, "generator": "Overpass API 0.7.62.1 084b4234", "osm3s": {"timestamp_osm_base": "2024-11-20T00:55:30Z", "copyright": "The data included in this document is from www.openstreetmap.org. The data is made available under ODbL."}, "elements": [{"type": "node", "id": 250623599, "lat": 51.4170445, "lon": 4.7314202, "tags": {"name": "Pastoorshoekske", "tourism": "picnic_site"}}, {"type": "node", "id": 1737516659, "lat": 51.403811, "lon": 4.8242325, "tags": {"addr:housenumber": "41", "addr:street": "Kolonie", "information": "visitor_centre", "name": "Bezoekerscentrum Vallei van het Merkske", "operator": "Natuurpunt Markvallei", "tourism": "information", "website": "https://www.natuurpuntmarkvallei.be/bezoekerscentrum-de-klapekster/"}}, {"type": "node", "id": 2109404073, "lat": 51.3974486, "lon": 4.7590486, "tags": {"artwork_type": "sculpture", "tourism": "artwork"}}, {"type": "node", "id": 2113566850, "lat": 51.4011615, "lon": 4.7615648, "tags": {"information": "office", "name": "Toerisme Hoogstraten", "tourism": "information"}}, {"type": "node", "id": 2470692947, "lat": 51.4036523, "lon": 4.7640833}, {"type": "node", "id": 2470949331, "lat": 51.4740425, "lon": 4.8039345, "tags": {"artwork_type": "sculpture", "tourism": "artwork"}}, {"type": "node", "id": 2470949332, "lat": 51.4740622, "lon": 4.8047848, "tags": {"artwork_type": "sculpture", "tourism": "artwork"}}, {"type": "node", "id": 2471701957, "lat": 51.4035922, "lon": 4.7639758}, {"type": "node", "id": 2471701962, "lat": 51.403713, "lon": 4.7641099}, {"type": "node", "id": 2471701964, "lat": 51.4037234, "lon": 4.7640362}, {"type": "node", "id": 2486838049, "lat": 51.4195487, "lon": 4.8169173, "tags": {"information": "map", "tourism": "information"}}, {"type": "node", "id": 2486838071, "lat": 51.4185719, "lon": 4.8032515, "tags": {"board_type": "nature", "information": "board", "tourism": "information"}}, {"type": "node", "id": 2487007816, "lat": 51.4121918, "lon": 4.8051773, "tags": {"board_type": "nature", "check_date": "2020-12-24", "description": "Welkom in het domainbos de Schootse Hoek", "information": "board", "tourism": "information"}}, {"type": "node", "id": 2501861159, "lat": 51.4874658, "lon": 4.7952336, "tags": {"tourism": "information"}}, {"type": "node", "id": 2501934033, "lat": 51.4273333, "lon": 4.8179788, "tags": {"information": "board", "tourism": "information"}}, {"type": "node", "id": 3698292996, "lat": 51.4002853, "lon": 4.7604803}, {"type": "node", "id": 3698292998, "lat": 51.4003568, "lon": 4.7600712}, {"type": "node", "id": 3698293001, "lat": 51.4003857, "lon": 4.7605319}, {"type": "node", "id": 3698293004, "lat": 51.4004634, "lon": 4.7600906}, {"type": "node", "id": 3698293113, "lat": 51.40257, "lon": 4.7615981}, {"type": "node", "id": 3698293115, "lat": 51.4026121, "lon": 4.7613294}, {"type": "node", "id": 3698293116, "lat": 51.4026154, "lon": 4.7616141}, {"type": "node", "id": 3698293118, "lat": 51.4026599, "lon": 4.7613496}, {"type": "node", "id": 4030530775, "lat": 51.4085415, "lon": 4.8268973, "tags": {"board_type": "nature", "check_date": "2021-04-15", "information": "board", "tourism": "information"}}, {"type": "node", "id": 4030530780, "lat": 51.4095531, "lon": 4.7934132, "tags": {"board_type": "history", "check_date": "2023-02-12", "description": "Dodendraadroute", "information": "board", "ref": "10", "tourism": "information"}}, {"type": "node", "id": 4030530786, "lat": 51.4104216, "lon": 4.7925698, "tags": {"check_date": "2023-02-12", "description": "Beekdal van het Merkske", "information": "map", "map_size": "region", "tourism": "information"}}, {"type": "node", "id": 4030533189, "lat": 51.4105428, "lon": 4.7922508, "tags": {"description": "Grenzeloos wandelen", "information": "map", "map_size": "region", "tourism": "information"}}, {"type": "node", "id": 4030533198, "lat": 51.4120386, "lon": 4.8051751, "tags": {"check_date": "2021-06-19", "description": "Grenzeloos wandelen", "information": "map", "map_size": "region", "tourism": "information"}}, {"type": "node", "id": 4030533203, "lat": 51.41297, "lon": 4.8208306, "tags": {"description": "Grenzeloos wandelen", "information": "map", "map_size": "region", "name": "Grenzeloos wandelen", "tourism": "information"}}, {"type": "node", "id": 4065034193, "lat": 51.4101756, "lon": 4.7719265, "tags": {"board_type": "history", "check_date": "2024-02-15", "description": "Dodendraadroute", "information": "board", "operator": "Dodendraad", "ref": "9", "tourism": "information"}}, {"type": "node", "id": 4065034396, "lat": 51.4142507, "lon": 4.7664583, "tags": {"board_type": "history", "description": "Kapel Onze-Lieve-Vrouw van den Akker", "information": "board", "operator": "VTB-VAB", "tourism": "information"}}, {"type": "node", "id": 4065034408, "lat": 51.4143179, "lon": 4.7664181, "tags": {"board_type": "nature", "check_date": "2024-02-15", "description": "Watermolenpad", "foot": "yes", "information": "board", "tourism": "information"}}, {"type": "node", "id": 4066607059, "lat": 51.4083291, "lon": 4.7752421, "tags": {"board_type": "history", "check_date": "2023-02-12", "information": "board", "inscription": "Hier stond de ijskelder tot 1915", "tourism": "information"}}, {"type": "node", "id": 4071648047, "lat": 51.4084962, "lon": 4.826889, "tags": {"check_date": "2021-04-15", "description": "De Vallei van het Merkske", "information": "map", "map_size": "region", "tourism": "information"}}, {"type": "node", "id": 4073313541, "lat": 51.4143428, "lon": 4.8369519, "tags": {"description": "Grenzeloos wandelen", "information": "map", "map_size": "region", "name": "Grenzeloos wandelen", "tourism": "information"}}, {"type": "node", "id": 4075091493, "lat": 51.4178518, "lon": 4.772875, "tags": {"board_type": "history", "check_date": "2023-02-12", "description": "Dodendraadroute", "information": "board", "operator": "Dodendraad", "ref": "8", "tourism": "information"}}, {"type": "node", "id": 4205788803, "lat": 51.4038034, "lon": 4.81888}, {"type": "node", "id": 4205790491, "lat": 51.4039403, "lon": 4.8188864}, {"type": "node", "id": 4205822389, "lat": 51.4039911, "lon": 4.8182176}, {"type": "node", "id": 4363341693, "lat": 51.4385099, "lon": 4.8067023, "tags": {"email": "info@antilliaansefeesten.be", "name": "Antilliaanse Feesten", "opening_hours": "Fr-Sa", "tourism": "attraction", "website": "https://antilliaansefeesten.be/"}}, {"type": "node", "id": 4777270100, "lat": 51.4117659, "lon": 4.8509289, "tags": {"artwork_type": "stone", "historic": "boundary_stone", "image": "https://commons.wikimedia.org/wiki/File:Witte_Kei_grenssteen_Hoogstraten-Merksplas-Baarle-Hertog.jpg", "name": "Witte Kei", "tourism": "artwork"}}, {"type": "node", "id": 4777270103, "lat": 51.4117146, "lon": 4.8509804, "tags": {"board_type": "history", "information": "board", "name": "Dodendraadroute", "tourism": "information"}}, {"type": "node", "id": 5572525969, "lat": 51.392894, "lon": 4.8272668, "tags": {"board_type": "notice", "check_date": "2024-08-24", "information": "board", "tourism": "information"}}, {"type": "node", "id": 5572527252, "lat": 51.3938605, "lon": 4.8273312, "tags": {"board_type": "history", "information": "board", "name": "In Vlaanderens velden bloeien de klaprozen", "tourism": "information"}}, {"type": "node", "id": 5592753932, "lat": 51.4106374, "lon": 4.8170167, "tags": {"board_type": "history", "information": "board", "name": "Halifax LK865", "tourism": "information", "website": "https://www.tracesofwar.nl/sights/137583/Gedenkplaat-Crash-Halifax-Mark-III-LK865-Wortel-Kolonie.htm"}}, {"type": "node", "id": 7095413858, "lat": 51.4003638, "lon": 4.7600406}, {"type": "node", "id": 7111947384, "lat": 51.4117465, "lon": 4.8509115, "tags": {"board_type": "history", "description": "Geschiedenis van de grenssteen \"Witte Kei\"", "information": "board", "tourism": "information"}}, {"type": "node", "id": 7555622406, "lat": 51.4039535, "lon": 4.8240453, "tags": {"information": "map", "name": "Wandelen in de Vallei van het Merkske", "tourism": "information"}}, {"type": "node", "id": 7555630717, "lat": 51.4130892, "lon": 4.8207216, "tags": {"information": "sign", "name": "Het Merkske", "tourism": "information"}}, {"type": "node", "id": 7555651868, "lat": 51.4096293, "lon": 4.8221997, "tags": {"board_type": "nature", "information": "board", "name": "Een verblijfplaats voor Vleermuizen", "tourism": "information"}}, {"type": "node", "id": 7555658270, "lat": 51.4119888, "lon": 4.8473473, "tags": {"information": "map", "name": "Grenzeloos wandelen", "tourism": "information"}}, {"type": "node", "id": 7555671049, "lat": 51.4143858, "lon": 4.8370556, "tags": {"name": "Het Merkske", "tourism": "information"}}, {"type": "node", "id": 7555673789, "lat": 51.4164624, "lon": 4.8326695, "tags": {"name": "Het Merkske", "tourism": "information"}}, {"type": "node", "id": 7555673895, "lat": 51.4163672, "lon": 4.8327371, "tags": {"name": "Het Merkske", "tourism": "information"}}, {"type": "node", "id": 7555692911, "lat": 51.4125995, "lon": 4.8466827, "tags": {"board_type": "nature", "information": "board", "name": "Wandelen in de Vallei van het Merkske", "tourism": "information"}}, {"type": "node", "id": 7556236980, "lat": 51.4035456, "lon": 4.824311, "tags": {"name": "Vzw De Bonte Beestenboel", "tourism": "attraction"}}, {"type": "node", "id": 7556252625, "lat": 51.4035872, "lon": 4.8240736, "tags": {"information": "map", "name": "Wortel- Kolonie", "tourism": "information"}}, {"type": "node", "id": 7561894608, "lat": 51.4672481, "lon": 4.8198005, "tags": {"name": "Welkom in Den Rooy", "tourism": "information"}}, {"type": "node", "id": 7561930656, "lat": 51.4667997, "lon": 4.8197812, "tags": {"name": "Welkom in Den Rooy", "tourism": "information"}}, {"type": "node", "id": 7561953860, "lat": 51.4630901, "lon": 4.8181633, "tags": {"name": "Zwarte Specht", "tourism": "information"}}, {"type": "node", "id": 7561964699, "lat": 51.4613087, "lon": 4.813963, "tags": {"name": "Welkom in Den Rooy en Smisselbergen", "tourism": "information"}}, {"type": "node", "id": 7561982039, "lat": 51.4611555, "lon": 4.8137633, "tags": {"name": "Welkom in Den Rooy en Smisselbergen", "tourism": "information"}}, {"type": "node", "id": 7562035718, "lat": 51.4552211, "lon": 4.8107656, "tags": {"name": "Welkom in Den Rooy en Smisselbergen", "tourism": "information"}}, {"type": "node", "id": 7562106732, "lat": 51.4492542, "lon": 4.8171659, "tags": {"name": "Grenzeloos wandelen", "tourism": "information"}}, {"type": "node", "id": 7562127733, "lat": 51.4533984, "lon": 4.8218683, "tags": {"name": "Grenzeloos wandelen", "tourism": "information"}}, {"type": "node", "id": 7562166955, "lat": 51.46266, "lon": 4.8135789, "tags": {"name": "Hazelworm", "tourism": "information"}}, {"type": "node", "id": 7562175289, "lat": 51.4551438, "lon": 4.8239585, "tags": {"name": "Is mest van levensbelang?", "tourism": "information"}}, {"type": "node", "id": 7562212144, "lat": 51.4650358, "lon": 4.809213, "tags": {"name": "Welkom in Den Rooy en Smisselbergen", "tourism": "information"}}, {"type": "node", "id": 7562221575, "lat": 51.4645487, "lon": 4.810718, "tags": {"name": "Beemden", "tourism": "information"}}, {"type": "node", "id": 7562255990, "lat": 51.4655985, "lon": 4.8095866, "tags": {"name": "Welkom in Den Rooy en Smisselbergen", "tourism": "information"}}, {"type": "node", "id": 7562282747, "lat": 51.463941, "lon": 4.815699, "tags": {"name": "Tempel van de stilte", "tourism": "information"}}, {"type": "node", "id": 7562360316, "lat": 51.4683183, "lon": 4.8160635, "tags": {"name": "Welkom in Den Rooy en Smisselbergen", "tourism": "information"}}, {"type": "node", "id": 7562435555, "lat": 51.479804, "lon": 4.8101954, "tags": {"name": "Welkom in de Elsakker", "tourism": "information"}}, {"type": "node", "id": 7562442879, "lat": 51.4827956, "lon": 4.8083774, "tags": {"name": "Welkom in de Elsakker", "tourism": "information"}}, {"type": "node", "id": 7562505023, "lat": 51.4869816, "lon": 4.8137013, "tags": {"information": "map", "name": "Grenzeloos wandelen", "tourism": "information"}}, {"type": "node", "id": 7562534053, "lat": 51.4890138, "lon": 4.8175541, "tags": {"name": "Begrazingsgebied", "tourism": "information"}}, {"type": "node", "id": 7562770873, "lat": 51.4902655, "lon": 4.8024655, "tags": {"name": "Solitaire bijen (Smokkelroute)", "tourism": "information"}}, {"type": "node", "id": 7562778458, "lat": 51.4925316, "lon": 4.8073456, "tags": {"name": "Grenzeloos wandelen", "tourism": "information"}}, {"type": "node", "id": 7562830878, "lat": 51.4827501, "lon": 4.8082742, "tags": {"name": "Kapel (Smokkelroute)", "tourism": "information"}}, {"type": "node", "id": 8235843642, "lat": 51.4183415, "lon": 4.762563, "tags": {"artist_name": "Paul Verbeeck", "artwork_type": "sculpture", "description": "https://photos.app.goo.gl/R8PhmpYhM3VBVAFc6", "image": "https://images.mapillary.com/f9bdM0RJFohzX74N6vu5AB/thumb-2048.jpg", "mapillary": "329779672079255", "name": "Pabboer", "start_date": "1993", "tourism": "artwork"}}, {"type": "node", "id": 8235899192, "lat": 51.4176384, "lon": 4.7624236, "tags": {"image": "https://images.mapillary.com/PdMPqdcY136wamSV4j2S8w/thumb-2048.jpg", "information": "map", "mapillary": "1205444953251857", "name": "Grenzeloos wandelen", "tourism": "information"}}, {"type": "node", "id": 8235899193, "lat": 51.4174591, "lon": 4.7623489, "tags": {"board_type": "history", "information": "board", "mapillary": "535168220837578", "name": "Sint-Clemenskerk", "tourism": "information"}}, {"type": "node", "id": 8235906624, "lat": 51.4173875, "lon": 4.7631083, "tags": {"artwork_type": "statue", "image": "https://images.mapillary.com/ErafCLCu5rd4Ap0drAQqn3/thumb-2048.jpg", "mapillary": "298782378409942", "tourism": "artwork"}}, {"type": "node", "id": 8235906625, "lat": 51.4175488, "lon": 4.7631449, "tags": {"artwork_type": "sculpture", "image": "https://images.mapillary.com/Zl5SJ4TBcfX9SWcZVgWyaE/thumb-2048.jpg", "image:0": "https://images.mapillary.com/ioJxIoQ1Ak7j6fqvLzXIKE/thumb-2048.jpg", "mapillary": "388667962544335", "tourism": "artwork"}}, {"type": "node", "id": 8355270058, "lat": 51.4026242, "lon": 4.7613345}, {"type": "node", "id": 8369698233, "lat": 51.4042488, "lon": 4.8243285, "tags": {"name": "Belevingscentrum Zouterover", "tourism": "attraction", "website": "https://zouterover.be/"}}, {"type": "node", "id": 8412613633, "lat": 51.4036488, "lon": 4.7639994}, {"type": "node", "id": 8412613634, "lat": 51.4036848, "lon": 4.7640183}, {"type": "node", "id": 8412613635, "lat": 51.4036303, "lon": 4.7642286}, {"type": "node", "id": 8412613636, "lat": 51.4035558, "lon": 4.7642002}, {"type": "node", "id": 8572980806, "lat": 51.4739983, "lon": 4.805279, "tags": {"information": "board", "tourism": "information"}}, {"type": "node", "id": 8765663897, "lat": 51.3964913, "lon": 4.7960459, "tags": {"artwork_type": "sculpture", "name": "De voorhoede", "tourism": "artwork"}}, {"type": "node", "id": 8767589621, "lat": 51.4037772, "lon": 4.7788744, "tags": {"artist_name": "Guido Belcanto", "artwork_type": "stone", "inscription": "gedicht", "tourism": "artwork"}}, {"type": "node", "id": 9665377675, "lat": 51.4229027, "lon": 4.7162313, "tags": {"name": "Den Aerd", "tourism": "information"}}, {"type": "node", "id": 10057948221, "lat": 51.4796128, "lon": 4.7410872, "tags": {"addr:housenumber": "9", "addr:street": "De Mosten", "name": "Meer", "tourism": "caravan_site"}}, {"type": "node", "id": 10753373022, "lat": 51.4038351, "lon": 4.8180863}, {"type": "node", "id": 10753373023, "lat": 51.4038805, "lon": 4.8180112}, {"type": "node", "id": 10753373040, "lat": 51.4039555, "lon": 4.8181281}, {"type": "node", "id": 10753373041, "lat": 51.4039356, "lon": 4.8181419}, {"type": "node", "id": 10753373042, "lat": 51.4038746, "lon": 4.818058}, {"type": "node", "id": 10753373043, "lat": 51.403856, "lon": 4.8180926}, {"type": "node", "id": 10753373044, "lat": 51.403917, "lon": 4.8181765}, {"type": "node", "id": 10753373052, "lat": 51.4039221, "lon": 4.8188856}, {"type": "node", "id": 10753373060, "lat": 51.4038831, "lon": 4.8188837}, {"type": "node", "id": 10753373063, "lat": 51.4038084, "lon": 4.8188803}, {"type": "node", "id": 10901399169, "lat": 51.403245, "lon": 4.8244154, "tags": {"addr:housenumber": "33", "addr:street": "Kolonie", "name": "Escaperoom De Landloper", "tourism": "attraction", "website": "https://landloper.be/"}}, {"type": "node", "id": 10936357895, "lat": 51.3929969, "lon": 4.8270871, "tags": {"information": "map", "mtb": "yes", "tourism": "information"}}, {"type": "node", "id": 10936375428, "lat": 51.4033944, "lon": 4.8288681, "tags": {"information": "map", "mtb": "yes", "tourism": "information"}}, {"type": "node", "id": 10936375429, "lat": 51.4028393, "lon": 4.8247629, "tags": {"information": "map", "mtb": "yes", "tourism": "information"}}, {"type": "node", "id": 11793944546, "lat": 51.3970479, "lon": 4.7569463, "tags": {"alt_name": "Vlinder", "artist_name": "Nel Bonte", "artwork_type": "sculpture", "name": "2-Pillio", "start_date": "2012", "tourism": "artwork"}}, {"type": "node", "id": 11839019717, "lat": 51.4125829, "lon": 4.7570316, "tags": {"addr:housenumber": "69", "addr:street": "Minderhoutsestraat", "email": "info@fragaria.be", "guest_house": "bed_and_breakfast", "internet_access": "wlan", "mobile": "+32 495 88 50 06", "name": "Fragaria", "rooms": "5", "tourism": "guest_house", "website": "https://www.fragaria.be/"}}, {"type": "node", "id": 12310211251, "lat": 51.4030812, "lon": 4.7623628, "tags": {"artwork_type": "mural", "image": "https://photos.app.goo.gl/8MrkWP5d4bpifJtC7", "tourism": "artwork"}}, {"type": "node", "id": 12310211254, "lat": 51.4035866, "lon": 4.7627533, "tags": {"artist_name": "Jef Martens", "artwork_type": "sculpture", "image": "https://photos.app.goo.gl/EjZDinKQdTdKmFQf8", "name": "DE BEGIJN", "start_date": "1999", "tourism": "artwork"}}, {"type": "node", "id": 12310364435, "lat": 51.4028378, "lon": 4.7636884, "tags": {"artwork_type": "sculpture", "image": "https://photos.app.goo.gl/qBBD9mUG4j8mEMou7", "tourism": "artwork"}}, {"type": "node", "id": 12310364436, "lat": 51.4028459, "lon": 4.763529, "tags": {"artwork_type": "sculpture", "tourism": "artwork"}}, {"type": "node", "id": 12310364438, "lat": 51.402168, "lon": 4.761156, "tags": {"artwork_type": "mural", "image": "https://photos.app.goo.gl/w2SaXCXk4XRk4RWg8", "tourism": "artwork"}}, {"type": "node", "id": 12310364439, "lat": 51.401169, "lon": 4.7615273, "tags": {"artwork_type": "sculpture", "image": "https://photos.app.goo.gl/r8s7XmDxVHsLesx68", "tourism": "artwork"}}, {"type": "node", "id": 12310364441, "lat": 51.4007743, "lon": 4.7613418, "tags": {"artwork_type": "sculpture", "image": "https://photos.app.goo.gl/CczntKcXqdyEBfJY9", "name": "DE TUINDERS", "tourism": "artwork"}}, {"type": "node", "id": 12310364475, "lat": 51.3988524, "lon": 4.7597019, "tags": {"artwork_type": "sculpture", "image": "https://photos.app.goo.gl/CmVPqKACjrVUtxfv8", "tourism": "artwork"}}, {"type": "node", "id": 12310364476, "lat": 51.3984007, "lon": 4.7599278, "tags": {"artwork_type": "mural", "covered": "yes", "image": "https://photos.app.goo.gl/abtdutiCMkZYNTUK7", "tourism": "artwork"}}, {"type": "node", "id": 12311454588, "lat": 51.4014252, "lon": 4.7587698, "tags": {"artwork_type": "sculpture", "image": "https://photos.app.goo.gl/vbB1k4BWxrkkytLi9", "tourism": "artwork"}}, {"type": "node", "id": 12311454589, "lat": 51.4015681, "lon": 4.758866, "tags": {"artwork_type": "sculpture", "image": "https://photos.app.goo.gl/nQ25WjibPKs2CB3aA", "tourism": "artwork"}}, {"type": "node", "id": 12312781725, "lat": 51.4075656, "lon": 4.7629971, "tags": {"artwork_type": "mural", "image": "https://photos.app.goo.gl/yY9JDnQ6eMRdtiMP8", "tourism": "artwork"}}, {"type": "node", "id": 12312781741, "lat": 51.4089236, "lon": 4.7631828, "tags": {"artwork_type": "mural", "image": "https://photos.app.goo.gl/rs4QpWEFXNg8D7mz5", "tourism": "artwork"}}, {"type": "node", "id": 12328588828, "lat": 51.4022174, "lon": 4.7618824, "tags": {"amenity": "mobility_hub", "fixme": "imported from official source, geometry might be off. Remove this fixme when location improved", "information": "board", "name": "Hoogstraten K. Boomstraat", "network": "Hoppin", "network:wikidata": "Q124310711", "ref:hoppin_column": "290", "tourism": "information"}}, {"type": "way", "id": 239375576, "nodes": [8412613636, 2471701957, 8412613633, 8412613634, 2471701964, 2471701962, 2470692947, 8412613635, 8412613636], "tags": {"OnroerendErfgoed:criteria": "M", "addr:city": "Hoogstraten", "addr:housenumber": "9", "addr:postcode": "2320", "addr:street": "Begijnhof", "building": "yes", "description": "Convent of Oudhuis', gemeenschapshuis voor begijnen", "heritage": "4", "heritage:operator": "OnroerendErfgoed", "heritage:website": "https://inventaris.onroerenderfgoed.be/dibe/relict/46538", "name": "Stedelijk museum", "ref:OnroerendErfgoed": "46538", "source": "AGIV", "tourism": "museum", "website": "https://www.hoogstraten.be/beknopte-geschiedenis-stedelijk-museum-hoogstraten_2.html", "wikidata": "Q44555950"}}, {"type": "way", "id": 365822812, "nodes": [3698293113, 3698293115, 8355270058, 3698293118, 3698293116, 3698293113], "tags": {"addr:city": "Hoogstraten", "addr:housenumber": "136", "addr:postcode": "2320", "addr:street": "Vrijheid", "building": "yes", "name": "Restaurant-Hotel Lewis", "tourism": "hotel", "website": "https://www.resto-lewis.be"}}, {"type": "way", "id": 365822876, "nodes": [3698292998, 7095413858, 3698293004, 3698293001, 3698292996, 3698292998], "tags": {"addr:city": "Hoogstraten", "addr:housenumber": "202", "addr:postcode": "2320", "addr:street": "Vrijheid", "amenity": "pub", "building": "yes", "name": "Bistrobar Hotel De Jachthoorn", "tourism": "hotel", "wheelchair": "yes"}}, {"type": "way", "id": 420624660, "nodes": [10753373022, 10753373023, 10753373040, 4205822389, 4205790491, 10753373052, 10753373060, 10753373063, 4205788803, 10753373022], "tags": {"backcountry": "yes", "bicycle": "yes", "camp_site": "basic", "capacity": "10", "caravans": "no", "description": "minimalistic bivouac site", "description:nl": "site voor paalkamperen", "drinking_water": "no", "fee": "no", "maxstay": "1 night", "maxtents": "3", "motor_vehicle": "no", "name": "Bivakzone Wortel-Kolonie", "openfire": "yes", "opening_hours": "24/7", "operator": "Agentschap voor Natuur en Bos", "reservation": "yes", "tents": "yes", "tourism": "camp_site", "url": "https://www.bivakzone.be/bivakzone-wortel-kolonie.html", "website": "https://bivakzones.camping.dev/nl/accommodations/171283"}}, {"type": "way", "id": 1156305552, "nodes": [10753373041, 10753373042, 10753373043, 10753373044, 10753373041], "tags": {"surface": "wood", "tourism": "camp_pitch"}}]}