{"version": 0.6, "generator": "Overpass API 0.7.62.1 084b4234", "osm3s": {"timestamp_osm_base": "2024-11-20T00:56:28Z", "copyright": "The data included in this document is from www.openstreetmap.org. The data is made available under ODbL."}, "elements": [{"type": "node", "id": 1991887100, "lat": 50.9799005, "lon": 5.103315, "tags": {"addr:city": "Zelem", "addr:housenumber": "34", "addr:postcode": "3545", "addr:street": "Dorpsstraat", "name": "Huize Nassau", "tourism": "guest_house", "website": "https://www.huizenassau.com/vakantiewoning"}}, {"type": "node", "id": 1991887109, "lat": 50.9424432, "lon": 5.1010031, "tags": {"addr:city": "Halen", "addr:country": "BE", "addr:housenumber": "46", "addr:postcode": "3545", "addr:street": "Lanciersstraat", "building": "yes", "email": "info@dezilverenhelm.be", "internet_access": "yes", "name": "B&B De Zilveren Helm", "operator": "B&B", "phone": "+32 499 73 60 22", "tourism": "guest_house", "website": "http://www.dezilverenhelm.be"}}, {"type": "node", "id": 2001618992, "lat": 50.9325613, "lon": 5.063363}, {"type": "node", "id": 2001618994, "lat": 50.9325629, "lon": 5.0637618}, {"type": "node", "id": 2001618996, "lat": 50.9326313, "lon": 5.0633627}, {"type": "node", "id": 2001618998, "lat": 50.9326355, "lon": 5.0637599}, {"type": "node", "id": 2171192286, "lat": 50.9377599, "lon": 5.1155759}, {"type": "node", "id": 2376063235, "lat": 50.936548, "lon": 5.1158073}, {"type": "node", "id": 2376063240, "lat": 50.9366158, "lon": 5.1151999}, {"type": "node", "id": 2376063241, "lat": 50.9366599, "lon": 5.1150815}, {"type": "node", "id": 2376063245, "lat": 50.9367152, "lon": 5.1155605}, {"type": "node", "id": 2376063276, "lat": 50.9372913, "lon": 5.114529}, {"type": "node", "id": 2859875900, "lat": 50.9664834, "lon": 5.0784265}, {"type": "node", "id": 2859883401, "lat": 50.9662261, "lon": 5.0786747}, {"type": "node", "id": 2859883402, "lat": 50.9662928, "lon": 5.078844}, {"type": "node", "id": 2859883403, "lat": 50.9665973, "lon": 5.0785462}, {"type": "node", "id": 2906143559, "lat": 50.9898163, "lon": 5.1260279, "tags": {"information": "map", "mtb": "yes", "name": "Mountainbikenetwerk West-Limburg", "tourism": "information"}}, {"type": "node", "id": 2926415305, "lat": 50.9867291, "lon": 5.1082359, "tags": {"check_date": "2022-02-12", "description": "Mountainbikenetwerk West-Limburg", "information": "map", "mtb": "yes", "tourism": "information"}}, {"type": "node", "id": 2926415316, "lat": 50.9885717, "lon": 5.0973449, "tags": {"check_date": "2022-02-12", "description": "Mountainbikenetwerk West-Limburg", "information": "map", "mtb": "yes", "tourism": "information"}}, {"type": "node", "id": 3100234190, "lat": 50.9655334, "lon": 5.0879833, "tags": {"bicycle": "yes", "check_date": "2021-03-24", "information": "map", "name": "Fietsparadijs Limburg", "tourism": "information"}}, {"type": "node", "id": 3100234191, "lat": 50.9655136, "lon": 5.0879415, "tags": {"board_type": "nature", "check_date": "2021-03-24", "information": "board", "name": "Webbekomsbroek", "tourism": "information"}}, {"type": "node", "id": 3364764393, "lat": 50.986481, "lon": 5.1142327, "tags": {"check_date": "2024-03-26", "hiking": "yes", "information": "map", "name": "Vallei van de Zwarte Beek", "tourism": "information"}}, {"type": "node", "id": 3424153595, "lat": 50.9715638, "lon": 5.0904086, "tags": {"board_type": "history", "check_date": "2021-03-24", "information": "board", "name": "WO II Aanval op villa", "tourism": "information"}}, {"type": "node", "id": 3424153693, "lat": 50.973151, "lon": 5.0979327, "tags": {"bicycle": "yes", "check_date": "2021-03-24", "information": "map", "name": "Fietsparadijs Limburg", "tourism": "information"}}, {"type": "node", "id": 3424153793, "lat": 50.9698587, "lon": 5.0921762, "tags": {"hiking": "yes", "information": "map", "name": "Kartuizerspatiamentum", "tourism": "information"}}, {"type": "node", "id": 3424153794, "lat": 50.9718645, "lon": 5.1023986, "tags": {"board_type": "nature", "check_date": "2021-03-24", "information": "board", "name": "Sint-Jansberg", "tourism": "information"}}, {"type": "node", "id": 3424153893, "lat": 50.9680533, "lon": 5.0893956, "tags": {"board_type": "nature", "check_date": "2021-03-24", "information": "board", "name": "Sint-Jansberg", "tourism": "information"}}, {"type": "node", "id": 3425566793, "lat": 50.9697782, "lon": 5.0754425, "tags": {"board_type": "nature", "check_date": "2021-05-15", "information": "board", "name": "Webbekoms Broek", "tourism": "information"}}, {"type": "node", "id": 3491191942, "lat": 50.9887755, "lon": 5.0974068}, {"type": "node", "id": 3491195336, "lat": 50.9888242, "lon": 5.097249}, {"type": "node", "id": 3491195337, "lat": 50.9888697, "lon": 5.0975899}, {"type": "node", "id": 3491195338, "lat": 50.9889221, "lon": 5.0973357}, {"type": "node", "id": 3491198175, "lat": 50.98889, "lon": 5.0974453}, {"type": "node", "id": 3491198176, "lat": 50.9889255, "lon": 5.0975191}, {"type": "node", "id": 3491198177, "lat": 50.9888946, "lon": 5.0973016}, {"type": "node", "id": 3491198178, "lat": 50.9889551, "lon": 5.0973609}, {"type": "node", "id": 3542602537, "lat": 50.9527784, "lon": 5.0841881, "tags": {"hiking": "yes", "information": "map", "map_type": "topo", "name": "Holle wegen wandeling", "tourism": "information"}}, {"type": "node", "id": 3557115593, "lat": 50.9376722, "lon": 5.0548132, "tags": {"board_type": "geology", "description": "Diepste holle weg van Vlaanderen", "information": "board", "name": "Sterreplek Holle Weg", "tourism": "information"}}, {"type": "node", "id": 3557115775, "lat": 50.9440778, "lon": 5.0791792, "tags": {"tourism": "viewpoint"}}, {"type": "node", "id": 3558596497, "lat": 50.9272193, "lon": 5.0919822}, {"type": "node", "id": 3558596498, "lat": 50.9270637, "lon": 5.0917608}, {"type": "node", "id": 3558596511, "lat": 50.927356, "lon": 5.0919985}, {"type": "node", "id": 3558596512, "lat": 50.9273614, "lon": 5.0918625}, {"type": "node", "id": 3558596513, "lat": 50.9273642, "lon": 5.0917919}, {"type": "node", "id": 3558740973, "lat": 50.9482501, "lon": 5.1145747, "tags": {"hiking": "yes", "information": "map", "name": "Slagveldwandeling", "tourism": "information"}}, {"type": "node", "id": 3761372328, "lat": 50.9398552, "lon": 5.0892808, "tags": {"board_type": "history", "description": "Slag der Zilveren Helmen", "information": "board", "name": "Wereldoorlog 1", "panoramax": "6ea94f98-59e9-4f7d-907b-0877461b9242", "tourism": "information"}}, {"type": "node", "id": 3787491261, "lat": 50.9891554, "lon": 5.0984813, "tags": {"check_date": "2022-11-25", "hiking": "yes", "information": "map", "name": "Vallei van de Zwarte Beek", "tourism": "information"}}, {"type": "node", "id": 4066465056, "lat": 50.9476618, "lon": 5.1144482, "tags": {"addr:city": "Halen", "addr:country": "BE", "addr:housenumber": "14", "addr:postcode": "3545", "addr:province": "Limburg", "addr:street": "Markt", "email": "toerisme.info@halen.be", "information": "office", "name": "Halen", "opening_hours": "Mo 13:00-19:00; We 08:00-12:00, 13:00-17:00; Th-Fr 08:00-12:00", "phone": "+32 13 35 08 30", "tourism": "information", "website": "https://www.halen.be/"}}, {"type": "node", "id": 4618284973, "lat": 50.9437358, "lon": 5.0958223, "tags": {"board_type": "history", "description": "Kleine Verhalen in een Groote Oorlog", "information": "board", "name": "De slag der Zilveren Helmen", "panoramax": "111de9d9-ea88-4fd2-a9dd-09cc4f3d114f", "tourism": "information"}}, {"type": "node", "id": 4618284984, "lat": 50.943637, "lon": 5.0956334}, {"type": "node", "id": 4618284985, "lat": 50.9432529, "lon": 5.095662}, {"type": "node", "id": 4618287004, "lat": 50.943317, "lon": 5.0958754}, {"type": "node", "id": 4618287005, "lat": 50.9435729, "lon": 5.09542}, {"type": "node", "id": 4618287007, "lat": 50.9421109, "lon": 5.0972827, "tags": {"board_type": "history", "description": "Soldaten op de fiets", "information": "board", "name": "Getelinie", "panoramax": "c359973c-68ff-4a84-9868-509e50f80b3d", "tourism": "information"}}, {"type": "node", "id": 4622163317, "lat": 50.9798275, "lon": 5.1037309, "tags": {"hiking": "yes", "information": "map", "name": "Vallei van de Zwarte Beek", "tourism": "information"}}, {"type": "node", "id": 4623652498, "lat": 50.9679773, "lon": 5.089338, "tags": {"board_type": "history", "check_date": "2021-03-24", "information": "board", "name": "De verdwenen kerk van Zelem", "tourism": "information"}}, {"type": "node", "id": 4623652517, "lat": 50.9699246, "lon": 5.0923062, "tags": {"board_type": "history", "information": "board", "name": "Sint-Jansbergklooster", "tourism": "information"}}, {"type": "node", "id": 4795308197, "lat": 50.9868463, "lon": 5.1169339, "tags": {"information": "board", "tourism": "information"}}, {"type": "node", "id": 4795308206, "lat": 50.9901233, "lon": 5.1301961, "tags": {"information": "board", "tourism": "information"}}, {"type": "node", "id": 6166660383, "lat": 50.9325663, "lon": 5.0633166, "tags": {"hiking": "yes", "information": "map", "name": "Holle wegen in Hagelandse Heuvels", "tourism": "information"}}, {"type": "node", "id": 6256117934, "lat": 50.9663559, "lon": 5.0785481}, {"type": "node", "id": 6256117935, "lat": 50.9663837, "lon": 5.078521}, {"type": "node", "id": 6256117936, "lat": 50.9663787, "lon": 5.0785088}, {"type": "node", "id": 6256117937, "lat": 50.9663518, "lon": 5.0785355}, {"type": "node", "id": 6256117938, "lat": 50.9664985, "lon": 5.0784657}, {"type": "node", "id": 6256117939, "lat": 50.966547, "lon": 5.0784188}, {"type": "node", "id": 7154259209, "lat": 50.9439616, "lon": 5.0956055, "tags": {"board_type": "history", "information": "board", "name": "Dit zijn wij", "tourism": "information"}}, {"type": "node", "id": 7154259210, "lat": 50.9439521, "lon": 5.0956019, "tags": {"board_type": "history", "information": "board", "name": "Twee extra helmen", "panoramax": "10583ee2-1c8c-42f2-b558-dd66d920d434", "tourism": "information"}}, {"type": "node", "id": 7320087158, "lat": 50.9722107, "lon": 5.1248176, "tags": {"information": "map", "mtb": "yes", "name": "Mountainbikenetwerk West-Limburg", "tourism": "information"}}, {"type": "node", "id": 7806402141, "lat": 50.9270561, "lon": 5.0919631}, {"type": "node", "id": 7963595434, "lat": 50.9341492, "lon": 5.0695369, "tags": {"artwork_type": "statue", "tourism": "artwork"}}, {"type": "node", "id": 8007924469, "lat": 50.9319856, "lon": 5.07057, "tags": {"information": "map", "map_type": "scheme", "name": "Domein Panoven", "tourism": "information"}}, {"type": "node", "id": 8010930305, "lat": 50.9317865, "lon": 5.0711532, "tags": {"information": "map", "map_type": "scheme", "name": "Finse piste", "tourism": "information"}}, {"type": "node", "id": 9324341386, "lat": 50.937704, "lon": 5.1147272}, {"type": "node", "id": 9963336870, "lat": 50.9369293, "lon": 5.1167693}, {"type": "node", "id": 9963336871, "lat": 50.9371032, "lon": 5.1165526}, {"type": "node", "id": 9963336872, "lat": 50.9361694, "lon": 5.1179355}, {"type": "node", "id": 9963336874, "lat": 50.9366077, "lon": 5.1188673}, {"type": "node", "id": 9963336875, "lat": 50.9376076, "lon": 5.1176257}, {"type": "node", "id": 10220501204, "lat": 50.9898582, "lon": 5.0998137, "tags": {"board_type": "rules", "direction": "50", "information": "board", "operator": "Agentschap Natuur & Bos", "tourism": "information"}}, {"type": "node", "id": 10745288565, "lat": 50.9761967, "lon": 5.076705, "tags": {"tourism": "viewpoint"}}, {"type": "node", "id": 10831972017, "lat": 50.9792255, "lon": 5.0963641, "tags": {"information": "board", "name": "Webbekoms Broek", "tourism": "information"}}, {"type": "node", "id": 10831973752, "lat": 50.9793049, "lon": 5.1039601, "tags": {"artwork_type": "sculpture", "tourism": "artwork"}}, {"type": "node", "id": 12048152590, "lat": 50.9421135, "lon": 5.0971161, "tags": {"board_type": "history", "information": "board", "panoramax": "4d1d66ab-1577-4936-9c94-c1eb11c03129", "tourism": "information"}}, {"type": "node", "id": 12048152597, "lat": 50.9427103, "lon": 5.0906455, "tags": {"board_type": "history", "information": "board", "panoramax": "cf003ce3-10f4-46f5-8cb4-dc06d6746613", "tourism": "information"}}, {"type": "node", "id": 12328588752, "lat": 50.9618288, "lon": 5.0832665, "tags": {"amenity": "mobility_hub", "fixme": "imported from official source, geometry might be off. Remove this fixme when location improved", "information": "board", "name": "Halen Carpoolparking", "network": "Hoppin", "network:wikidata": "Q124310711", "ref:hoppin_column": "337", "tourism": "information"}}, {"type": "way", "id": 189570224, "nodes": [2001618996, 2001618992, 2001618994, 2001618998, 2001618996], "tags": {"addr:city": "Loksbergen", "addr:housenumber": "1", "addr:postcode": "3545", "addr:street": "Hagelandstraat", "building": "civic", "email": "info@reinvoart.com", "name": "Streekmuseum De Reinvoart", "phone": "+32 13 44 23 33", "tourism": "museum", "website": "http://www.reinvoart.com/", "wikidata": "Q106556781"}}, {"type": "way", "id": 282043302, "nodes": [2859875900, 6256117938, 6256117939, 2859883403, 2859883402, 2859883401, 6256117934, 6256117937, 6256117936, 6256117935, 2859875900], "tags": {"addr:city": "Diest", "addr:housenumber": "152", "addr:postcode": "3290", "addr:street": "Halensebaan", "building": "yes", "check_date": "2024-04-01", "email": "info@prinsvanoranje.be", "internet_access": "wlan", "name": "Prins van Oranje", "phone": "+32 13 35 10 70", "rooms": "18", "tourism": "hotel", "website": "https://www.prinsvanoranje.be/"}}, {"type": "way", "id": 342082864, "nodes": [3491195336, 3491198177, 3491195338, 3491198178, 3491198175, 3491198176, 3491195337, 3491191942, 3491195336], "tags": {"addr:city": "Zelem", "addr:housenumber": "4", "addr:postcode": "3545", "addr:street": "Heesstraat", "beds": "98", "building": "yes", "group_only": "yes", "name": "De Wiekslag", "rooms": "6", "tourism": "hostel", "website": "https://zelfkook.cjt.be/nl/detail/3021/de-wiekslag"}}, {"type": "way", "id": 350111037, "nodes": [3558596497, 3558596511, 3558596512, 3558596513, 3558596498, 7806402141, 3558596497], "tags": {"addr:city": "Halen", "addr:housenumber": "14", "addr:postcode": "3545", "addr:street": "Rotemstraat", "building": "yes", "email": "museum@slagderzilverenhelmen.be", "fee": "yes", "museum": "history", "name": "Museum Slag Der Zilveren Helmen", "opening_hours": "May-Oct: We-Su 14:00-17:00", "operator": "V.Z.W Museum Slag der Zilveren Helmen", "phone": "+32 13 44 10 14", "tourism": "museum", "website": "https://www.slagderzilverenhelmen.be/", "wikidata": "Q21152645"}}, {"type": "way", "id": 467177652, "nodes": [4618287005, 4618284985, 4618287004, 4618284984, 4618287005], "tags": {"artwork_type": "sculpture", "subject:wikidata": "Q1497933", "tourism": "artwork", "wikimedia_commons": "File:44 helmets.jpg"}}, {"type": "way", "id": 1092962639, "nodes": [9963336871, 2171192286, 9324341386, 2376063276, 2376063241, 2376063240, 2376063245, 2376063235, 9963336870, 9963336872, 9963336874, 9963336875, 9963336871], "tags": {"access": "customers", "addr:city": "Halen", "addr:housenumber": "47", "addr:postcode": "3545", "addr:street": "Ertsenrijkstraat", "backcountry": "no", "camp_site": "basic", "capacity:persons": "200", "caravans": "no", "drinking_water": "yes", "fee": "yes", "group_only": "yes", "hot_water": "no", "internet_access": "no", "motor_vehicle": "yes", "openfire": "yes", "power_supply": "yes", "reservation": "required", "scout": "yes", "tents": "yes", "toilets": "no", "tourism": "camp_site"}}]}