{"version": 0.6, "generator": "Overpass API 0.7.62.1 084b4234", "osm3s": {"timestamp_osm_base": "2024-11-20T00:53:28Z", "copyright": "The data included in this document is from www.openstreetmap.org. The data is made available under ODbL."}, "elements": [{"type": "node", "id": 250298141, "lat": 50.8140158, "lon": 4.4342801}, {"type": "node", "id": 250298142, "lat": 50.8144432, "lon": 4.435185}, {"type": "node", "id": 250298164, "lat": 50.8132026, "lon": 4.4367042}, {"type": "node", "id": 250298165, "lat": 50.8133236, "lon": 4.4362646}, {"type": "node", "id": 250298166, "lat": 50.8135341, "lon": 4.435125}, {"type": "node", "id": 255680838, "lat": 50.8126442, "lon": 4.4381374}, {"type": "node", "id": 255681042, "lat": 50.8143065, "lon": 4.4355785}, {"type": "node", "id": 255681043, "lat": 50.8142919, "lon": 4.4358624}, {"type": "node", "id": 255681044, "lat": 50.8139008, "lon": 4.4368717}, {"type": "node", "id": 255681045, "lat": 50.8140457, "lon": 4.4370802}, {"type": "node", "id": 255681046, "lat": 50.8141617, "lon": 4.4371069}, {"type": "node", "id": 255681047, "lat": 50.8145413, "lon": 4.4373644}, {"type": "node", "id": 255681048, "lat": 50.814704, "lon": 4.4375103}, {"type": "node", "id": 255681049, "lat": 50.8149209, "lon": 4.4379223}, {"type": "node", "id": 255681050, "lat": 50.8150836, "lon": 4.4382656}, {"type": "node", "id": 255681051, "lat": 50.8150836, "lon": 4.4386519}, {"type": "node", "id": 255681052, "lat": 50.8149589, "lon": 4.4391239}, {"type": "node", "id": 255681053, "lat": 50.814986, "lon": 4.4392956}, {"type": "node", "id": 255681054, "lat": 50.8147582, "lon": 4.4400852}, {"type": "node", "id": 255681055, "lat": 50.8145759, "lon": 4.4406009}, {"type": "node", "id": 255681057, "lat": 50.8136705, "lon": 4.4391864}, {"type": "node", "id": 520397132, "lat": 50.8088993, "lon": 4.4426244, "tags": {"addr:country": "BE", "addr:housenumber": "2057", "addr:postcode": "1160", "addr:street": "Chauss\u00e9e de Wavre - Waversesteenweg", "email": "contact@auberge3fontaines.be", "name": "Auberge des Trois Fontaines", "operator": "ADEPS - ULB - COCOF", "phone": "+32 2 663 24 41", "tourism": "hostel", "website": "https://www.auberge3fontaines.be/", "wheelchair": "yes"}}, {"type": "node", "id": 1839123883, "lat": 50.8183335, "lon": 4.3980735, "tags": {"information": "board", "tourism": "information"}}, {"type": "node", "id": 2069484935, "lat": 50.8141735, "lon": 4.4449473, "tags": {"direction": "240", "tourism": "viewpoint"}}, {"type": "node", "id": 2343903874, "lat": 50.8134975, "lon": 4.443158}, {"type": "node", "id": 2343903877, "lat": 50.8135615, "lon": 4.4432482}, {"type": "node", "id": 2343903878, "lat": 50.8136009, "lon": 4.4429873}, {"type": "node", "id": 2343903879, "lat": 50.8136624, "lon": 4.4430805}, {"type": "node", "id": 2479516531, "lat": 50.8172141, "lon": 4.4268949}, {"type": "node", "id": 2479516537, "lat": 50.8172238, "lon": 4.4268582}, {"type": "node", "id": 2479516546, "lat": 50.8172396, "lon": 4.42691}, {"type": "node", "id": 2479516550, "lat": 50.8172485, "lon": 4.4268731}, {"type": "node", "id": 3073348234, "lat": 50.8153214, "lon": 4.4494096, "tags": {"information": "board", "tourism": "information"}}, {"type": "node", "id": 3087268163, "lat": 50.8072228, "lon": 4.4472681, "tags": {"check_date": "2023-09-10", "information": "board", "tourism": "information"}}, {"type": "node", "id": 3317485993, "lat": 50.8019446, "lon": 4.4308473, "tags": {"contact:phone": "+32 2 660 46 72", "contact:website": "https://au-repos-des-chasseurs.be", "description": "Hotel, Restaurant and ApartHotel", "name": "Au Repos des Chasseurs", "stars": "3", "tourism": "hotel"}}, {"type": "node", "id": 4140721044, "lat": 50.8132882, "lon": 4.4364135}, {"type": "node", "id": 4140721045, "lat": 50.8132242, "lon": 4.4366309}, {"type": "node", "id": 4140721046, "lat": 50.8133698, "lon": 4.4365142}, {"type": "node", "id": 4140721047, "lat": 50.8133608, "lon": 4.4365572, "tags": {"access": "private", "barrier": "gate", "opening_hours": "Mo-Fr 09:00-17:00"}}, {"type": "node", "id": 4140721048, "lat": 50.8133542, "lon": 4.4365909}, {"type": "node", "id": 4140721049, "lat": 50.8127148, "lon": 4.4379696, "tags": {"barrier": "gate"}}, {"type": "node", "id": 4140721050, "lat": 50.8139364, "lon": 4.4401975}, {"type": "node", "id": 4140721051, "lat": 50.8138986, "lon": 4.4394161}, {"type": "node", "id": 4140721052, "lat": 50.8138561, "lon": 4.4394232, "tags": {"barrier": "gate", "check_date:opening_hours": "2022-06-04", "opening_hours": "Mo-Fr 09:00-15:00"}}, {"type": "node", "id": 4140721053, "lat": 50.8138207, "lon": 4.4394328}, {"type": "node", "id": 4414700189, "lat": 50.8206674, "lon": 4.3950331, "tags": {"information": "guidepost", "operator": "Vrije Universiteit Brussel", "tourism": "information"}}, {"type": "node", "id": 4416045411, "lat": 50.8223606, "lon": 4.394019, "tags": {"artist_name": "Willy van den Dorpe", "artwork_type": "sculpture", "material": "vubonite", "name": "Denker In Alle Staten", "start_date": "2006", "tourism": "artwork", "wikidata": "Q124656424", "wikimedia_commons": "Category:Denker In Alle Staten"}}, {"type": "node", "id": 4416045412, "lat": 50.8224301, "lon": 4.3923834, "tags": {"artist:wikidata": "Q21396103", "artist_name": "Camiel Van Breedam", "artwork_type": "sculpture", "material": "weathering_steel", "name": "Libertad I & II", "start_date": "1995", "tourism": "artwork"}}, {"type": "node", "id": 4416045413, "lat": 50.8224309, "lon": 4.3926664, "tags": {"artist_name": "Jos Delbroek", "artwork_type": "sculpture", "material": "marble", "name": "Carotte", "start_date": "1993", "tourism": "artwork"}}, {"type": "node", "id": 4416045415, "lat": 50.8226906, "lon": 4.3922587, "tags": {"artist:wikidata": "Q22236819", "artist_name": "Paul Van Gysegem", "artwork_type": "sculpture", "material": "bronze", "name": "Enkidoe", "start_date": "1985", "tourism": "artwork"}}, {"type": "node", "id": 4416045416, "lat": 50.8232159, "lon": 4.3920206, "tags": {"artist:wikidata": "Q1823135", "artist_name": "Georges Dobbels", "artwork_type": "sculpture", "material": "limestone", "name": "Geen Titel", "note": "\"Geen Titel\" is the name of the sculpture", "start_date": "1980-05-28", "tourism": "artwork"}}, {"type": "node", "id": 4547549663, "lat": 50.8103174, "lon": 4.4359454, "tags": {"artist:wikidata": "Q2742216", "artist_name": "Jacques Moeschal", "artwork_type": "sculpture", "name": "Toute une vie", "tourism": "artwork"}}, {"type": "node", "id": 5337222314, "lat": 50.8221065, "lon": 4.3965639, "tags": {"amenity": "clock", "artist:wikidata": "Q22237342", "artist_name": "Bart Soubry", "artwork_type": "sculpture", "display": "sundial", "material": "limestone", "name": "Fin de Si\u00e8cle", "start_date": "2000", "support": "ground", "tourism": "artwork"}}, {"type": "node", "id": 5385474171, "lat": 50.8140099, "lon": 4.4401677}, {"type": "node", "id": 5385474172, "lat": 50.8144057, "lon": 4.4404285}, {"type": "node", "id": 6564367418, "lat": 50.8027951, "lon": 4.4278226, "tags": {"artist_name": "Dirk de Keyser", "artwork_type": "statue", "name": "Sleydingen", "start_date": "1963", "tourism": "artwork"}}, {"type": "node", "id": 6688369420, "lat": 50.8131736, "lon": 4.4386719}, {"type": "node", "id": 6688369421, "lat": 50.8131617, "lon": 4.4386747}, {"type": "node", "id": 6690767413, "lat": 50.8139353, "lon": 4.4344014}, {"type": "node", "id": 6690767414, "lat": 50.8137987, "lon": 4.4346308}, {"type": "node", "id": 6690767486, "lat": 50.8141694, "lon": 4.4345857}, {"type": "node", "id": 6817375038, "lat": 50.8233694, "lon": 4.3976061, "tags": {"artist:wikidata": "Q1928437", "artist_name": "Johan Tahon", "artwork_type": "sculpture", "ele": "6", "material": "bronze", "name": "Eros/Eroos", "note": "name isn't a multilingual name", "source": "https://www.vrt.be/vrtnws/nl/2019/08/27/kunstwerk-eros-eroos-van-johan-tahon-wordt-ontmoetingsplek-aan/", "start_date": "2019", "tourism": "artwork"}}, {"type": "node", "id": 6917868147, "lat": 50.8242891, "lon": 4.3959309, "tags": {"artist:wikidata": "Q22236727", "artist_name": "Nick Ervinck", "artwork_type": "sculpture", "material": "polyurethane", "name": "REDNOYER", "start_date": "2019", "tourism": "artwork"}}, {"type": "node", "id": 6932215815, "lat": 50.8216517, "lon": 4.3971254, "tags": {"information": "board", "operator": "Vrije Universiteit Brussel", "tourism": "information"}}, {"type": "node", "id": 7968372787, "lat": 50.8180287, "lon": 4.4209376, "tags": {"tourism": "map"}}, {"type": "node", "id": 8318528827, "lat": 50.8175108, "lon": 4.4297098, "tags": {"artwork_type": "mural", "name": "Gil Jourdan", "start_date": "2006", "tourism": "artwork"}}, {"type": "node", "id": 8706935687, "lat": 50.8108271, "lon": 4.4063873, "tags": {"artist_name": "Matthieu M.", "artwork_type": "statue", "description": "Set of 2 wooden mammoths (+/- 2m high). The mammoths initially settled in 2008 on the grassland facing the Cath\u00e9drale St-Michel-&-Gudule, then started hibernation in unknown cave some years later, and finally migrated in 2021 to the Parc de la H\u00e9ronni\u00e8re", "material": "wood", "name": "Jing", "tourism": "artwork", "website": "https://document.environnement.brussels/opac_css/elecfile/IF%20EV%20Parcs%20SaintsMichelGudulle%20FR"}}, {"type": "node", "id": 8807235680, "lat": 50.8052689, "lon": 4.4279135, "tags": {"artist_name": "Jean-Fran\u00e7ois Diord", "artwork_type": "sculpture", "material": "wood", "name": "L'Arche", "tourism": "artwork"}}, {"type": "node", "id": 8845794475, "lat": 50.822742, "lon": 4.3916029, "tags": {"artist:wikidata": "Q22031069", "artist_name": "Jean Bilquin", "artwork_type": "sculpture", "material": "bronze", "name": "Le Pas - De Stap", "name:fr": "Le Pas", "name:nl": "De Stap", "start_date": "2001", "tourism": "artwork"}}, {"type": "node", "id": 8887870535, "lat": 50.8225198, "lon": 4.3934976, "tags": {"artist:wikidata": "Q22235721", "artist_name": "Philip Aguirre y Otegui", "artwork_type": "sculpture", "material": "bronze", "name": "Monument van troost", "start_date": "2009", "tourism": "artwork"}}, {"type": "node", "id": 8887870553, "lat": 50.8228054, "lon": 4.3980632, "tags": {"artist:wikidata": "Q52820094", "artist_name": "Mark Cloet", "artwork_type": "sculpture", "material": "bronze", "name": "Mia Casa", "start_date": "2003", "tourism": "artwork"}}, {"type": "node", "id": 8887870554, "lat": 50.8233884, "lon": 4.3989511, "tags": {"artist:wikidata": "Q21345208", "artist_name": "Etienne Desmet", "artwork_type": "sculpture", "material": "bronze", "name": "Power", "start_date": "2009", "tourism": "artwork"}}, {"type": "node", "id": 8960701912, "lat": 50.812977, "lon": 4.4455524, "tags": {"board_type": "history", "information": "board", "name": "La Maison du meunier - De molenaarswoning", "name:fr": "La Maison du meunier", "name:nl": "De molenaarswoning", "tourism": "information"}}, {"type": "node", "id": 8960709018, "lat": 50.8136646, "lon": 4.4430674, "tags": {"board_type": "history", "information": "board", "name": "Les Dortoirs Laics - Het Lekenverblijf", "tourism": "information"}}, {"type": "node", "id": 8960709026, "lat": 50.8133735, "lon": 4.4427386, "tags": {"board_type": "history", "information": "board", "tourism": "information"}}, {"type": "node", "id": 8960709027, "lat": 50.8133692, "lon": 4.4427672, "tags": {"information": "map", "map_size": "site", "tourism": "information"}}, {"type": "node", "id": 8960709039, "lat": 50.8138354, "lon": 4.4396009, "tags": {"information": "map", "map_size": "site", "tourism": "information"}}, {"type": "node", "id": 8960709075, "lat": 50.8106826, "lon": 4.4427579, "tags": {"information": "map", "map_size": "site", "tourism": "information"}}, {"type": "node", "id": 8960709076, "lat": 50.8106826, "lon": 4.4427331, "tags": {"information": "map", "map_size": "region", "tourism": "information"}}, {"type": "node", "id": 8960709077, "lat": 50.8106669, "lon": 4.4427437, "tags": {"information": "guidepost", "tourism": "information"}}, {"type": "node", "id": 8963502048, "lat": 50.8128987, "lon": 4.4459267, "tags": {"information": "map", "map_size": "region", "name": "For\u00eat de Soignes - Zoni\u00ebnwoud", "tourism": "information"}}, {"type": "node", "id": 8963502049, "lat": 50.812915, "lon": 4.4459403, "tags": {"information": "map", "map_size": "site", "name": "Vall\u00e9e - Vallei", "tourism": "information"}}, {"type": "node", "id": 8963502050, "lat": 50.8129322, "lon": 4.4459526, "tags": {"information": "map", "map_size": "site", "name": "Priorei", "tourism": "information"}}, {"type": "node", "id": 8975174955, "lat": 50.8139646, "lon": 4.4439751}, {"type": "node", "id": 8975174956, "lat": 50.8140116, "lon": 4.4440459}, {"type": "node", "id": 8975174957, "lat": 50.8139281, "lon": 4.4441992}, {"type": "node", "id": 8975174958, "lat": 50.8138775, "lon": 4.4441296}, {"type": "node", "id": 8975174959, "lat": 50.8138804, "lon": 4.4440506}, {"type": "node", "id": 8975174960, "lat": 50.8139237, "lon": 4.4439787}, {"type": "node", "id": 8975174964, "lat": 50.8134035, "lon": 4.4457335, "tags": {"board_type": "history", "information": "board", "name": "Le mur d'enceinte - De ommuring", "tourism": "information"}}, {"type": "node", "id": 8983945294, "lat": 50.812256, "lon": 4.4468639, "tags": {"board_type": "nature", "information": "board", "name": "Mare \u00e0 grenouilles - Kikkerpoel", "name:fr": "Mare \u00e0 grenouilles", "name:nl": "Kikkerpoel", "tourism": "information"}}, {"type": "node", "id": 8993770807, "lat": 50.8148075, "lon": 4.4409042, "tags": {"information": "map", "tourism": "information"}}, {"type": "node", "id": 9005291519, "lat": 50.8170214, "lon": 4.4269467, "tags": {"artist_name": "Luc de Meersman", "artwork_type": "sculpture", "name": "Mercure - Mercurius", "name:en": "Mercury", "name:fr": "Mercure", "name:nl": "Mercurius", "tourism": "artwork"}}, {"type": "node", "id": 9005292890, "lat": 50.8153464, "lon": 4.4081143, "tags": {"artist_name": "Luc de Meersman", "artwork_type": "sculpture", "name": "Soleil - Zon", "name:en": "Sun", "name:fr": "Soleil", "name:nl": "Zon", "tourism": "artwork"}}, {"type": "node", "id": 9178965341, "lat": 50.8124882, "lon": 4.4307158, "tags": {"artist_name": "Suarez Murals", "artwork_type": "mural", "start_date": "2021-10-17", "tourism": "artwork"}}, {"type": "node", "id": 9442743271, "lat": 50.8086647, "lon": 4.4139398, "tags": {"artist_name": "Jean-Pierre Lipit", "artwork_type": "sculpture", "material": "wood", "name": "Oiseau \u2013 Girouette", "tourism": "artwork", "year": "1996"}}, {"type": "node", "id": 9656778038, "lat": 50.8187623, "lon": 4.4362824, "tags": {"board_type": "history", "information": "board", "language:de": "yes", "language:en": "yes", "language:fr": "yes", "language:nl": "yes", "name": "Chapelle Sainte-Anne - Sint-Annakapel - Kapelle der Heiligen Anna - St. Anne's Chapel", "name:de": "Kapelle der Heiligen Anna", "name:en": "St. Anne's Chapel", "name:fr": "Chapelle Sainte-Anne", "name:nl": "Sint-Annakapel", "tourism": "information"}}, {"type": "node", "id": 9987101113, "lat": 50.823125, "lon": 4.3959586, "tags": {"artist:wikidata": "Q4103403", "artist_name": "Koen Vanmechelen", "artwork_type": "installation", "location": "roof", "name": "Ab Chao", "start_date": "2021", "tourism": "artwork"}}, {"type": "node", "id": 10943643733, "lat": 50.8069632, "lon": 4.4176553, "tags": {"direction": "325", "tourism": "viewpoint"}}, {"type": "node", "id": 11100291322, "lat": 50.8027892, "lon": 4.4262195, "tags": {"bar": "yes", "contact:facebook": "mixbrussels", "contact:instagram": "mix.brussels", "contact:linkedin": "mix-brussels", "contact:website": "https://mix.brussels/", "fee": "yes", "leisure": "sports_centre", "name": "Mix Brussels", "shop": "massage", "sport": "fitness;crossfit;boxing", "swimming_pool": "yes", "tourism": "hotel", "wikidata": "Q124960152"}}, {"type": "node", "id": 11215486758, "lat": 50.8211074, "lon": 4.3956798, "tags": {"information": "guidepost", "operator": "Vrije Universiteit Brussel", "tourism": "information"}}, {"type": "node", "id": 11215486759, "lat": 50.8215551, "lon": 4.395691, "tags": {"information": "guidepost", "operator": "Vrije Universiteit Brussel", "tourism": "information"}}, {"type": "node", "id": 11420377475, "lat": 50.8204444, "lon": 4.3979871, "tags": {"information": "guidepost", "tourism": "information"}}, {"type": "node", "id": 11572056369, "lat": 50.8161489, "lon": 4.398433, "tags": {"brand": "Adagio", "brand:wikidata": "Q2823880", "contact:email": "HB5M6@adagio-city.com", "contact:phone": "+32 2 854 15 10", "contact:website": "https://www.adagio-city.com/gb/hotel-B5M6-aparthotel-adagio-access-brussels-delta/index.shtml", "description": "Aparthotel", "name": "Aparthotel Adagio Access Brussels Delta", "opening_hours": "24/7", "operator": "Accor", "tourism": "hotel"}}, {"type": "node", "id": 11662875733, "lat": 50.8151149, "lon": 4.4086786, "tags": {"advertising": "screen", "board_type": "public_transport", "departures_board": "realtime", "image": "https://i.imgur.com/crURQPY.jpeg", "information": "board", "noname": "yes", "operator": "STIB/MIVB", "tourism": "information", "wheelchair": "yes"}}, {"type": "node", "id": 11663640285, "lat": 50.8070162, "lon": 4.4273556, "tags": {"artwork_type": "sculpture", "name": "Porte des lions", "tourism": "artwork"}}, {"type": "node", "id": 11694094004, "lat": 50.8137207, "lon": 4.419494, "tags": {"advertising": "screen", "board_type": "public_transport", "departures_board": "realtime", "image": "https://i.imgur.com/XeyGvla.jpeg", "information": "board", "noname": "yes", "operator": "STIB/MIVB", "tourism": "information", "wheelchair": "yes"}}, {"type": "node", "id": 11708229765, "lat": 50.8139861, "lon": 4.4206087, "tags": {"advertising": "screen", "board_type": "public_transport", "departures_board": "realtime", "image": "https://i.imgur.com/5DIX3mf.jpeg", "information": "board", "operator": "STIB/MIVB", "tourism": "information", "wheelchair": "yes"}}, {"type": "node", "id": 11708349980, "lat": 50.8133056, "lon": 4.4224793, "tags": {"advertising": "screen", "board_type": "public_transport", "departures_board": "realtime", "information": "board", "operator": "STIB/MIVB", "tourism": "information", "wheelchair": "yes"}}, {"type": "node", "id": 11725434692, "lat": 50.8219509, "lon": 4.4051638, "tags": {"advertising": "screen", "board_type": "public_transport", "departures_board": "realtime", "information": "board", "operator": "STIB/MIVB", "tourism": "information", "wheelchair": "yes"}}, {"type": "node", "id": 11762400936, "lat": 50.8124899, "lon": 4.4281917, "tags": {"advertising": "screen", "board_type": "public_transport", "departures_board": "realtime", "information": "board", "noname": "yes", "operator": "STIB/MIVB", "tourism": "information", "wheelchair": "yes"}}, {"type": "node", "id": 12117346557, "lat": 50.8163487, "lon": 4.4153227, "tags": {"board_type": "history", "information": "board", "name": "Alfred Bastien", "tourism": "information"}}, {"type": "node", "id": 12229368435, "lat": 50.8062864, "lon": 4.4373643, "tags": {"board_type": "notice", "colour": "brown", "information": "board", "material": "wood", "support": "wall", "tourism": "information"}}, {"type": "way", "id": 23607594, "nodes": [255680838, 4140721049, 250298164, 4140721045, 4140721048, 4140721047, 4140721046, 4140721044, 250298165, 250298166, 6690767414, 6690767413, 250298141, 6690767486, 250298142, 255681042, 255681043, 255681044, 255681045, 255681046, 255681047, 255681048, 255681049, 255681050, 255681051, 255681052, 255681053, 255681054, 255681055, 5385474172, 5385474171, 4140721050, 4140721051, 4140721052, 4140721053, 255681057, 6688369420, 6688369421, 255680838], "tags": {"alt_name": "Jardin Exp\u00e9rimental Jean Massart - Experimentele Tuin Jean", "alt_name:en": "Experimental Garden Jean Massart", "alt_name:fr": "Jardin Exp\u00e9rimental Jean Massart", "alt_name:nl": "Experimentele Tuin Jean Massart", "barrier": "fence", "garden:type": "botanical", "leisure": "garden", "name": "Jardin botanique Jean Massart - Botanische tuin Jean Massart", "name:de": "De Plantentuin Massart", "name:fr": "Jardin botanique Jean Massart", "name:nl": "Botanische tuin Jean Massart", "opening_hours": "Mo-Fr 09:00-17:00", "operator": "Universit\u00e9 Libre de Bruxelles", "tourism": "museum", "wikidata": "Q3162373", "wikipedia": "nl:Parktuin Jean Massart"}}, {"type": "way", "id": 225633923, "nodes": [2343903879, 2343903877, 2343903874, 2343903878, 2343903879], "tags": {"addr:housenumber": "4", "addr:street": "Rue du Rouge-Clo\u00eetre - Rokloosterstraat", "amenity": "arts_centre", "building": "yes", "contact:website": "http://www.rouge-cloitre.be/", "name": "Rouge Clo\u00eetre - Rood Klooster", "name:fr": "Rouge Clo\u00eetre", "name:nl": "Rood Klooster", "opening_hours": "We-Su 14:00-17:00", "tourism": "museum", "wikidata": "Q23021247", "wikipedia": "nl:Rood-Klooster"}}, {"type": "way", "id": 240196873, "nodes": [2479516550, 2479516546, 2479516531, 2479516537, 2479516550], "tags": {"area": "yes", "artist:wikidata": "Q2742216", "artist_name": "Jacques Moeschal", "artwork_type": "sculpture", "name": "Sigle", "ref:UrbIS": "8620207", "start_date": "1973", "tourism": "artwork"}}, {"type": "way", "id": 969871089, "nodes": [8975174960, 8975174959, 8975174958, 8975174957, 8975174956, 8975174955, 8975174960], "tags": {"tourism": "picnic_site"}}, {"type": "relation", "id": 17982256, "members": [{"type": "node", "ref": 6917868147, "role": ""}, {"type": "node", "ref": 6817375038, "role": ""}, {"type": "node", "ref": 8887870554, "role": ""}, {"type": "node", "ref": 8887870553, "role": ""}, {"type": "node", "ref": 9987101113, "role": ""}, {"type": "node", "ref": 4416045416, "role": ""}, {"type": "node", "ref": 8845794475, "role": ""}, {"type": "node", "ref": 4416045415, "role": ""}, {"type": "node", "ref": 4416045412, "role": ""}, {"type": "node", "ref": 4416045413, "role": ""}, {"type": "node", "ref": 8887870535, "role": ""}, {"type": "node", "ref": 4416045411, "role": ""}, {"type": "node", "ref": 5337222314, "role": ""}], "tags": {"fee": "no", "museum": "open_air", "name": "Humanistisch Sculpturenpark", "name:en": "Humanist Sculpture Park", "name:nl": "Humanistisch Sculpturenpark", "opening_hours": "24/7", "operator": "Vrije Universiteit Brussel", "operator:type": "university", "operator:wikidata": "Q612665", "start_date": "2021-07-02", "tourism": "museum", "type": "site", "website": "https://www.vub.be/humanistisch-sculpturenpark#permanente-sculpturen", "wikidata": "Q124656202", "wikimedia_commons": "Category:Humanist Sculpture Park (VUB, Brussels)"}}]}