{"version": 0.6, "generator": "Overpass API 0.7.62.1 084b4234", "osm3s": {"timestamp_osm_base": "2024-11-20T00:53:28Z", "copyright": "The data included in this document is from www.openstreetmap.org. The data is made available under ODbL."}, "elements": [{"type": "node", "id": 2279446219, "lat": 50.7986361, "lon": 4.4194216, "tags": {"artist_name": "Rik Wouters", "artwork_type": "sculpture", "description": "\u00ab Les Soucis domestiques \u00bb est une \u0153uvre du sculpteur et peintre Rik Wouters. La derni\u00e8re sculpture monumentale de Rik Wouters repr\u00e9sente sa femme Nel. Con\u00e7ue plus grande que nature, elle ne fut coul\u00e9e qu\u2019en douze exemplaires en bronze.", "mapillary": "976732383277233", "material": "bronze", "name": "Les Soucis Domestiques", "start_date": "1913", "tourism": "artwork", "website": "https://be-monumen.be/patrimoine-belge/les-soucis-domestiques-watermael-boitsfort/", "wikimedia_commons": "File:Les soucis domestiques - Huiselijke zorgen by Rik Wouters 02.jpg"}}, {"type": "node", "id": 2352444878, "lat": 50.80137, "lon": 4.4218866, "tags": {"contact:phone": "+32 2 672 16 01", "contact:website": "https://souverain.be", "name": "Auberge du Souverain", "note": "Name only in French; apparently no official Dutch translation on their website", "stars": "2", "tourism": "hotel"}}, {"type": "node", "id": 2387086667, "lat": 50.790348, "lon": 4.4116373, "tags": {"information": "board", "tourism": "information"}}, {"type": "node", "id": 2387086710, "lat": 50.7939551, "lon": 4.4010856, "tags": {"bicycle": "yes", "check_date": "2021-02-01", "hiking": "yes", "horse": "yes", "information": "map", "map_size": "site", "map_type": "topo", "tourism": "information"}}, {"type": "node", "id": 2907753654, "lat": 50.7962713, "lon": 4.4285653}, {"type": "node", "id": 3071846592, "lat": 50.7879101, "lon": 4.4060515, "tags": {"board_type": "history", "description": "Archaeological site of the two tumuli", "information": "board", "name": "S\u00e9curisation du site arch\u00e9ologique - Bescherming van de archeologische vindplaats", "name:fr": "S\u00e9curisation du site arch\u00e9ologique", "name:nl": "Bescherming van de archeologische vindplaats", "operator": "Bruxelles environnement - Leefmilieu Brussels", "subject:wikidata": "Q18515624", "subject:wikipedia": "fr:Tumuli de la For\u00eat de Soignes", "tourism": "information"}}, {"type": "node", "id": 3071846613, "lat": 50.7914216, "lon": 4.4020901, "tags": {"check_date": "2021-02-02", "information": "board", "tourism": "information"}}, {"type": "node", "id": 3317485993, "lat": 50.8019446, "lon": 4.4308473, "tags": {"contact:phone": "+32 2 660 46 72", "contact:website": "https://au-repos-des-chasseurs.be", "description": "Hotel, Restaurant and ApartHotel", "name": "Au Repos des Chasseurs", "stars": "3", "tourism": "hotel"}}, {"type": "node", "id": 3368891778, "lat": 50.7854741, "lon": 4.4258219}, {"type": "node", "id": 3368891779, "lat": 50.7854775, "lon": 4.4258162}, {"type": "node", "id": 3368891780, "lat": 50.7855392, "lon": 4.4259186}, {"type": "node", "id": 3368891781, "lat": 50.7855426, "lon": 4.4259128}, {"type": "node", "id": 3376171431, "lat": 50.8038047, "lon": 4.4052703, "tags": {"artist_name": "Jacques Vierset", "artwork_type": "statue", "mapillary": "1385439935665814", "name": "Au Soleil", "tourism": "artwork"}}, {"type": "node", "id": 3862683505, "lat": 50.8019336, "lon": 4.3925335, "tags": {"addr:city": "Ixelles - Elsene", "addr:housenumber": "50", "addr:postcode": "1050", "addr:street": "Avenue de la For\u00eat - Woudlaan", "name": "Mus\u00e9e International de la Marionnette - Internationaal Marionettenmuseum", "name:fr": "Mus\u00e9e International de la Marionnette - Peruchet", "name:nl": "Internationaal Marionettenmuseum - Peruchet", "tourism": "museum", "website": "https://www.theatreperuchet.be/musee"}}, {"type": "node", "id": 4338754200, "lat": 50.7936856, "lon": 4.4395038, "tags": {"board_type": "nature", "information": "board", "tourism": "information"}}, {"type": "node", "id": 6564367418, "lat": 50.8027951, "lon": 4.4278226, "tags": {"artist_name": "Dirk de Keyser", "artwork_type": "statue", "name": "Sleydingen", "start_date": "1963", "tourism": "artwork"}}, {"type": "node", "id": 6775301091, "lat": 50.8093199, "lon": 4.3996149, "tags": {"artwork_type": "sculpture", "tourism": "artwork"}}, {"type": "node", "id": 7336502743, "lat": 50.8108463, "lon": 4.4010063, "tags": {"artwork_type": "sculpture", "tourism": "artwork"}}, {"type": "node", "id": 7362854043, "lat": 50.7961982, "lon": 4.4285268}, {"type": "node", "id": 7362854044, "lat": 50.7960951, "lon": 4.428944}, {"type": "node", "id": 7362854045, "lat": 50.7962469, "lon": 4.4290422}, {"type": "node", "id": 7362854054, "lat": 50.7783533, "lon": 4.4337203, "tags": {"board_type": "nature", "information": "board", "language:de": "yes", "language:en": "yes", "language:fr": "main", "language:nl": "main", "name": "Patrimoine Mondial UNESCO en For\u00eat de Soignes - UNESCO Werelderfgoed in het Zoni\u00ebnwoud", "tourism": "information"}}, {"type": "node", "id": 8706935687, "lat": 50.8108271, "lon": 4.4063873, "tags": {"artist_name": "Matthieu M.", "artwork_type": "statue", "description": "Set of 2 wooden mammoths (+/- 2m high). The mammoths initially settled in 2008 on the grassland facing the Cath\u00e9drale St-Michel-&-Gudule, then started hibernation in unknown cave some years later, and finally migrated in 2021 to the Parc de la H\u00e9ronni\u00e8re", "material": "wood", "name": "Jing", "tourism": "artwork", "website": "https://document.environnement.brussels/opac_css/elecfile/IF%20EV%20Parcs%20SaintsMichelGudulle%20FR"}}, {"type": "node", "id": 8753248918, "lat": 50.8100451, "lon": 4.3990282, "tags": {"artist:wikidata": "Q96979605", "artist_name": "Jean Godard", "artwork_type": "sculpture", "name": "Couple - Koppel", "name:fr": "Couple", "name:nl": "Koppel", "start_date": "1966", "tourism": "artwork"}}, {"type": "node", "id": 8768464409, "lat": 50.7881019, "lon": 4.3970308, "tags": {"board_type": "history", "direction": "350", "information": "board", "language:en": "yes", "language:fr": "yes", "language:nl": "yes", "subject:wikidata": "Q23365300", "subject:wikipedia": "en:2016 Brussels bombings", "tourism": "information"}}, {"type": "node", "id": 8768466930, "lat": 50.787219, "lon": 4.3978322, "tags": {"board_type": "history", "direction": "135", "information": "board", "language:en": "yes", "language:fr": "yes", "language:nl": "yes", "subject:wikidata": "Q23365300", "subject:wikipedia": "en:2016 Brussels bombings", "tourism": "information"}}, {"type": "node", "id": 8807235680, "lat": 50.8052689, "lon": 4.4279135, "tags": {"artist_name": "Jean-Fran\u00e7ois Diord", "artwork_type": "sculpture", "material": "wood", "name": "L'Arche", "tourism": "artwork"}}, {"type": "node", "id": 9005259143, "lat": 50.8009447, "lon": 4.4221557, "tags": {"artist_name": "Luc de Meersman", "artwork_type": "sculpture", "name": "V\u00e9nus - Venus", "name:en": "Venus", "name:fr": "V\u00e9nus", "name:nl": "Venus", "tourism": "artwork"}}, {"type": "node", "id": 9174270772, "lat": 50.8128646, "lon": 4.3912602, "tags": {"artist_name": "Arnaud Th\u00e9val", "artwork_type": "mural", "name": "Rubis (Je peux l\u00e0 contre?) - Ruby (Mag ik er tegenin gaan?)", "name:fr": "Rubis (Je peux l\u00e0 contre?)", "name:nl": "Ruby (Mag ik er tegenin gaan?)", "start_date": "2009", "tourism": "artwork"}}, {"type": "node", "id": 9442743271, "lat": 50.8086647, "lon": 4.4139398, "tags": {"artist_name": "Jean-Pierre Lipit", "artwork_type": "sculpture", "material": "wood", "name": "Oiseau \u2013 Girouette", "tourism": "artwork", "year": "1996"}}, {"type": "node", "id": 9442879191, "lat": 50.8024263, "lon": 4.4133706, "tags": {"artist_name": "Jephan De Villiers", "artwork_type": "sculpture", "name": "\u00c2mes Oiseaux", "tourism": "artwork", "year": "1998"}}, {"type": "node", "id": 9612682469, "lat": 50.7800958, "lon": 4.410794, "tags": {"information": "guidepost", "tourism": "information"}}, {"type": "node", "id": 9627727338, "lat": 50.7970216, "lon": 4.3958485, "tags": {"architect": "Luc Van Honnacker", "artist_name": "Lucie Sentjens", "artwork_subject": "figurative", "artwork_type": "statue", "description": "Horse", "material": "bronze", "name": "Gr\u00e9gala", "tourism": "artwork"}}, {"type": "node", "id": 9719974899, "lat": 50.7905194, "lon": 4.4220802, "tags": {"artwork_type": "mural", "panoramax": "03bd59a3-606f-4973-82b6-c50c52306e19", "tourism": "artwork"}}, {"type": "node", "id": 10109407939, "lat": 50.7947106, "lon": 4.410281, "tags": {"artwork_type": "sculpture", "description:fr": "Copie de la T\u00eate olm\u00e8que No.8 offerte par l'\u00c9tat de Veracruz", "description:nl": "Kopie van het olmeekse hoofd nr.8 aangeboden door de Staat Veracruz", "material": "stone", "name": "T\u00eate olm\u00e8que No.8 - Olmeekse hoofd nr.8", "name:fr": "T\u00eate olm\u00e8que No.8", "name:nl": "Olmeekse hoofd nr.8", "tourism": "artwork"}}, {"type": "node", "id": 10109407953, "lat": 50.7946718, "lon": 4.4102405, "tags": {"board_type": "history", "information": "board", "language:fr": "yes", "language:nl": "yes", "name": "Les t\u00eates olm\u00e8ques - De Olmeekse hoofden", "subject:wikidata": "Q3062269", "subject:wikipedia": "fr:T\u00eate colossale", "tourism": "information"}}, {"type": "node", "id": 10543012692, "lat": 50.7963391, "lon": 4.3970748, "tags": {"description": "Starting point for cycle rides", "information": "route_marker", "name": "D\u00e9part Hors Cat\u00e9gorie Cycling Club", "operator": "Hors Cat\u00e9gorie Drohme", "tourism": "information"}}, {"type": "node", "id": 10865473345, "lat": 50.7963499, "lon": 4.4279155, "tags": {"board_type": "nature", "information": "board", "language:fr": "yes", "language:nl": "yes", "name": "Lot 5 - Triage du Coin du Balai - Lot 5 - Bezemhoek boswachterij", "name:fr": "Lot 5 - Triage du Coin du Balai", "name:nl": "Lot 5 - Bezemhoek boswachterij", "operator": "Bruxelles environnement - Leefmilieu Brussel", "subject:wikidata": "Q2254455", "subject:wikipedia": "fr:For\u00eat de Soignes", "tourism": "information"}}, {"type": "node", "id": 10943643733, "lat": 50.8069632, "lon": 4.4176553, "tags": {"direction": "325", "tourism": "viewpoint"}}, {"type": "node", "id": 11099346090, "lat": 50.7876483, "lon": 4.4062591, "tags": {"information": "guidepost", "tourism": "information"}}, {"type": "node", "id": 11100291322, "lat": 50.8027892, "lon": 4.4262195, "tags": {"bar": "yes", "contact:facebook": "mixbrussels", "contact:instagram": "mix.brussels", "contact:linkedin": "mix-brussels", "contact:website": "https://mix.brussels/", "fee": "yes", "leisure": "sports_centre", "name": "Mix Brussels", "shop": "massage", "sport": "fitness;crossfit;boxing", "swimming_pool": "yes", "tourism": "hotel", "wikidata": "Q124960152"}}, {"type": "node", "id": 11617809708, "lat": 50.8073632, "lon": 4.4117309, "tags": {"artist_name": "Charles Leplae", "artwork_type": "statue", "name": "L'homme assis - Zittende man", "name:fr": "L'homme assis", "name:nl": "Zittende man", "tourism": "artwork"}}, {"type": "node", "id": 11663640285, "lat": 50.8070162, "lon": 4.4273556, "tags": {"artwork_type": "sculpture", "name": "Porte des lions", "tourism": "artwork"}}, {"type": "node", "id": 12003348071, "lat": 50.7979717, "lon": 4.4173791, "tags": {"board_type": "history", "colour": "green", "information": "board", "language:de": "yes", "language:en": "yes", "language:fr": "yes", "language:nl": "yes", "name": "Maison communale - Gemeentehuis - Town hall - Rathaus", "name:de": "Rathaus", "name:en": "Town hall", "name:fr": "Maison communale", "name:nl": "Gemeentehuis", "subject:wikidata": "Q42432782", "tourism": "information"}}, {"type": "node", "id": 12136225710, "lat": 50.7955868, "lon": 4.4073887, "tags": {"artwork_type": "mural", "panoramax": "c3b54640-dbb6-4e24-9eb3-e67c4edae732", "tourism": "artwork"}}, {"type": "way", "id": 329938376, "nodes": [3368891779, 3368891781, 3368891780, 3368891778, 3368891779], "tags": {"artist_name": "Mauro Stacciolli", "artwork_type": "sculpture", "building": "yes", "material": "steel", "name": "Equilibrio Sospeso", "ref:UrbIS": "6155567", "tourism": "artwork"}}, {"type": "way", "id": 787492283, "nodes": [2907753654, 7362854043, 7362854044, 7362854045, 2907753654], "tags": {"tourism": "picnic_site"}}]}