{"version": 0.6, "generator": "Overpass API 0.7.62.1 084b4234", "osm3s": {"timestamp_osm_base": "2024-11-20T00:58:30Z", "copyright": "The data included in this document is from www.openstreetmap.org. The data is made available under ODbL."}, "elements": [{"type": "node", "id": 564125188, "lat": 50.861391, "lon": 5.2098231, "tags": {"tourism": "viewpoint"}}, {"type": "node", "id": 797643410, "lat": 50.8796382, "lon": 5.1736075, "tags": {"description": "Gemeente Rummen en Nieuwerkerken", "information": "natuurgebied", "name": "Schelfheide", "tourism": "information"}}, {"type": "node", "id": 2883305789, "lat": 50.9055698, "lon": 5.2035423}, {"type": "node", "id": 2883305792, "lat": 50.9054531, "lon": 5.203283}, {"type": "node", "id": 2883305793, "lat": 50.9055912, "lon": 5.203561}, {"type": "node", "id": 2883305794, "lat": 50.9055883, "lon": 5.203432}, {"type": "node", "id": 2883305795, "lat": 50.9056756, "lon": 5.2033326}, {"type": "node", "id": 2883305796, "lat": 50.9057147, "lon": 5.2034305}, {"type": "node", "id": 3013863466, "lat": 50.8880501, "lon": 5.2251848, "tags": {"addr:housenumber": "102", "addr:postcode": "3850", "addr:street": "Helstraat", "name": "B&B Pelender", "source": "http://www.pelender.be", "tourism": "guest_house"}}, {"type": "node", "id": 3013873054, "lat": 50.8967129, "lon": 5.2265982, "tags": {"name": "B&B de Kerckhem", "source": "http://www.dekerckhem.com", "tourism": "guest_house"}}, {"type": "node", "id": 4068413156, "lat": 50.8651072, "lon": 5.1932899, "tags": {"addr:city": "Nieuwerkerken", "addr:country": "BE", "addr:housenumber": "113", "addr:postcode": "3850", "addr:province": "Limburg", "addr:street": "Kerkstraat", "description": "Sociaal huis", "email": "vrijetijd@nieuwerkerken.be", "fax": "+32 11 67 37 00", "information": "office", "name": "Nieuwerkerken", "opening_hours": "Mo-Tu 09:00-12:00; Fr 09:00-12:00; We 13:30-16:00; Th 09:00-12:00, 16:00-19:00", "phone": "+32 11 48 03 66", "tourism": "information", "website": "https://www.nieuwerkerken.be/"}}, {"type": "node", "id": 5122458715, "lat": 50.8977686, "lon": 5.2198537, "tags": {"board_type": "history", "information": "board", "name": "De Schans van Wijer", "tourism": "information"}}, {"type": "node", "id": 5364973566, "lat": 50.898595, "lon": 5.2238886, "tags": {"information": "map", "tourism": "information"}}, {"type": "node", "id": 5523214528, "lat": 50.8734823, "lon": 5.2234438, "tags": {"denomination": "roman_catholic", "historic": "wayside_chapel", "name": "Mariagrot van de Mierhoop", "name:en": "the cave", "religion": "christian", "start_date": "~1890", "tourism": "attraction"}}, {"type": "node", "id": 6275372545, "lat": 50.8750044, "lon": 5.2395438, "tags": {"information": "map", "map_type": "street", "name": "Nieuwerkerken", "tourism": "information"}}, {"type": "node", "id": 6275372547, "lat": 50.8747833, "lon": 5.2389094, "tags": {"hiking": "yes", "information": "map", "name": "Wandelen Nieuwerkerken", "tourism": "information"}}, {"type": "node", "id": 6277556201, "lat": 50.8748624, "lon": 5.2071333, "tags": {"information": "map", "map_type": "scheme", "name": "Natuurpark De Zijp", "tourism": "information"}}, {"type": "node", "id": 6298135197, "lat": 50.8602647, "lon": 5.1642535, "tags": {"information": "map", "map_type": "street", "name": "Kaart Nieuwerkerken", "tourism": "information"}}, {"type": "node", "id": 7367297009, "lat": 50.8874607, "lon": 5.1931548, "tags": {"board_type": "history", "information": "board", "name": "Fundering radar WO2", "tourism": "information"}}, {"type": "node", "id": 7392982756, "lat": 50.8820417, "lon": 5.1972849, "tags": {"board_type": "history", "information": "board", "name": "Fundering zoeklicht WO2", "tourism": "information"}}, {"type": "node", "id": 7392982763, "lat": 50.8824132, "lon": 5.1986179, "tags": {"board_type": "history", "information": "board", "name": "Radarsite Nieuwerkerken", "tourism": "information"}}, {"type": "node", "id": 7573192320, "lat": 50.8621779, "lon": 5.2080928, "tags": {"information": "map", "mtb": "yes", "tourism": "information"}}, {"type": "node", "id": 7573192342, "lat": 50.8679076, "lon": 5.1951532, "tags": {"information": "map", "mtb": "yes", "tourism": "information"}}, {"type": "node", "id": 7983070492, "lat": 50.86365, "lon": 5.2085951, "tags": {"man_made": "tower", "tourism": "viewpoint", "tower:type": "observation"}}, {"type": "node", "id": 7983070494, "lat": 50.8636458, "lon": 5.2087057}, {"type": "node", "id": 7983070495, "lat": 50.8636094, "lon": 5.2086762}, {"type": "node", "id": 7983070496, "lat": 50.8636213, "lon": 5.2086394}, {"type": "node", "id": 7983070497, "lat": 50.8636577, "lon": 5.2086689}, {"type": "node", "id": 8462550854, "lat": 50.9054987, "lon": 5.2032325}, {"type": "node", "id": 8546998221, "lat": 50.8910338, "lon": 5.2311093, "tags": {"information": "board", "name": "Wijerbos", "operator": "Agentschap Natuur & Bos", "tourism": "information"}}, {"type": "node", "id": 8547007482, "lat": 50.8976214, "lon": 5.2266853, "tags": {"information": "map", "name": "Wijerbos", "operator": "Agentschap Natuur & Bos", "tourism": "information"}}, {"type": "node", "id": 9743082260, "lat": 50.9072822, "lon": 5.2026896, "tags": {"board_type": "notice", "information": "board", "operator": "Gemeente", "tourism": "information"}}, {"type": "node", "id": 10186496449, "lat": 50.8620861, "lon": 5.2079632, "tags": {"tourism": "viewpoint"}}, {"type": "node", "id": 10745686837, "lat": 50.8815722, "lon": 5.2055709, "tags": {"board_type": "wildlife", "information": "board", "name": "Beespoke (Wilde bijen)", "source": "osm notes", "tourism": "information"}}, {"type": "node", "id": 11608026892, "lat": 50.8602859, "lon": 5.1640543, "tags": {"hiking": "yes", "information": "map", "tourism": "information"}}, {"type": "node", "id": 11892874226, "lat": 50.8813824, "lon": 5.1788293, "tags": {"access": "yes", "backcountry": "yes", "capacity:persons": "2", "caravans": "no", "fee": "no", "name": "Bivakzone Schelfheide", "operator": "Agentschap voor Natuur en Bos", "static_caravans": "no", "tents": "yes", "tourism": "camp_site", "website": "https://www.natuurenbos.be/natuurgebieden/schelfheide#:~:text=bivakzone,een%20houten%20tentenplatform%20zijn%20aanwezig."}}, {"type": "way", "id": 284609013, "nodes": [8462550854, 2883305794, 2883305795, 2883305796, 2883305793, 2883305789, 2883305792, 8462550854], "tags": {"OnroerendErfgoed:criteria": "BE", "addr:city": "Herk-de-Stad", "addr:country": "BE", "addr:hamlet": "Schakkebroek", "addr:housenumber": "140", "addr:postcode": "3540", "addr:province": "Limburg", "addr:street": "Amandinaweg", "building": "house", "description": "semi-gesloten vakwerkhoeve uit de 19de eeuw, geboortehuis van de Heilige Amandina", "heritage": "4", "heritage:operator": "OnroerendErfgoed", "heritage:website": "https://inventaris.onroerenderfgoed.be/aanduidingsobjecten/3908", "historic": "yes", "name": "Amandinahuis", "ref:OnroerendErfgoed": "3908", "source:geometry:date": "2011-03-22", "source:geometry:ref": "Gbg/2626192", "start_date": "1800", "start_date:edtf": "18XX", "start_date:note": "19th century", "tourism": "museum", "wikidata": "Q106556765", "wikimedia_commons": "File:Herk-de-Stad - Amandinamuseum.jpg"}}, {"type": "way", "id": 856150512, "nodes": [7983070497, 7983070494, 7983070495, 7983070496, 7983070497], "tags": {"amenity": "shelter", "building": "roof", "shelter_type": "picnic_shelter", "tourism": "picnic_site"}}]}