{"version": 0.6, "generator": "Overpass API 0.7.62.1 084b4234", "osm3s": {"timestamp_osm_base": "2024-11-20T00:56:28Z", "copyright": "The data included in this document is from www.openstreetmap.org. The data is made available under ODbL."}, "elements": [{"type": "node", "id": 297553930, "lat": 50.9608889, "lon": 5.1318856, "tags": {"name": "De Broekbrigade", "tourism": "picnic_site"}}, {"type": "node", "id": 1991887092, "lat": 50.9631616, "lon": 5.1466271, "tags": {"addr:housenumber": "60", "addr:street": "Demerstraat", "information": "visitor_centre", "name": "Bezoekerscentrum Schulensmeer", "operator": "Natuurpunt", "tourism": "information", "website": "https://www.natuurpunt.be/afdelingen/bezoekerscentrum-schulensmeer"}}, {"type": "node", "id": 2019730846, "lat": 50.9335055, "lon": 5.1667909, "tags": {"capacity:caravans": "6", "description": "Free tap water", "maxstay": "48 hours", "sanitary_dump_station": "yes", "tourism": "caravan_site"}}, {"type": "node", "id": 2171192286, "lat": 50.9377599, "lon": 5.1155759}, {"type": "node", "id": 2376063235, "lat": 50.936548, "lon": 5.1158073}, {"type": "node", "id": 2376063240, "lat": 50.9366158, "lon": 5.1151999}, {"type": "node", "id": 2376063241, "lat": 50.9366599, "lon": 5.1150815}, {"type": "node", "id": 2376063245, "lat": 50.9367152, "lon": 5.1155605}, {"type": "node", "id": 2376063276, "lat": 50.9372913, "lon": 5.114529}, {"type": "node", "id": 3370627355, "lat": 50.922879, "lon": 5.1365304}, {"type": "node", "id": 3370627357, "lat": 50.9229225, "lon": 5.1367589}, {"type": "node", "id": 3558596497, "lat": 50.9272193, "lon": 5.0919822}, {"type": "node", "id": 3558596498, "lat": 50.9270637, "lon": 5.0917608}, {"type": "node", "id": 3558596511, "lat": 50.927356, "lon": 5.0919985}, {"type": "node", "id": 3558596512, "lat": 50.9273614, "lon": 5.0918625}, {"type": "node", "id": 3558596513, "lat": 50.9273642, "lon": 5.0917919}, {"type": "node", "id": 3558740973, "lat": 50.9482501, "lon": 5.1145747, "tags": {"hiking": "yes", "information": "map", "name": "Slagveldwandeling", "tourism": "information"}}, {"type": "node", "id": 3837246539, "lat": 50.9424243, "lon": 5.1685919, "tags": {"board_type": "history", "description": "Stadspoort van de vroegere omwalling", "information": "board", "name": "Hasseltse poort", "tourism": "information"}}, {"type": "node", "id": 3837246580, "lat": 50.936889, "lon": 5.1674996, "tags": {"information": "board", "name": "Park Olmenhof Harlaz", "tourism": "information"}}, {"type": "node", "id": 4040600229, "lat": 50.9353411, "lon": 5.166727, "tags": {"addr:city": "Herk-de-Stad", "addr:country": "BE", "addr:housenumber": "14", "addr:postcode": "3540", "addr:province": "Limburg", "addr:street": "Pikkeleersstraat", "email": "toerisme.herkdestad@scarlet.be", "information": "office", "name": "VVV Toerisme Herk-de-Stad vzw", "opening_hours": "Mo-Fr 09:00-16:00", "phone": "+32 13 55 38 11", "tourism": "information", "website": "https://www.toerismeherkdestad.be/", "wheelchair": "no"}}, {"type": "node", "id": 4066465056, "lat": 50.9476618, "lon": 5.1144482, "tags": {"addr:city": "Halen", "addr:country": "BE", "addr:housenumber": "14", "addr:postcode": "3545", "addr:province": "Limburg", "addr:street": "Markt", "email": "toerisme.info@halen.be", "information": "office", "name": "Halen", "opening_hours": "Mo 13:00-19:00; We 08:00-12:00, 13:00-17:00; Th-Fr 08:00-12:00", "phone": "+32 13 35 08 30", "tourism": "information", "website": "https://www.halen.be/"}}, {"type": "node", "id": 4420211541, "lat": 50.9630783, "lon": 5.1462669, "tags": {"check_date": "2022-02-12", "information": "map", "name": "Fietsparadijs Limburg", "tourism": "information"}}, {"type": "node", "id": 4420211542, "lat": 50.9631321, "lon": 5.1460791, "tags": {"check_date": "2021-03-24", "information": "map", "map_size": "site", "name": "Landschapswandeling Schulensbroek", "tourism": "information"}}, {"type": "node", "id": 4420211543, "lat": 50.9630699, "lon": 5.1462199, "tags": {"check_date": "2022-02-12", "information": "map", "map_size": "site", "name": "Loop omloop", "tourism": "information"}}, {"type": "node", "id": 4420211544, "lat": 50.9630737, "lon": 5.1462425, "tags": {"check_date": "2022-02-12", "information": "map", "map_size": "region", "name": "Mountainbikenetwerk West-Limburg", "tourism": "information"}}, {"type": "node", "id": 4420211566, "lat": 50.9631465, "lon": 5.1460811, "tags": {"board_type": "nature", "check_date": "2021-03-24", "information": "board", "tourism": "information"}}, {"type": "node", "id": 4420211567, "lat": 50.9631644, "lon": 5.1460738, "tags": {"board_type": "nature", "check_date": "2021-03-24", "information": "board", "tourism": "information"}}, {"type": "node", "id": 4420214897, "lat": 50.963696, "lon": 5.1462772}, {"type": "node", "id": 4420214899, "lat": 50.9637081, "lon": 5.1462204}, {"type": "node", "id": 4420214900, "lat": 50.9637088, "lon": 5.1463146}, {"type": "node", "id": 4420214904, "lat": 50.9637344, "lon": 5.1461894}, {"type": "node", "id": 4420214905, "lat": 50.9637371, "lon": 5.1463371}, {"type": "node", "id": 4420214911, "lat": 50.9637641, "lon": 5.1461936}, {"type": "node", "id": 4420214912, "lat": 50.9637648, "lon": 5.1463232}, {"type": "node", "id": 4420214914, "lat": 50.9637783, "lon": 5.1462172}, {"type": "node", "id": 4420214915, "lat": 50.9637857, "lon": 5.1462825}, {"type": "node", "id": 4421851424, "lat": 50.9600566, "lon": 5.1527644, "tags": {"board_type": "notice", "information": "board", "name": "Natuurbeheersproject Binnenbekken Schulensbroek", "tourism": "information"}}, {"type": "node", "id": 4421851425, "lat": 50.9586128, "lon": 5.1478374, "tags": {"board_type": "wildlife", "information": "board", "name": "Vogels van het Schulensmeer", "tourism": "information"}}, {"type": "node", "id": 4421851426, "lat": 50.9583637, "lon": 5.1325576, "tags": {"information": "map", "map_size": "site", "name": "Wachtbekken \"Het Schulensbroek\"", "tourism": "information"}}, {"type": "node", "id": 4423495848, "lat": 50.9622846, "lon": 5.166059, "tags": {"board_type": "nature", "information": "board", "name": "Het Binnennbekken: wachtkom en natuurgebied", "tourism": "information"}}, {"type": "node", "id": 4423495849, "lat": 50.9625568, "lon": 5.1697844, "tags": {"information": "map", "map_size": "site", "name": "Het Schulensbroek", "tourism": "information"}}, {"type": "node", "id": 4423495850, "lat": 50.9594974, "lon": 5.1564011, "tags": {"board_type": "nature", "information": "board", "name": "Natuurbeheer door mens en dier", "tourism": "information"}}, {"type": "node", "id": 4423495851, "lat": 50.9560331, "lon": 5.1725818, "tags": {"artwork_type": "sculpture", "image": "http://commons.wikimedia.org/wiki/File:Schulens_Schaap,_Beerbosweg,_Schulen.jpg", "name": "Schulens Schaap...", "start_date": "2013", "tourism": "artwork"}}, {"type": "node", "id": 4423495852, "lat": 50.9625069, "lon": 5.1695441, "tags": {"board_type": "nature", "information": "board", "name": "Water: van levensbelang in het Schulensbroek", "tourism": "information"}}, {"type": "node", "id": 4424845613, "lat": 50.9564045, "lon": 5.1766675, "tags": {"artwork_type": "statue", "image": "http://commons.wikimedia.org/wiki/File:Beeld_naast_Sint-Jan-de-Doperkerk,_Schulen.jpg", "tourism": "artwork"}}, {"type": "node", "id": 4428812443, "lat": 50.957223, "lon": 5.1768794, "tags": {"board_type": "nature", "information": "board", "name": "Landschapswandeling Schulensbroek", "tourism": "information"}}, {"type": "node", "id": 4428812444, "lat": 50.9572288, "lon": 5.1769084, "tags": {"information": "map", "map_size": "region", "name": "Landschapswandeling Schulensbroek", "tourism": "information"}}, {"type": "node", "id": 4428812445, "lat": 50.9572866, "lon": 5.1769177, "tags": {"artist_name": "Edward Vandaele", "artwork_type": "sculpture", "image": "http://commons.wikimedia.org/wiki/File:Edward_van_Daele,_Meisje_met_linnen,_Schulen.jpg", "name": "Meisje met Linnen", "tourism": "artwork"}}, {"type": "node", "id": 4428812447, "lat": 50.9573934, "lon": 5.1769007, "tags": {"board_type": "history", "information": "board", "name": "Westertoren van de voormalige Sint-Jan-de-Doperkerk van Schulen", "tourism": "information"}}, {"type": "node", "id": 4428812452, "lat": 50.9573134, "lon": 5.1775278}, {"type": "node", "id": 4428812491, "lat": 50.9575481, "lon": 5.1773324}, {"type": "node", "id": 4428812687, "lat": 50.9634227, "lon": 5.1742106, "tags": {"information": "board", "tourism": "information"}}, {"type": "node", "id": 4430567618, "lat": 50.9636827, "lon": 5.1489185, "tags": {"board_type": "nature", "information": "board", "name": "De Jeugdhengelplas Schulensmeer", "tourism": "information"}}, {"type": "node", "id": 4430567638, "lat": 50.9671501, "lon": 5.1681864, "tags": {"information": "map", "tourism": "information"}}, {"type": "node", "id": 4474995040, "lat": 50.9400657, "lon": 5.1692912, "tags": {"board_type": "history", "description": "Stadspoort van de vroegere omwalling", "information": "board", "name": "Sint-Truidense poort", "tourism": "information"}}, {"type": "node", "id": 4474998559, "lat": 50.9406936, "lon": 5.1635712, "tags": {"board_type": "history", "description": "Stadspoort van de vroegere omwalling", "information": "board", "name": "Diestse poort", "tourism": "information"}}, {"type": "node", "id": 4618286999, "lat": 50.9360787, "lon": 5.1323588, "tags": {"board_type": "notice", "check_date": "2022-05-17", "information": "board", "name": "Fietsparadijs Limburg", "tourism": "information"}}, {"type": "node", "id": 5040215171, "lat": 50.9068078, "lon": 5.1119858, "tags": {"bicycle": "yes", "information": "guidepost", "tourism": "information"}}, {"type": "node", "id": 5088390341, "lat": 50.91449, "lon": 5.1163702, "tags": {"board_type": "nature", "description": "Huidige filosofie en werking;plattegrond;wandelingen", "information": "board", "name": "Getevallei - Heerlijckyt Van Elsmeren", "tourism": "information"}}, {"type": "node", "id": 5088390403, "lat": 50.9113806, "lon": 5.1228349, "tags": {"board_type": "history", "description": "geschiedenis domein;wandelingen;overzichtsplan", "information": "board", "name": "Getevallei - Heerlijckyt Van Elsmeren", "tourism": "information"}}, {"type": "node", "id": 5105085870, "lat": 50.9086051, "lon": 5.1043634, "tags": {"board_type": "history", "historic": "memorial", "image": "https://commons.wikimedia.org/wiki/File:Bord_ter_nagedachtenis_van_R.A.F._304de_Poolse_%27Selesian%27_Squandron,_basis_Lindholme_(GB).jpg", "information": "board", "memorial": "plaque", "name": "R.A.F. 304de Poolse 'Selesian' Squandron, basis Lindholme (GB)", "tourism": "information"}}, {"type": "node", "id": 6577000460, "lat": 50.9358631, "lon": 5.1672589, "tags": {"name": "Olmenhof", "operator": "Gemeente", "tourism": "theme_park", "wheelchair": "yes"}}, {"type": "node", "id": 7415808400, "lat": 50.9152781, "lon": 5.1216687, "tags": {"hiking": "yes", "information": "map", "name": "Wandelroutes Elsmeren", "tourism": "information"}}, {"type": "node", "id": 7417049534, "lat": 50.9150035, "lon": 5.1227386, "tags": {"hiking": "yes", "information": "map", "name": "Parkwandeling", "tourism": "information"}}, {"type": "node", "id": 7806402141, "lat": 50.9270561, "lon": 5.0919631}, {"type": "node", "id": 7876038481, "lat": 50.950392, "lon": 5.2083583, "tags": {"artwork_type": "statue", "tourism": "artwork"}}, {"type": "node", "id": 7923929440, "lat": 50.9424229, "lon": 5.1682971, "tags": {"artwork_type": "statue", "tourism": "artwork"}}, {"type": "node", "id": 7931032718, "lat": 50.9397732, "lon": 5.1337537, "tags": {"artwork_type": "sculpture", "tourism": "artwork"}}, {"type": "node", "id": 7950279174, "lat": 50.9229354, "lon": 5.1368248}, {"type": "node", "id": 7950279175, "lat": 50.9229563, "lon": 5.1368147}, {"type": "node", "id": 7950279176, "lat": 50.9229803, "lon": 5.1369451}, {"type": "node", "id": 7950279177, "lat": 50.9229421, "lon": 5.1369625}, {"type": "node", "id": 7950279178, "lat": 50.9229436, "lon": 5.1369699}, {"type": "node", "id": 7950279179, "lat": 50.9227555, "lon": 5.1370623}, {"type": "node", "id": 7950279180, "lat": 50.9227237, "lon": 5.1369295}, {"type": "node", "id": 7950279181, "lat": 50.9227195, "lon": 5.1369315}, {"type": "node", "id": 7950279182, "lat": 50.9226757, "lon": 5.1367432}, {"type": "node", "id": 7950279183, "lat": 50.922653, "lon": 5.1366176}, {"type": "node", "id": 7950279184, "lat": 50.9227847, "lon": 5.1365564}, {"type": "node", "id": 7950279185, "lat": 50.9227878, "lon": 5.1365732}, {"type": "node", "id": 7950279186, "lat": 50.9228046, "lon": 5.1366887}, {"type": "node", "id": 7950279187, "lat": 50.9228032, "lon": 5.13668}, {"type": "node", "id": 7950279188, "lat": 50.9228376, "lon": 5.1366619}, {"type": "node", "id": 7950279189, "lat": 50.9228723, "lon": 5.1368444}, {"type": "node", "id": 7950279190, "lat": 50.9227632, "lon": 5.1368964}, {"type": "node", "id": 7950279191, "lat": 50.9227271, "lon": 5.1367269}, {"type": "node", "id": 8011326415, "lat": 50.9300819, "lon": 5.2076781, "tags": {"board_type": "nature", "information": "board", "name": "Domeinbos Aan Monnikshof", "tourism": "information"}}, {"type": "node", "id": 8011326482, "lat": 50.9252355, "lon": 5.206843, "tags": {"board_type": "nature", "information": "board", "name": "Domeinbos Aan Monnikshof", "tourism": "information"}}, {"type": "node", "id": 9324341386, "lat": 50.937704, "lon": 5.1147272}, {"type": "node", "id": 9743082260, "lat": 50.9072822, "lon": 5.2026896, "tags": {"board_type": "notice", "information": "board", "operator": "Gemeente", "tourism": "information"}}, {"type": "node", "id": 9857447712, "lat": 50.9405314, "lon": 5.1665146, "tags": {"board_type": "notice", "information": "board", "operator": "Gemeente", "tourism": "information"}}, {"type": "node", "id": 9885041851, "lat": 50.9401756, "lon": 5.1336666, "tags": {"board_type": "notice", "information": "board", "operator": "Gemeente", "tourism": "information"}}, {"type": "node", "id": 9963336870, "lat": 50.9369293, "lon": 5.1167693}, {"type": "node", "id": 9963336871, "lat": 50.9371032, "lon": 5.1165526}, {"type": "node", "id": 9963336872, "lat": 50.9361694, "lon": 5.1179355}, {"type": "node", "id": 9963336874, "lat": 50.9366077, "lon": 5.1188673}, {"type": "node", "id": 9963336875, "lat": 50.9376076, "lon": 5.1176257}, {"type": "node", "id": 9969764879, "lat": 50.947886, "lon": 5.2170424, "tags": {"information": "map", "map_size": "city", "map_type": "street", "name": "Herk-de-Stad", "tourism": "information"}}, {"type": "node", "id": 9969821016, "lat": 50.942237, "lon": 5.1687205, "tags": {"board_type": "history", "information": "board", "name": "Stadswallen", "tourism": "information"}}, {"type": "node", "id": 9969873921, "lat": 50.94149, "lon": 5.1694098, "tags": {"board_type": "history", "information": "board", "name": "De Vezer", "tourism": "information"}}, {"type": "way", "id": 350111037, "nodes": [3558596497, 3558596511, 3558596512, 3558596513, 3558596498, 7806402141, 3558596497], "tags": {"addr:city": "Halen", "addr:housenumber": "14", "addr:postcode": "3545", "addr:street": "Rotemstraat", "building": "yes", "email": "museum@slagderzilverenhelmen.be", "fee": "yes", "museum": "history", "name": "Museum Slag Der Zilveren Helmen", "opening_hours": "May-Oct: We-Su 14:00-17:00", "operator": "V.Z.W Museum Slag der Zilveren Helmen", "phone": "+32 13 44 10 14", "tourism": "museum", "website": "https://www.slagderzilverenhelmen.be/", "wikidata": "Q21152645"}}, {"type": "way", "id": 444554383, "nodes": [4420214904, 4420214899]}, {"type": "way", "id": 444554394, "nodes": [4420214904, 4420214911, 4420214914, 4420214915, 4420214912, 4420214905, 4420214900, 4420214897, 4420214899], "tags": {"barrier": "hedge"}}, {"type": "way", "id": 445455306, "nodes": [4428812491, 4428812452], "tags": {"barrier": "fence", "description": "schilderijen van mensen door kinderen", "fence_type": "wood", "tourism": "artwork"}}, {"type": "way", "id": 852308560, "nodes": [3370627355, 3370627357, 7950279174, 7950279175, 7950279176, 7950279177, 7950279178, 7950279179, 7950279180, 7950279181, 7950279182, 7950279183, 7950279184, 7950279185, 3370627355]}, {"type": "way", "id": 852308561, "nodes": [7950279186, 7950279187, 7950279188, 7950279189, 7950279190, 7950279191, 7950279186]}, {"type": "way", "id": 1092962639, "nodes": [9963336871, 2171192286, 9324341386, 2376063276, 2376063241, 2376063240, 2376063245, 2376063235, 9963336870, 9963336872, 9963336874, 9963336875, 9963336871], "tags": {"access": "customers", "addr:city": "Halen", "addr:housenumber": "47", "addr:postcode": "3545", "addr:street": "Ertsenrijkstraat", "backcountry": "no", "camp_site": "basic", "capacity:persons": "200", "caravans": "no", "drinking_water": "yes", "fee": "yes", "group_only": "yes", "hot_water": "no", "internet_access": "no", "motor_vehicle": "yes", "openfire": "yes", "power_supply": "yes", "reservation": "required", "scout": "yes", "tents": "yes", "toilets": "no", "tourism": "camp_site"}}, {"type": "relation", "id": 6613199, "members": [{"type": "way", "ref": 444554394, "role": "outer"}, {"type": "way", "ref": 444554383, "role": "outer"}], "tags": {"tourism": "picnic_site", "type": "multipolygon"}}, {"type": "relation", "id": 11681690, "members": [{"type": "way", "ref": 852308560, "role": "outer"}, {"type": "way", "ref": 852308561, "role": "inner"}], "tags": {"addr:city": "Herk-de-Stad", "addr:housenumber": "84", "addr:postcode": "3540", "addr:street": "Korpsestraat", "building": "yes", "email": "info@lafilledoscar.be", "guest_house": "bed_and_breakfast", "internet_access": "wlan", "internet_access:fee": "no", "name": "La fille d'Oscar", "phone": "+32 475 52 10 58", "rooms": "2", "tourism": "guest_house", "type": "multipolygon", "website": "https://www.lafilledoscar.be"}}]}