{"version": 0.6, "generator": "Overpass API 0.7.62.1 084b4234", "osm3s": {"timestamp_osm_base": "2024-11-20T00:54:28Z", "copyright": "The data included in this document is from www.openstreetmap.org. The data is made available under ODbL."}, "elements": [{"type": "node", "id": 1635335080, "lat": 51.3150729, "lon": 4.4296159, "tags": {"alt_name": "Treurende moeder", "artist_name": "Theo Blickx", "description:nl": "monument voor de gesneuvelden ter ere van alle Kapelse slachtoffers van WO I en later ook WO II", "historic": "memorial", "loc_name": "Louwke Poep", "memorial": "statue", "name": "Louwke Poep", "start_date": "1926", "tourism": "artwork", "war_memorial": "yes"}}, {"type": "node", "id": 2614639842, "lat": 51.3319979, "lon": 4.4652049, "tags": {"board_type": "notice", "description": "Kaart van De Uitlegger en beschrijving van de toegangsregels", "information": "map;board", "map_size": "site", "map_type": "scheme", "tourism": "information"}}, {"type": "node", "id": 3724437600, "lat": 51.3620746, "lon": 4.4502077}, {"type": "node", "id": 3724437608, "lat": 51.3621307, "lon": 4.450421}, {"type": "node", "id": 3724437616, "lat": 51.3621765, "lon": 4.4501389}, {"type": "node", "id": 3724437733, "lat": 51.3622327, "lon": 4.4503522}, {"type": "node", "id": 3727913481, "lat": 51.3121135, "lon": 4.4257146}, {"type": "node", "id": 3727913494, "lat": 51.3122788, "lon": 4.4257964}, {"type": "node", "id": 3727913499, "lat": 51.3122835, "lon": 4.426119}, {"type": "node", "id": 3727913512, "lat": 51.3123578, "lon": 4.4260384}, {"type": "node", "id": 4005638367, "lat": 51.316385, "lon": 4.4248749, "tags": {"artist_name": "Rudy De Graef", "artwork_type": "installation", "name": "Musca", "tourism": "artwork"}}, {"type": "node", "id": 4282048890, "lat": 51.3127548, "lon": 4.428257, "tags": {"addr:housenumber": "3", "addr:postcode": "2950", "addr:street": "Bevrijdingslei", "email": "info@villa-acacia.be", "name": "Villa Acacia", "phone": "+32 3 281 58 76", "tourism": "guest_house", "website": "http://www.villa-acacia.be/"}}, {"type": "node", "id": 4983890098, "lat": 51.3122511, "lon": 4.4258036}, {"type": "node", "id": 4983890099, "lat": 51.3122415, "lon": 4.4257826}, {"type": "node", "id": 4983890100, "lat": 51.3122884, "lon": 4.4258683}, {"type": "node", "id": 4983890101, "lat": 51.3122843, "lon": 4.4258696}, {"type": "node", "id": 4983890102, "lat": 51.3121698, "lon": 4.4258569}, {"type": "node", "id": 4983890103, "lat": 51.3121742, "lon": 4.4258506}, {"type": "node", "id": 4983890104, "lat": 51.3121742, "lon": 4.4256454}, {"type": "node", "id": 4983890105, "lat": 51.3122364, "lon": 4.4257871}, {"type": "node", "id": 5877835674, "lat": 51.3306919, "lon": 4.4686155, "tags": {"information": "board", "tourism": "information"}}, {"type": "node", "id": 5963700933, "lat": 51.3163308, "lon": 4.4261476, "tags": {"artist_name": "Vally Moors", "artwork_type": "sculpture", "name": "Jacobus de Pelgrim", "tourism": "artwork"}}, {"type": "node", "id": 7597315122, "lat": 51.3649078, "lon": 4.4601849}, {"type": "node", "id": 7597315123, "lat": 51.3648992, "lon": 4.4602261}, {"type": "node", "id": 7597315124, "lat": 51.3647968, "lon": 4.4601725}, {"type": "node", "id": 7597315125, "lat": 51.3648048, "lon": 4.4601296}, {"type": "node", "id": 7733356200, "lat": 51.328504, "lon": 4.4469531, "tags": {"artist_name": "Luc Cromheecke; Joris Peeters", "artwork_type": "statue", "name": "Plunk!", "tourism": "artwork"}}, {"type": "node", "id": 7733356201, "lat": 51.3284188, "lon": 4.4469115, "tags": {"amenity": "barefootpath", "leisure": "barefoot", "name": "Blotevoetenpad", "tourism": "attraction", "url": "https://www.kapellen.be/blotevoetenpad"}}, {"type": "node", "id": 7917447801, "lat": 51.3194829, "lon": 4.4232242, "tags": {"artwork_type": "statue", "tourism": "artwork"}}, {"type": "node", "id": 7917447802, "lat": 51.3191222, "lon": 4.4231544, "tags": {"artwork_type": "statue", "tourism": "artwork"}}, {"type": "node", "id": 7929121265, "lat": 51.3190795, "lon": 4.423057, "tags": {"artwork_type": "statue", "tourism": "artwork"}}, {"type": "node", "id": 8151494642, "lat": 51.3362725, "lon": 4.3932954, "tags": {"information": "map", "tourism": "information"}}, {"type": "node", "id": 8399680456, "lat": 51.3644583, "lon": 4.4606076, "tags": {"artist_name": "Gilbert Uitdenhouwen", "artwork_type": "statue", "name": "Suske en Wiske", "start_date": "1995-09-17", "tourism": "artwork"}}, {"type": "node", "id": 8706898283, "lat": 51.3529352, "lon": 4.3951703, "tags": {"artwork_type": "statue", "tourism": "artwork"}}, {"type": "node", "id": 9227168818, "lat": 51.3651447, "lon": 4.4596551, "tags": {"artwork_type": "statue", "tourism": "artwork"}}, {"type": "node", "id": 9260623913, "lat": 51.3361055, "lon": 4.4395548, "tags": {"information": "board", "tourism": "information"}}, {"type": "node", "id": 9330791936, "lat": 51.3206453, "lon": 4.4434443, "tags": {"attraction": "trolley_cycling", "fee": "yes", "name": "Spoorfietsen", "phone": "+32 474 48 16 03", "reservation": "required", "tourism": "attraction", "website": "https://www.spoorfietsen.be/"}}, {"type": "node", "id": 10290340630, "lat": 51.3126704, "lon": 4.4315612, "tags": {"addr:city": "Antwerpen", "addr:housenumber": "2", "addr:postcode": "2000", "addr:street": "Hofstraat", "email": "info@gallery51.com", "name": "Fifty One Too", "opening_hours": "Th-Sa 14:00-18:00", "phone": "+32 3 289 84 58", "tourism": "gallery", "website": "https://www.gallery51.com/"}}, {"type": "node", "id": 12128310773, "lat": 51.342128, "lon": 4.4016768, "tags": {"information": "map", "tourism": "information"}}, {"type": "way", "id": 368591391, "nodes": [3724437608, 3724437600, 3724437616, 3724437733, 3724437608], "tags": {"addr:housenumber": "62", "addr:street": "Canadezenlaan", "building": "yes", "guest_house": "bed_and_breakfast", "name": "B&B Silencio", "tourism": "guest_house", "website": "https://bbsilencio.be/"}}, {"type": "way", "id": 368954391, "nodes": [3727913499, 4983890102, 4983890103, 3727913481, 4983890104, 4983890105, 4983890099, 4983890098, 3727913494, 4983890100, 4983890101, 3727913512, 3727913499], "tags": {"addr:housename": "Hoeve van Paesschen", "addr:housenumber": "59", "addr:street": "Essenhoutstraat", "building": "yes", "name": "Erfgoedcentrum Hoeve Van Paesschen", "operator": "Heemkring Hoghescote", "tourism": "museum", "website": "https://www.heemkring-hoghescote.be/"}}, {"type": "way", "id": 813331652, "nodes": [7597315122, 7597315123, 7597315124, 7597315125, 7597315122], "tags": {"artwork_type": "sculpture", "description": "Depicts the first encounter of Canadian Lt-Col Denis Whitaker of the RHLI & Antwerp Resistance fighter Eugene Colson in October 1944 132/5000 Geeft de eerste ontmoeting weer van de Canadese luitenant-kolonel Denis Whitaker van de RHLI & Antwerpse verzetss", "historic": "memorial", "material": "bronze", "memorial": "war_memorial", "name": "Monument van dankbaarheid", "name:en": "Monument of Gratitude", "subject:wikidata": "Q1240821;Q2035029;Q2667500", "tourism": "attraction"}}]}