{"version": 0.6, "generator": "Overpass API 0.7.62.1 084b4234", "osm3s": {"timestamp_osm_base": "2024-11-20T00:55:30Z", "copyright": "The data included in this document is from www.openstreetmap.org. The data is made available under ODbL."}, "elements": [{"type": "node", "id": 2139438544, "lat": 51.1393442, "lon": 4.7414359, "tags": {"information": "board", "tourism": "information"}}, {"type": "node", "id": 2490553840, "lat": 51.1266698, "lon": 4.7610562, "tags": {"OnroerendErfgoed:criteria": "BE", "addr:city": "Herenthout", "addr:street": "Itegemse Steenweg", "heritage:operator": "OnroerendErfgoed", "heritage:website": "https://id.erfgoed.net/erfgoedobjecten/47192", "information": "guidepost", "name": "Wegwijzer", "ref:OnroerendErfgoed": "47192", "tourism": "information", "wikimedia_commons": "File:Herenthout Itegemse Steenweg zonder nummer - 152048 - onroerenderfgoed.jpg"}}, {"type": "node", "id": 3433703872, "lat": 51.1257212, "lon": 4.7186473}, {"type": "node", "id": 3433703873, "lat": 51.1256759, "lon": 4.7189887}, {"type": "node", "id": 3433703874, "lat": 51.1257981, "lon": 4.7186244}, {"type": "node", "id": 3433703875, "lat": 51.1258357, "lon": 4.7189411}, {"type": "node", "id": 3494716644, "lat": 51.1256524, "lon": 4.7188035}, {"type": "node", "id": 3494716646, "lat": 51.125737, "lon": 4.7187773}, {"type": "node", "id": 5588281007, "lat": 51.1398776, "lon": 4.7560614}, {"type": "node", "id": 5588281008, "lat": 51.1398964, "lon": 4.756073}, {"type": "node", "id": 5588281009, "lat": 51.1399072, "lon": 4.7560287}, {"type": "node", "id": 5588281010, "lat": 51.1398884, "lon": 4.7560171}, {"type": "node", "id": 5966223116, "lat": 51.1403012, "lon": 4.7557517, "tags": {"information": "map", "map_size": "site", "name": "Educatie wandelpad", "tourism": "information"}}, {"type": "node", "id": 5966223118, "lat": 51.1403022, "lon": 4.7557691, "tags": {"information": "map", "map_size": "region", "name": "Fietsknooppuntennetwerk Kempen", "tourism": "information"}}, {"type": "node", "id": 5966223119, "lat": 51.1403045, "lon": 4.7558168, "tags": {"information": "map", "map_size": "site", "name": "Educatie wandelpad", "tourism": "information"}}, {"type": "node", "id": 5966223153, "lat": 51.1399309, "lon": 4.757362, "tags": {"artist_name": "Rik Van de Wouwer", "artwork_type": "sculpture", "image": "https://commons.wikimedia.org/wiki/File:Leven_in_de_Brouwerij,_Rik_Van_de_Wouwer,_Herenthout.jpg", "tourism": "artwork"}}, {"type": "node", "id": 5966223159, "lat": 51.1399629, "lon": 4.7575847, "tags": {"board_type": "history", "information": "board", "name": "Huis Schoeters;Kunstwerk \"Leven in de Brouwerij\"", "tourism": "information"}}, {"type": "node", "id": 7350818914, "lat": 51.1405158, "lon": 4.7557115, "tags": {"artwork_type": "statue", "tourism": "artwork"}}, {"type": "node", "id": 7422346156, "lat": 51.163972, "lon": 4.7796019, "tags": {"information": "board", "name": "Bouwelven", "tourism": "information"}}, {"type": "node", "id": 8155684562, "lat": 51.1489844, "lon": 4.7676112, "tags": {"board_type": "hiking", "direction": "170", "information": "board", "name": "Bergenpad", "tourism": "information"}}, {"type": "node", "id": 8155685492, "lat": 51.1476878, "lon": 4.7639535, "tags": {"board_type": "hiking", "direction": "270", "information": "board", "name": "Educatief wandelpad", "tourism": "information"}}, {"type": "node", "id": 8411864178, "lat": 51.1490031, "lon": 4.7682575, "tags": {"information": "board", "name": "Loopomloop", "tourism": "information"}}, {"type": "way", "id": 336328950, "nodes": [3433703873, 3494716644, 3494716646, 3433703872, 3433703874, 3433703875, 3433703873], "tags": {"addr:housenumber": "12", "addr:street": "Niemandshoek", "amenity": "restaurant", "building": "yes", "contact:facebook": "https://www.facebook.com/tschipkeaandenete/", "email": "info@schipkeaandenete.be", "name": "\u2019t Schipke aan de Nete", "outdoor_seating": "yes", "phone": "+32 14 50 01 74", "tourism": "attraction", "website": "https://www.schipkeaandenete.be/"}}, {"type": "way", "id": 584659705, "nodes": [5588281010, 5588281009, 5588281008, 5588281007, 5588281010], "tags": {"artist_name": "Rik Van de Wouwer", "artwork_type": "statue", "inscription": "voor de stoeter", "mapillary": "142744648762304; 953867172316364", "tourism": "artwork"}}]}