{"version": 0.6, "generator": "Overpass API 0.7.62.1 084b4234", "osm3s": {"timestamp_osm_base": "2024-11-20T00:56:28Z", "copyright": "The data included in this document is from www.openstreetmap.org. The data is made available under ODbL."}, "elements": [{"type": "node", "id": 1025023516, "lat": 51.1131173, "lon": 5.2659912}, {"type": "node", "id": 1025023607, "lat": 51.1129963, "lon": 5.2661655}, {"type": "node", "id": 1025023815, "lat": 51.1131117, "lon": 5.2659081}, {"type": "node", "id": 1025023840, "lat": 51.112979, "lon": 5.2659324}, {"type": "node", "id": 1323408205, "lat": 51.1189736, "lon": 5.2203349}, {"type": "node", "id": 1323408738, "lat": 51.1188187, "lon": 5.2204028}, {"type": "node", "id": 1323409293, "lat": 51.1188516, "lon": 5.2206448}, {"type": "node", "id": 1323409529, "lat": 51.1190262, "lon": 5.2205685}, {"type": "node", "id": 2205788471, "lat": 51.1137027, "lon": 5.2701292, "tags": {"alt_name": "Geodetisch punt", "description": "Kunstmatige heuvel met steen", "height": "10", "historic": "yes", "inscription": "Station G\u00e9odesique 1851", "man_made": "survey_point", "name": "Geodetisch punt 1851", "tourism": "attraction", "wikidata": "Q32845652", "wikimedia_commons": "File:Geodetisch_punt_Leopoldsburg.jpg", "wikipedia": "nl:Geodetische Basis van Lommel", "year": "1851"}}, {"type": "node", "id": 2302561249, "lat": 51.1082985, "lon": 5.2562291}, {"type": "node", "id": 2419783949, "lat": 51.1088124, "lon": 5.2570236}, {"type": "node", "id": 2419783996, "lat": 51.1092556, "lon": 5.2569413}, {"type": "node", "id": 2441171476, "lat": 51.1170592, "lon": 5.2632548}, {"type": "node", "id": 2441171481, "lat": 51.1171574, "lon": 5.2630905}, {"type": "node", "id": 2441171482, "lat": 51.117218, "lon": 5.2630794}, {"type": "node", "id": 2441171483, "lat": 51.1172284, "lon": 5.263224}, {"type": "node", "id": 2505311223, "lat": 51.1182154, "lon": 5.2663982}, {"type": "node", "id": 2505311242, "lat": 51.1183062, "lon": 5.2663803}, {"type": "node", "id": 2505311256, "lat": 51.1183399, "lon": 5.2668383}, {"type": "node", "id": 2505311288, "lat": 51.1183438, "lon": 5.2668375}, {"type": "node", "id": 2723786884, "lat": 51.1083526, "lon": 5.2570775}, {"type": "node", "id": 2723787624, "lat": 51.1087593, "lon": 5.257029}, {"type": "node", "id": 3156352440, "lat": 51.1170497, "lon": 5.2631097}, {"type": "node", "id": 3400919740, "lat": 51.1311009, "lon": 5.2345705, "tags": {"bicycle": "yes", "information": "map", "map_type": "topo", "name": "Fietsroutenetwerk", "tourism": "information"}}, {"type": "node", "id": 3400919742, "lat": 51.1310921, "lon": 5.2345643, "tags": {"board_type": "history", "information": "board", "name": "Sergeant Louis Goetz", "tourism": "information"}}, {"type": "node", "id": 3400920536, "lat": 51.1278376, "lon": 5.2357108, "tags": {"bicycle": "yes", "information": "map", "name": "Fietsroutenetwerk", "tourism": "information"}}, {"type": "node", "id": 4072159943, "lat": 51.1073827, "lon": 5.2004542}, {"type": "node", "id": 4072159944, "lat": 51.1074112, "lon": 5.2004843}, {"type": "node", "id": 4072159945, "lat": 51.1074106, "lon": 5.2004974, "tags": {"board_type": "history", "description": "Wandelen in de bossen van Gerheserheide", "information": "board", "tourism": "information"}}, {"type": "node", "id": 4072159949, "lat": 51.1074528, "lon": 5.2003942}, {"type": "node", "id": 4072159950, "lat": 51.1074733, "lon": 5.2005155}, {"type": "node", "id": 4072160195, "lat": 51.1116775, "lon": 5.2026474, "tags": {"information": "guidepost", "tourism": "information"}}, {"type": "node", "id": 4104768911, "lat": 51.1109855, "lon": 5.2087131, "tags": {"tourism": "viewpoint"}}, {"type": "node", "id": 4104768923, "lat": 51.1165316, "lon": 5.2176283, "tags": {"board_type": "nature", "description": "Welkom in het domeinbos Op 't Zand", "information": "board", "tourism": "information"}}, {"type": "node", "id": 4104768927, "lat": 51.116702, "lon": 5.2190613}, {"type": "node", "id": 4104768929, "lat": 51.1167334, "lon": 5.219166}, {"type": "node", "id": 4104768934, "lat": 51.1168037, "lon": 5.2189838}, {"type": "node", "id": 4104768935, "lat": 51.1168352, "lon": 5.2190885}, {"type": "node", "id": 4104768950, "lat": 51.1172858, "lon": 5.2186378, "tags": {"information": "guidepost", "tourism": "information"}}, {"type": "node", "id": 4107484194, "lat": 51.1160147, "lon": 5.2165576, "tags": {"description": "Loop omloop", "information": "map", "map_size": "site", "tourism": "information"}}, {"type": "node", "id": 4107484310, "lat": 51.1239687, "lon": 5.2155933, "tags": {"board_type": "nature", "check_date": "2023-11-07", "information": "board", "tourism": "information"}}, {"type": "node", "id": 4461485789, "lat": 51.1183126, "lon": 5.267115, "tags": {"information": "office", "name": "Toeristische Dienst", "tourism": "information"}}, {"type": "node", "id": 4881544823, "lat": 51.1226448, "lon": 5.2034301, "tags": {"tourism": "information"}}, {"type": "node", "id": 5211312644, "lat": 51.108685, "lon": 5.25615}, {"type": "node", "id": 5211312650, "lat": 51.1086999, "lon": 5.2561768}, {"type": "node", "id": 5211312652, "lat": 51.1091886, "lon": 5.2560731}, {"type": "node", "id": 5368018444, "lat": 51.1088686, "lon": 5.2021862, "tags": {"board_type": "nature", "information": "board", "name": "in de heide verschanst", "tourism": "information"}}, {"type": "node", "id": 5981727419, "lat": 51.1064423, "lon": 5.2469775, "tags": {"information": "board", "tourism": "information"}}, {"type": "node", "id": 6699364663, "lat": 51.1147607, "lon": 5.2769244, "tags": {"information": "map", "mtb": "yes", "tourism": "information"}}, {"type": "node", "id": 6699364665, "lat": 51.1130243, "lon": 5.2689821, "tags": {"information": "map", "mtb": "yes", "tourism": "information"}}, {"type": "node", "id": 6699364728, "lat": 51.1047152, "lon": 5.2778377, "tags": {"information": "map", "mtb": "yes", "tourism": "information"}}, {"type": "node", "id": 6828037504, "lat": 51.1211527, "lon": 5.2205899}, {"type": "node", "id": 6828037505, "lat": 51.1211042, "lon": 5.2207577}, {"type": "node", "id": 6828037506, "lat": 51.1210797, "lon": 5.2207397}, {"type": "node", "id": 6828037507, "lat": 51.1210875, "lon": 5.2207128}, {"type": "node", "id": 6828037508, "lat": 51.1210204, "lon": 5.2206636}, {"type": "node", "id": 6828037509, "lat": 51.1210177, "lon": 5.220673}, {"type": "node", "id": 6828037510, "lat": 51.1209988, "lon": 5.2206591}, {"type": "node", "id": 6828037511, "lat": 51.1210024, "lon": 5.2206466}, {"type": "node", "id": 6828037512, "lat": 51.1209284, "lon": 5.2205924}, {"type": "node", "id": 6828037513, "lat": 51.1209221, "lon": 5.2206143}, {"type": "node", "id": 6828037514, "lat": 51.1209048, "lon": 5.2206016}, {"type": "node", "id": 6828037515, "lat": 51.1209117, "lon": 5.2205777}, {"type": "node", "id": 6828037516, "lat": 51.1209021, "lon": 5.2205707}, {"type": "node", "id": 6828037517, "lat": 51.1209246, "lon": 5.2204928}, {"type": "node", "id": 6828037518, "lat": 51.1209445, "lon": 5.2205074}, {"type": "node", "id": 6828037519, "lat": 51.1209584, "lon": 5.2204594}, {"type": "node", "id": 6828037520, "lat": 51.1209437, "lon": 5.2204487}, {"type": "node", "id": 6828037523, "lat": 51.1209461, "lon": 5.2204407}, {"type": "node", "id": 6828037524, "lat": 51.1209496, "lon": 5.2204285}, {"type": "node", "id": 6828037525, "lat": 51.1209769, "lon": 5.2204484}, {"type": "node", "id": 6828037526, "lat": 51.1209739, "lon": 5.2204588}, {"type": "node", "id": 7537444724, "lat": 51.1155885, "lon": 5.2646371, "tags": {"name": "Sint-Paulus museum", "operator": "Scouts Leopoldsburg", "tourism": "museum"}}, {"type": "node", "id": 7995330004, "lat": 51.1188447, "lon": 5.2205554}, {"type": "node", "id": 7995330005, "lat": 51.1188365, "lon": 5.2205597}, {"type": "node", "id": 7995330006, "lat": 51.1189999, "lon": 5.220486}, {"type": "node", "id": 7995330007, "lat": 51.119011, "lon": 5.2204809}, {"type": "node", "id": 8615832337, "lat": 51.1182579, "lon": 5.2669727}, {"type": "node", "id": 8615832348, "lat": 51.1183516, "lon": 5.2669512}, {"type": "node", "id": 9501081783, "lat": 51.1062469, "lon": 5.2301304, "tags": {"artwork_type": "statue", "tourism": "artwork"}}, {"type": "node", "id": 10175877881, "lat": 51.1012037, "lon": 5.2241806, "tags": {"board_type": "nature", "information": "board", "name": "Natuurreservaat Vallei Grote Beek", "tourism": "information"}}, {"type": "node", "id": 11019509952, "lat": 51.1130024, "lon": 5.2661644}, {"type": "node", "id": 11019509953, "lat": 51.1131737, "lon": 5.2661331}, {"type": "node", "id": 11019509955, "lat": 51.1133892, "lon": 5.2664286}, {"type": "node", "id": 11019509956, "lat": 51.1132547, "lon": 5.2660689}, {"type": "node", "id": 11019509957, "lat": 51.1133611, "lon": 5.2660488}, {"type": "node", "id": 11331597889, "lat": 51.1354398, "lon": 5.2439204, "tags": {"addr:city": "Leopoldsburg", "addr:housenumber": "171", "addr:postcode": "3970", "addr:street": "Lidostraat", "name": "Camperplaats De Lido", "power_supply": "yes", "sanitary_dump_station": "yes", "tourism": "caravan_site"}}, {"type": "node", "id": 12052683914, "lat": 51.1132739, "lon": 5.2663502}, {"type": "node", "id": 12174728597, "lat": 51.1074712, "lon": 5.2298033, "tags": {"name": "Museum Heemkunde Heppen", "tourism": "museum"}}, {"type": "node", "id": 12221912446, "lat": 51.1335554, "lon": 5.2564938, "tags": {"artwork_type": "statue", "statue": "saint", "tourism": "artwork"}}, {"type": "node", "id": 12221912454, "lat": 51.1331456, "lon": 5.2560479, "tags": {"artwork_type": "statue", "name": "H.-Hartbeeld", "statue": "saint", "tourism": "artwork"}}, {"type": "node", "id": 12221935201, "lat": 51.1131312, "lon": 5.2660216, "tags": {"information": "office", "name": "Toeristische Dienst", "tourism": "information"}}, {"type": "node", "id": 12222350304, "lat": 51.1089291, "lon": 5.2291289, "tags": {"brand": "Hoppin", "brand:wikidata": "Q124310711", "information": "map", "map_size": "site", "map_type": "public_transport", "name": "Heppen Kerk", "tourism": "information"}}, {"type": "node", "id": 12328588799, "lat": 51.1088898, "lon": 5.2290603, "tags": {"amenity": "mobility_hub", "fixme": "imported from official source, geometry might be off. Remove this fixme when location improved", "information": "board", "name": "Heppen Kerk", "network": "Hoppin", "network:wikidata": "Q124310711", "ref:hoppin_column": "238", "tourism": "information"}}, {"type": "way", "id": 88222300, "nodes": [1025023815, 1025023516, 11019509956, 11019509957, 11019509955, 12052683914, 11019509953, 11019509952, 1025023607, 1025023840, 1025023815], "tags": {"addr:city": "Leopoldsburg", "addr:housenumber": "2", "addr:postcode": "3970", "addr:street": "Koningin Louisa-Marialaan", "building": "yes", "contact:website": "https://liberationgarden.be/", "email": "contact@liberationgarden.be", "fee": "yes", "historic": "yes", "museum": "history", "name": "Liberation Garden", "old_name": "Paviljoen van de Commandant van de Genie", "phone": "+32 11 29 38 00", "tourism": "museum", "website": "https://liberationgarden.be/"}}, {"type": "way", "id": 117470518, "nodes": [1323409293, 7995330005, 7995330004, 1323408738, 1323408205, 7995330006, 7995330007, 1323409529, 1323409293], "tags": {"addr:city": "Leopoldsburg", "addr:country": "BE", "addr:housenumber": "49", "addr:postcode": "3971", "addr:street": "Zwarte Spechtstraat", "building": "house", "name": "Kampidoe", "tourism": "hostel", "website": "https://www.kampidoe.be/"}}, {"type": "way", "id": 221076571, "nodes": [6828037526, 6828037525, 6828037524, 6828037523, 6828037520, 6828037519, 6828037518, 6828037517, 6828037516, 6828037515, 6828037514, 6828037513, 6828037512, 6828037511, 6828037510, 6828037509, 6828037508, 6828037507, 6828037506, 6828037505, 6828037504, 6828037526], "tags": {"addr:city": "Leopoldsburg", "addr:country": "BE", "addr:housenumber": "21", "addr:postcode": "3971", "addr:street": "Op 't Zand", "brand": "B&B Hotels", "brand:wikidata": "Q794939", "building": "yes", "name": "B&B Hotel", "tourism": "hotel"}}, {"type": "way", "id": 236041702, "nodes": [2441171481, 2441171482, 2441171483, 2441171476, 3156352440, 2441171481], "tags": {"addr:city": "Leopoldsburg", "addr:country": "BE", "addr:housenumber": "28", "addr:postcode": "3970", "addr:street": "Koning Albert I plein", "building": "yes", "email": "info@au-prince-royal.be", "internet_access": "wlan", "internet_access:fee": "no", "name": "Au Prince Royal", "phone": "+32 11 34 62 16", "rooms": "16", "tourism": "hotel", "website": "https://www.au-prince-royal.be/"}}, {"type": "way", "id": 243095182, "nodes": [8615832348, 8615832337, 2505311223, 2505311242, 2505311256, 2505311288, 8615832348], "tags": {"addr:city": "Leopoldsburg", "addr:country": "BE", "addr:housenumber": "3", "addr:postcode": "3970", "addr:street": "Hechtelsesteenweg", "building": "yes", "name": "Museum van het Kamp van Beverlo", "source:geometry:date": "2013-03-01", "source:geometry:ref": "Gbg/4191932", "tourism": "museum", "wikidata": "Q2593361"}}, {"type": "way", "id": 266876812, "nodes": [5211312652, 2419783996, 2419783949, 2723787624, 2723786884, 2302561249, 5211312644, 5211312650, 5211312652], "tags": {"alt_name": "MKOK", "name": "Museum K-blokken", "opening_hours": "Mar-Oct: Sa[1] 13:00-17:00 open \"eerste zaterdag van de maand\"", "tourism": "museum", "website": "http://www.museum-mkok-leopoldsburg.be/"}}, {"type": "way", "id": 404979316, "nodes": [4072159950, 4072159949, 4072159943, 4072159944, 4072159950], "tags": {"tourism": "picnic_site"}}, {"type": "way", "id": 408586752, "nodes": [4104768934, 4104768927, 4104768929, 4104768935, 4104768934], "tags": {"surface": "ground", "tourism": "picnic_site"}}]}