{"version": 0.6, "generator": "Overpass API 0.7.62.1 084b4234", "osm3s": {"timestamp_osm_base": "2024-11-20T00:53:28Z", "copyright": "The data included in this document is from www.openstreetmap.org. The data is made available under ODbL."}, "elements": [{"type": "node", "id": 402728159, "lat": 50.8429477, "lon": 4.4382049, "tags": {"artist_name": "Raymond de Meester de Betzenbroeck", "artwork_type": "statue", "name": "Lion rugissant - Brullende Leeuw", "name:fr": "Lion rugissant", "name:nl": "Brullende Leeuw", "start_date": "1958", "tourism": "artwork", "website": "https://www.standbeelden.be/standbeeld/941"}}, {"type": "node", "id": 1406287018, "lat": 50.8505451, "lon": 4.4138655, "tags": {"artist_name": "Pierre Bertrand", "artwork_type": "sculpture", "name": "Constellations - De Sterrenbeelden", "name:fr": "Constellations", "name:nl": "De Sterrenbeelden", "start_date": "1958", "tourism": "artwork"}}, {"type": "node", "id": 1419117938, "lat": 50.8496162, "lon": 4.4228586}, {"type": "node", "id": 1419117939, "lat": 50.8496501, "lon": 4.4227325}, {"type": "node", "id": 1419117944, "lat": 50.8500413, "lon": 4.4225984}, {"type": "node", "id": 1419117950, "lat": 50.8500565, "lon": 4.4226427}, {"type": "node", "id": 1419117952, "lat": 50.849916, "lon": 4.4223973}, {"type": "node", "id": 1419117955, "lat": 50.8498296, "lon": 4.4228599}, {"type": "node", "id": 1419117957, "lat": 50.8498931, "lon": 4.4225139}, {"type": "node", "id": 1419117961, "lat": 50.8497382, "lon": 4.4224362}, {"type": "node", "id": 1419117962, "lat": 50.8494122, "lon": 4.4226668}, {"type": "node", "id": 1419117966, "lat": 50.8496552, "lon": 4.422754}, {"type": "node", "id": 1419117968, "lat": 50.849452, "lon": 4.4225501}, {"type": "node", "id": 1419117969, "lat": 50.8500641, "lon": 4.4224657}, {"type": "node", "id": 1756692077, "lat": 50.8382362, "lon": 4.4070236, "tags": {"brand": "Eurostars Hotels Company", "contact:email": "reservations@eurostarsmontgomery.com", "contact:phone": "+32 2 741 85 11", "contact:website": "https://www.eurostarshotels.com/eurostars-montgomery.html", "internet_access": "wlan", "name": "Eurostars Montgomery Hotel", "rooms": "63", "stars": "5", "tourism": "hotel"}}, {"type": "node", "id": 1835694259, "lat": 50.839079, "lon": 4.4361648}, {"type": "node", "id": 1835694260, "lat": 50.8389925, "lon": 4.4362488}, {"type": "node", "id": 1835694261, "lat": 50.8390698, "lon": 4.4362689}, {"type": "node", "id": 1835694265, "lat": 50.8390071, "lon": 4.4361314}, {"type": "node", "id": 1835694286, "lat": 50.8385914, "lon": 4.4360388}, {"type": "node", "id": 1835694290, "lat": 50.8382721, "lon": 4.4360348}, {"type": "node", "id": 1835694291, "lat": 50.8385109, "lon": 4.4362534}, {"type": "node", "id": 1835755683, "lat": 50.8406976, "lon": 4.438607, "tags": {"information": "map", "tourism": "information"}}, {"type": "node", "id": 2334377836, "lat": 50.8426235, "lon": 4.4071097, "tags": {"contact:phone": "+32 2 732 54 33", "contact:website": "https://www.apparthotels.com", "description": "ApartHotel", "name": "Apparthotel Georges Henri", "tourism": "apartment"}}, {"type": "node", "id": 2358224407, "lat": 50.8476529, "lon": 4.4036677}, {"type": "node", "id": 2358224414, "lat": 50.847696, "lon": 4.4038508}, {"type": "node", "id": 2358224422, "lat": 50.8477325, "lon": 4.403621}, {"type": "node", "id": 2358224423, "lat": 50.8477376, "lon": 4.4038259}, {"type": "node", "id": 2358224425, "lat": 50.8477531, "lon": 4.4038935}, {"type": "node", "id": 2358224432, "lat": 50.8477936, "lon": 4.4038698}, {"type": "node", "id": 3881773352, "lat": 50.8487025, "lon": 4.4170301, "tags": {"artist_name": "Nathalie Joiris", "artwork_type": "sculpture", "name": "Les Sylvains", "start_date": "2003", "tourism": "artwork"}}, {"type": "node", "id": 4178819693, "lat": 50.8452741, "lon": 4.4211599, "tags": {"architect": "Thierry Gonze", "artist:wikidata": "Q101355882", "artist_name": "Th\u00e9r\u00e8se Chotteau", "artwork_type": "statue", "historic": "memorial", "material": "bronze", "memorial": "war_memorial", "name": "Monument Ravensbr\u00fcck", "start_date": "2000", "subject:wikidata": "Q159483", "tourism": "artwork", "wikidata": "Q124037006", "wikimedia_commons": "Category:Monument Ravenbr\u00fcck by Th\u00e9r\u00e8se Chotteau"}}, {"type": "node", "id": 4416171593, "lat": 50.844759, "lon": 4.4388864, "tags": {"board_type": "history", "check_date": "2021-03-02", "information": "board", "tourism": "information"}}, {"type": "node", "id": 7476476386, "lat": 50.8428134, "lon": 4.4048276, "tags": {"artwork_type": "sgraffito", "tourism": "artwork"}}, {"type": "node", "id": 7476476387, "lat": 50.842577, "lon": 4.4038562, "tags": {"artwork_type": "sgraffito", "tourism": "artwork"}}, {"type": "node", "id": 7476476487, "lat": 50.8434096, "lon": 4.4102823, "tags": {"description:fr": "Ancienne Publicit\u00e9 Murale", "tourism": "artwork"}}, {"type": "node", "id": 7476476585, "lat": 50.8425949, "lon": 4.4039343, "tags": {"artwork_type": "sgraffito", "tourism": "artwork"}}, {"type": "node", "id": 7787376362, "lat": 50.8472657, "lon": 4.4112228, "tags": {"artwork_type": "statue", "material": "stone", "name": "La Vierge et l'enfant J\u00e9sus", "tourism": "artwork"}}, {"type": "node", "id": 8515278721, "lat": 50.851762, "lon": 4.4413548, "tags": {"artwork_type": "sculpture", "tourism": "artwork"}}, {"type": "node", "id": 8515278722, "lat": 50.8518032, "lon": 4.4413746, "tags": {"artwork_type": "sculpture", "tourism": "artwork"}}, {"type": "node", "id": 8521488727, "lat": 50.8477108, "lon": 4.4357969, "tags": {"artist:wikidata": "Q99454747", "artist:wikipedia": "fr:Nathalie Auz\u00e9py", "artist_name": "Nathalie Auz\u00e9py", "artwork_type": "sculpture", "material": "metal", "name": "Feuilles de ville - R\u00e9gion bruxelloise / Feuilles de ville - Brussels Gewest", "name:fr": "Feuilles de ville - R\u00e9gion bruxelloise", "name:nl": "Feuilles de ville - Brussels Gewest", "tourism": "artwork"}}, {"type": "node", "id": 8568694425, "lat": 50.8478356, "lon": 4.4369612, "tags": {"board_type": "history", "information": "board", "name": "Paul-Henri Spaak", "subject:wikidata": "Q155691", "subject:wikipedia": "fr:Paul-Henri Spaak", "tourism": "information"}}, {"type": "node", "id": 8568694426, "lat": 50.8478319, "lon": 4.4369362, "tags": {"board_type": "history", "information": "board", "name": "Paul-Henri Spaak", "subject:wikidata": "Q155691", "subject:wikipedia": "fr:Paul-Henri Spaak", "tourism": "information"}}, {"type": "node", "id": 8568694427, "lat": 50.8478284, "lon": 4.4369108, "tags": {"board_type": "history", "information": "board", "name": "Paul-Henri Spaak", "subject:wikidata": "Q155691", "subject:wikipedia": "fr:Paul-Henri Spaak", "tourism": "information"}}, {"type": "node", "id": 8568694428, "lat": 50.8478252, "lon": 4.4368857, "tags": {"board_type": "history", "information": "board", "name": "Paul-Henri Spaak", "subject:wikidata": "Q155691", "subject:wikipedia": "fr:Paul-Henri Spaak", "tourism": "information"}}, {"type": "node", "id": 8589537090, "lat": 50.8479515, "lon": 4.4504075, "tags": {"information": "board", "tourism": "information"}}, {"type": "node", "id": 8590307007, "lat": 50.8483157, "lon": 4.4138425, "tags": {"information": "board", "name": "8 mai 1945", "tourism": "information"}}, {"type": "node", "id": 8632779538, "lat": 50.8474635, "lon": 4.4505269, "tags": {"artist_name": "Jean-Fran\u00e7ois Lecomte", "artwork_type": "sculpture", "name": "\u00c9l\u00e9vation", "source_ref": "https://defiwoluwesaintlambert.eu/evenement/13-06-inauguration-de-lav-dumont-reamenagee/", "tourism": "artwork"}}, {"type": "node", "id": 8706747815, "lat": 50.8468271, "lon": 4.4432641, "tags": {"artist_name": "Nicole Sarteel-Lefebvre", "artwork_type": "statue", "material": "bronze", "name": "Mudra", "start_date": "1995", "tourism": "artwork"}}, {"type": "node", "id": 9147928754, "lat": 50.8411912, "lon": 4.4349678, "tags": {"board_type": "history", "information": "board", "tourism": "information"}}, {"type": "node", "id": 9174361014, "lat": 50.8538086, "lon": 4.4253984, "tags": {"artist:wikidata": "Q97015292", "artist_name": "Herv\u00e9 Paraponaris", "artwork_type": "sculpture", "highway": "street_lamp", "lamp_type": "electric", "name": "L'enfant au Modulor - Het kind met de Modulor", "name:fr": "L'enfant au Modulor", "name:nl": "Het kind met de Modulor", "ref:urbanbrussels": "64706", "start_date": "2021", "tourism": "artwork"}}, {"type": "node", "id": 9628422518, "lat": 50.8498976, "lon": 4.4224912}, {"type": "node", "id": 9628422520, "lat": 50.8498648, "lon": 4.4224997}, {"type": "node", "id": 9628422521, "lat": 50.8498588, "lon": 4.4224967}, {"type": "node", "id": 9628422522, "lat": 50.8497455, "lon": 4.4224398}, {"type": "node", "id": 9770103421, "lat": 50.843756, "lon": 4.4263117, "tags": {"artwork_type": "sculpture", "tourism": "artwork"}}, {"type": "node", "id": 9850898843, "lat": 50.8487532, "lon": 4.434642, "tags": {"board_type": "history", "information": "board", "language:fr": "yes", "name": "Jean L\u00e9onard", "operator": "Commune de Woluwe-Saint-Lambert - Gemeente Sint-Lambrechts-Woluwe", "subject:wikidata": "Q3172827", "subject:wikipedia": "fr:Jean L\u00e9onard", "tourism": "information"}}, {"type": "node", "id": 9850898844, "lat": 50.8487571, "lon": 4.4346559, "tags": {"board_type": "history", "information": "board", "language:nl": "yes", "name": "Jean L\u00e9onard", "operator": "Commune de Woluwe-Saint-Lambert - Gemeente Sint-Lambrechts-Woluwe", "subject:wikidata": "Q3172827", "subject:wikipedia": "fr:Jean L\u00e9onard", "tourism": "information"}}, {"type": "node", "id": 9856669633, "lat": 50.8553483, "lon": 4.4392368, "tags": {"information": "map", "map_size": "city", "map_type": "street", "operator": "Commune de Woluwe-Saint-Lambert - Gemeente Sint-Lambrechts-Woluwe", "tourism": "information"}}, {"type": "node", "id": 9869648602, "lat": 50.8398524, "lon": 4.4314678, "tags": {"name": "Aspria Royal La Rasante", "tourism": "hotel", "website": "https://www.aspria.com/en/brussels-royal-la-rasante/"}}, {"type": "node", "id": 9892803761, "lat": 50.8556558, "lon": 4.4392633, "tags": {"board_type": "nature", "information": "board", "name": "La For\u00eat Urbaine - Het Stadbos", "name:fr": "La For\u00eat Urbaine", "name:nl": "Het Stadbos", "operator": "Commune de Woluwe-Saint-Lambert - Gemeente Sint-Lambrechts-Woluwe", "tourism": "information"}}, {"type": "node", "id": 10016526628, "lat": 50.8470776, "lon": 4.4406438, "tags": {"hiking": "yes", "information": "guidepost", "mapillary": "185059677333015", "name": "Vandervelde", "tourism": "information"}}, {"type": "node", "id": 10113657965, "lat": 50.8452955, "lon": 4.4201928, "tags": {"tourism": "artwork"}}, {"type": "node", "id": 10162400630, "lat": 50.8526186, "lon": 4.4234717, "tags": {"artist_name": "Fran\u00e7ois Tusseki", "artwork_type": "sculpture", "description:fr": "\u0152uvre cr\u00e9\u00e9e pour l'Expo Brusselicious BXXL en 2012", "description:nl": "Werk gemaakt voor de Brusselicious BXXL Expo in 2012", "name": "Foodstorming", "start_date": "2012", "tourism": "artwork"}}, {"type": "node", "id": 10244149181, "lat": 50.8374822, "lon": 4.4280749, "tags": {"artist:wikidata": "Q91804710", "artist_name": "Rainer Gross", "artwork_type": "sculpture", "material": "metal", "name": "The Passage", "start_date": "1999", "tourism": "artwork"}}, {"type": "node", "id": 10244149182, "lat": 50.8373676, "lon": 4.4281082, "tags": {"artwork_type": "sculpture", "tourism": "artwork"}}, {"type": "node", "id": 10750376355, "lat": 50.8501951, "lon": 4.4281936}, {"type": "node", "id": 10750376356, "lat": 50.8502203, "lon": 4.4281732}, {"type": "node", "id": 10750376357, "lat": 50.8502101, "lon": 4.4281416}, {"type": "node", "id": 10750376358, "lat": 50.8501849, "lon": 4.4281619}, {"type": "node", "id": 10798069680, "lat": 50.8368931, "lon": 4.4275767, "tags": {"artwork_type": "sculpture", "tourism": "artwork"}}, {"type": "node", "id": 10798069681, "lat": 50.8368761, "lon": 4.4276746, "tags": {"artwork_type": "sculpture", "tourism": "artwork"}}, {"type": "node", "id": 10805498866, "lat": 50.8372331, "lon": 4.427784, "tags": {"artist_name": "Thierry Verbeeck", "name": "The screen", "start_date": "2016", "tourism": "artwork"}}, {"type": "node", "id": 10805520929, "lat": 50.8375148, "lon": 4.4285788, "tags": {"information": "board", "language:fr": "yes", "language:nl": "yes", "name": "Le Mobilier - Het Mobilier", "name:fr": "Le Mobilier", "name:nl": "Het Mobilier", "tourism": "information"}}, {"type": "node", "id": 10805520934, "lat": 50.8373124, "lon": 4.4285285, "tags": {"board_type": "nature", "information": "board", "language:fr": "yes", "language:nl": "yes", "name": "La Prairie Fleurie - De Bloemenweide", "name:fr": "La Prairie Fleurie", "name:nl": "De Bloemenweide", "tourism": "information"}}, {"type": "node", "id": 10805520965, "lat": 50.8375317, "lon": 4.4291324, "tags": {"board_type": "nature", "information": "board", "language:fr": "yes", "language:nl": "yes", "name": "Les Petits Fruitiers - De Kleine Fruitboompjes", "name:fr": "Les Petits Fruitiers", "name:nl": "De Kleine Fruitboompjes", "tourism": "information"}}, {"type": "node", "id": 10805521012, "lat": 50.8375501, "lon": 4.4292213, "tags": {"board_type": "nature", "information": "board", "language:fr": "yes", "language:nl": "yes", "name": "La Spirale \u00e0 Aromates - De Kruidenspiraal", "name:fr": "De Kruidenspiraal", "name:nl": "La Spirale \u00e0 Aromates", "tourism": "information"}}, {"type": "node", "id": 10992495497, "lat": 50.8436547, "lon": 4.405153, "tags": {"board_type": "history", "information": "board", "language:fr": "yes", "language:nl": "yes", "name": "Albert Jonnart", "operator": "Commune de Woluwe-Saint-Lambert - Gemeente Sint-Lambrechts-Woluwe", "subject:wikidata": "Q2831277", "support": "poles", "tourism": "information"}}, {"type": "node", "id": 11059029876, "lat": 50.8484668, "lon": 4.4277073, "tags": {"artist_name": "Pierre Bertrand", "artwork_type": "sculpture", "name": "Le Folklore", "tourism": "artwork", "wikimedia_commons": "File:Brussels,_Sculpture_-_Le_Folklore_-_2018_P1010071.jpg"}}, {"type": "node", "id": 11107425820, "lat": 50.8402899, "lon": 4.4140996, "tags": {"board_type": "history", "information": "board", "language:fr": "yes", "language:nl": "yes", "name": "Bronis\u0142aw Geremek", "operator": "Commune de Woluwe-Saint-Lambert - Gemeente Sint-Lambrechts-Woluwe", "subject:wikidata": "Q157282", "subject:wikipedia": "en:Bronis\u0142aw Geremek", "support": "poles", "tourism": "information"}}, {"type": "node", "id": 11451881989, "lat": 50.8410975, "lon": 4.4431246, "tags": {"artist_name": "J.-Y. Mangnay;G. Oreopoulos G.", "artwork_type": "mural", "mapillary": "1401348880435062", "name": "Les \u00e9nergies d'antan", "start_date": "2000-09", "tourism": "artwork"}}, {"type": "node", "id": 12049101812, "lat": 50.8445137, "lon": 4.420638, "tags": {"architect": "Thierry Gonze", "artist:wikidata": "Q101355882", "artist_name": "Th\u00e9r\u00e8se Chotteau", "artwork_type": "statue", "material": "bronze", "name": "Temple de la Nature - Tempel van de Natuur", "name:de": "Tempel der Natur", "name:en": "Temple of Nature", "name:fr": "Temple de la Nature", "name:nl": "Tempel van de Natuur", "tourism": "artwork", "wikidata": "Q124037007"}}, {"type": "node", "id": 12294924737, "lat": 50.8422864, "lon": 4.4057096, "tags": {"contact:phone": "+32 2 734 56 36", "contact:website": "https://www.monty-hotel.be", "internet_access": "wlan", "name": "Monty Small Design Hotel", "rooms": "18", "stars": "2", "tourism": "hotel", "wheelchair": "no"}}, {"type": "node", "id": 12294974570, "lat": 50.8552667, "lon": 4.4206872, "tags": {"brand": "Ramada", "brand:wikidata": "Q1502859", "brand:wikipedia": "en:Ramada", "contact:phone": "+32 2 775 31 80", "contact:website": "https://ramadabrusselswoluwe.be", "name": "Ramada Brussels Woluwe", "stars": "4", "tourism": "hotel"}}, {"type": "node", "id": 12309774520, "lat": 50.8555088, "lon": 4.4278921, "tags": {"information": "map", "map_size": "city", "map_type": "scheme", "subject:wikidata": "Q211764", "tourism": "information"}}, {"type": "node", "id": 12344511145, "lat": 50.8503049, "lon": 4.4225147, "tags": {"name": "Mus\u00e9e communal de Woluwe-Saint-Lambert", "name:fr": "Mus\u00e9e communal de Woluwe-Saint-Lambert", "name:nl": "Het Gemeentemuseum van Sint-Lambrechts-Woluwe", "tourism": "museum"}}, {"type": "way", "id": 128395604, "nodes": [1419117968, 1419117939, 1419117961, 9628422522, 9628422521, 9628422520, 1419117957, 9628422518, 1419117952, 1419117969, 1419117944, 1419117950, 1419117955, 1419117966, 1419117938, 1419117962, 1419117968], "tags": {"name": "Natura Roodebeek", "tourism": "zoo", "zoo": "petting_zoo"}}, {"type": "way", "id": 172690066, "nodes": [1835694259, 1835694265, 1835694260, 1835694261, 1835694259], "tags": {"tourism": "picnic_site"}}, {"type": "way", "id": 172690070, "nodes": [1835694286, 1835694290, 1835694291, 1835694286], "tags": {"tourism": "picnic_site"}}, {"type": "way", "id": 227092464, "nodes": [2358224422, 2358224432, 2358224425, 2358224423, 2358224414, 2358224407, 2358224422], "tags": {"addr:city": "Schaerbeek - Schaarbeek", "addr:housenumber": "136", "addr:postcode": "1030", "addr:street": "Boulevard Auguste Reyers - Auguste Reyerslaan", "building": "yes", "contact:website": "https://www.diamantsuites.be", "name": "Diamant Suites", "ref:UrbIS": "8659390", "tourism": "hotel"}}, {"type": "way", "id": 1155998611, "nodes": [10750376355, 10750376356, 10750376357, 10750376358, 10750376355], "tags": {"area": "yes", "artwork_type": "sculpture", "tourism": "artwork"}}]}