{"version": 0.6, "generator": "Overpass API 0.7.62.1 084b4234", "osm3s": {"timestamp_osm_base": "2024-11-20T00:55:30Z", "copyright": "The data included in this document is from www.openstreetmap.org. The data is made available under ODbL."}, "elements": [{"type": "node", "id": 911366882, "lat": 51.4448337, "lon": 5.0877037}, {"type": "node", "id": 911367329, "lat": 51.4483839, "lon": 5.0853774}, {"type": "node", "id": 911367339, "lat": 51.4506698, "lon": 5.083924}, {"type": "node", "id": 911367513, "lat": 51.4522929, "lon": 5.0877515}, {"type": "node", "id": 2833810293, "lat": 51.4712801, "lon": 5.0487307, "tags": {"addr:city": "Goirle", "addr:housenumber": "21", "addr:postcode": "5051DZ", "addr:street": "Turnhoutsebaan", "name": "Smashing Colors", "shop": "art", "source": "BAG", "source:date": "2014-03-24", "tourism": "gallery", "website": "https://www.simonetheelen.nl"}}, {"type": "node", "id": 3544038313, "lat": 51.46677, "lon": 5.067727, "tags": {"backcountry": "yes", "bicycle": "yes", "camp_site": "basic", "capacity": "10", "caravans": "no", "description": "minimalistic bivouac site", "description:nl": "site voor paalkamperen", "drinking_water": "no", "fee": "no", "image": "http://www.bivakzone.be/images/molenheide/bivakzone_molenheide.jpg", "maxtents": "3", "motor_vehicle": "no", "name": "Molenheide Poppel", "opening_hours": "24/7", "operator": "Flemish Agency for Nature and Forests (ANB)", "overnight_stay": "18:00-10:00", "reservation": "no", "source:nl": "http://www.bivakzone.be/molenheide.html", "tents": "yes", "tourism": "camp_site", "website": "https://www.bivakzone.be/molenheide.html"}}, {"type": "node", "id": 4005739138, "lat": 51.4666987, "lon": 5.0579097, "tags": {"name": "Uitkijktoren", "tourism": "viewpoint"}}, {"type": "node", "id": 4310296219, "lat": 51.4469429, "lon": 5.0428299, "tags": {"fee": "no", "name": "Museum aan de Grens Het Kaske", "opening_hours": "Mar-Nov Su[2] 14:00-17:00; PH off", "tourism": "museum", "website": "https://www.nicolaus-poppelius.be/museum/"}}, {"type": "node", "id": 4328354008, "lat": 51.4410591, "lon": 5.0405435, "tags": {"addr:housenumber": "49", "addr:street": "Vond", "contact:facebook": "https://www.facebook.com/vondhoeve", "email": "info@vondhoeve.com", "fee": "yes", "name": "Vondhoeve", "opening_hours": "Su[2] 10:00-17:00", "phone": "+32 14 65 23 44", "tourism": "museum", "website": "http://www.vondhoeve.com/"}}, {"type": "node", "id": 4333667663, "lat": 51.4457327, "lon": 5.0387547, "tags": {"artwork_type": "statue", "image": "http://commons.wikimedia.org/wiki/File:Christus_beeld_nabij_Sint-Valentinuskerk,_Poppel.jpg", "name": "Jezus Christus", "tourism": "artwork"}}, {"type": "node", "id": 4333667665, "lat": 51.4465066, "lon": 5.0403508, "tags": {"name": "Mieke Pap", "tourism": "hotel"}}, {"type": "node", "id": 4333669908, "lat": 51.4470805, "lon": 5.0429256, "tags": {"check_date": "2021-08-14", "description": "stratenplan", "information": "map", "map_size": "city", "map_type": "street", "tourism": "information"}}, {"type": "node", "id": 4338859653, "lat": 51.4122879, "lon": 5.0151695, "tags": {"artwork_type": "statue", "image": "https://commons.wikimedia.org/wiki/File:Christusbeeld_bij_Sint-Jan-Baptistkerk,_Weelde.jpg", "tourism": "artwork"}}, {"type": "node", "id": 4342490831, "lat": 51.4466892, "lon": 5.0370074, "tags": {"board_type": "notice", "information": "board", "tourism": "information"}}, {"type": "node", "id": 4345725181, "lat": 51.4503389, "lon": 5.007166, "tags": {"check_date": "2023-12-23", "information": "map", "map_size": "region", "tourism": "information"}}, {"type": "node", "id": 4345725511, "lat": 51.45805, "lon": 5.0112763, "tags": {"board_type": "history", "description": "Smokkelaarsroute: verhaal van Nederlandse boer die grenspaal verplaatste", "information": "board", "tourism": "information"}}, {"type": "node", "id": 4352479411, "lat": 51.4580736, "lon": 5.0113004, "tags": {"board_type": "history", "description": "Informatie over de grenspalen en -stenen in de streek", "information": "board", "tourism": "information"}}, {"type": "node", "id": 4389097181, "lat": 51.4468817, "lon": 5.0431913, "tags": {"information": "map", "map_size": "region", "name": "Smokkelaarsroute", "tourism": "information"}}, {"type": "node", "id": 4389097182, "lat": 51.4471325, "lon": 5.04304, "tags": {"artist_name": "Constant Grooten", "artwork_type": "statue", "image": "http://commons.wikimedia.org/wiki/File:Constant_Groote,_Vriendschap,_Poppel.jpg", "name": "Vriendschap", "start_date": "2014-04-12", "tourism": "artwork"}}, {"type": "node", "id": 4389097187, "lat": 51.4468766, "lon": 5.0431719, "tags": {"board_type": "history", "check_date": "2021-01-17", "description": "Begin van het verhaal van een smokkelaar", "information": "board", "tourism": "information"}}, {"type": "node", "id": 4391630392, "lat": 51.4116467, "lon": 5.0166568, "tags": {"board_type": "sport", "check_date": "2023-04-09", "information": "board", "name": "Finse looppiste 800m De Brouwerij", "tourism": "information"}}, {"type": "node", "id": 4397314628, "lat": 51.4215653, "lon": 5.0386263, "tags": {"board_type": "nature", "description": "Informatie over 3 overstromingsgebieden: Eel, Mosdijk en Hegge", "information": "board", "tourism": "information"}}, {"type": "node", "id": 4401015498, "lat": 51.4247544, "lon": 5.0340594, "tags": {"board_type": "history", "information": "board", "name": "De Kapel van Nicola\u00fcs Poppelius", "tourism": "information"}}, {"type": "node", "id": 4402498124, "lat": 51.429189, "lon": 5.0258995, "tags": {"board_type": "nature", "information": "board", "name": "Dood hout in het bos", "tourism": "information"}}, {"type": "node", "id": 4411403016, "lat": 51.4116779, "lon": 5.0049094, "tags": {"artist_name": "Constant Grooten", "artwork_type": "statue", "image": "https://upload.wikimedia.org/wikipedia/commons/f/f5/Constant_Groote%2C_Prins_Carnaval%2C_Weelde.jpg", "name": "Prins Carnaval", "start_date": "2012-02-10", "tourism": "artwork"}}, {"type": "node", "id": 4411403044, "lat": 51.4109177, "lon": 5.0056448, "tags": {"description": "Stratenplan Ravels", "information": "map", "map_size": "city", "map_type": "street", "tourism": "information"}}, {"type": "node", "id": 4411403067, "lat": 51.4110826, "lon": 5.0056109, "tags": {"artwork_type": "sculpture", "image": "https://commons.wikimedia.org/wiki/File:Kunstwerk_nabij_Gemeentehuis_Ravels.jpg", "tourism": "artwork"}}, {"type": "node", "id": 4411403071, "lat": 51.4111082, "lon": 5.0053512, "tags": {"advertising": "sign", "information": "board", "inscription": "Gemeentehuis Gemeentehuis Ravels", "operator": "Gemeente Ravels", "tourism": "information"}}, {"type": "node", "id": 4413062036, "lat": 51.410344, "lon": 5.0063046, "tags": {"artwork_type": "sculpture", "image": "http://commons.wikimedia.org/wiki/File:Tafelvoetballers_in_Weelde.jpg", "tourism": "artwork"}}, {"type": "node", "id": 4414694489, "lat": 51.4116768, "lon": 5.0102854, "tags": {"board_type": "notice", "information": "board", "tourism": "information"}}, {"type": "node", "id": 4414694695, "lat": 51.4129466, "lon": 5.0157253, "tags": {"information": "map", "map_size": "city", "map_type": "street", "tourism": "information"}}, {"type": "node", "id": 5636433692, "lat": 51.382014, "lon": 5.0374809, "tags": {"information": "map", "map_size": "site", "tourism": "information"}}, {"type": "node", "id": 5636434126, "lat": 51.3736619, "lon": 5.0408617, "tags": {"hiking": "yes", "information": "map", "map_size": "site", "name": "Welkom in het Gewestbos Ravels", "tourism": "information"}}, {"type": "node", "id": 5881692469, "lat": 51.419842, "lon": 4.9787566, "tags": {"information": "board", "tourism": "information"}}, {"type": "node", "id": 5881716431, "lat": 51.4221513, "lon": 4.9826368, "tags": {"tourism": "viewpoint"}}, {"type": "node", "id": 6289188723, "lat": 51.3871056, "lon": 4.9760505, "tags": {"board_type": "nature", "information": "board", "name": "Visvijver Speeksel", "tourism": "information"}}, {"type": "node", "id": 7510186498, "lat": 51.3628657, "lon": 5.0158308, "tags": {"information": "board", "tourism": "information"}}, {"type": "node", "id": 7510463402, "lat": 51.3776154, "lon": 5.0345693, "tags": {"information": "board", "name": "Welkom in Gewestbos Ravels", "tourism": "information"}}, {"type": "node", "id": 7510616602, "lat": 51.3674133, "lon": 5.012117, "tags": {"hiking": "yes", "information": "map", "name": "Welkom in Gewestbos Ravels", "tourism": "information"}}, {"type": "node", "id": 7599832447, "lat": 51.4090679, "lon": 4.9731001, "tags": {"information": "board", "name": "Grafheuvels Hoogeinde Bergen", "tourism": "information"}}, {"type": "node", "id": 8942434897, "lat": 51.387723, "lon": 5.0483707, "tags": {"information": "map", "mtb": "yes", "tourism": "information"}}, {"type": "node", "id": 8942443489, "lat": 51.3611651, "lon": 5.0070982, "tags": {"information": "map", "name": "Gewestbos Ravels", "tourism": "information"}}, {"type": "node", "id": 8949475032, "lat": 51.4462861, "lon": 5.0916079}, {"type": "node", "id": 8949475033, "lat": 51.4462159, "lon": 5.0916427}, {"type": "node", "id": 8949475034, "lat": 51.4461573, "lon": 5.0916347}, {"type": "node", "id": 8949475035, "lat": 51.4461089, "lon": 5.0915918}, {"type": "node", "id": 8952103504, "lat": 51.4482887, "lon": 5.0902158}, {"type": "node", "id": 8952103505, "lat": 51.4496742, "lon": 5.0893626}, {"type": "node", "id": 8952103506, "lat": 51.4496905, "lon": 5.0894321}, {"type": "node", "id": 8952103507, "lat": 51.44831, "lon": 5.0902912}, {"type": "node", "id": 9084655818, "lat": 51.4107867, "lon": 5.0068165, "tags": {"information": "map", "mtb": "yes", "tourism": "information"}}, {"type": "node", "id": 9084656003, "lat": 51.3524034, "lon": 5.0437412, "tags": {"information": "map", "mtb": "yes", "tourism": "information"}}, {"type": "node", "id": 9137459984, "lat": 51.374414, "lon": 5.0124803, "tags": {"addr:housenumber": "10", "addr:street": "Warandestraat", "email": "info@innoa.be", "guest_house": "bed_and_breakfast", "internet_access": "wifi", "name": "B&B Maison INNOA", "phone": "+32 477 31 29 48", "rooms": "2", "stars": "4", "tourism": "guest_house"}}, {"type": "node", "id": 9351165780, "lat": 51.3935427, "lon": 5.0708315, "tags": {"information": "map", "tourism": "information"}}, {"type": "node", "id": 9351165794, "lat": 51.3739464, "lon": 5.0562003, "tags": {"information": "map", "mtb": "yes", "tourism": "information"}}, {"type": "node", "id": 9351181349, "lat": 51.3689496, "lon": 5.0108322, "tags": {"hiking": "yes", "information": "map", "tourism": "information"}}, {"type": "node", "id": 9392782350, "lat": 51.4047041, "lon": 5.0453947, "tags": {"information": "board", "tourism": "information"}}, {"type": "node", "id": 9392782391, "lat": 51.3796699, "lon": 5.0463194, "tags": {"information": "board", "tourism": "information"}}, {"type": "node", "id": 9392810512, "lat": 51.3736749, "lon": 5.0409041, "tags": {"information": "map", "running": "yes", "tourism": "information"}}, {"type": "node", "id": 9489948543, "lat": 51.4206283, "lon": 4.9813414, "tags": {"information": "board", "tourism": "information"}}, {"type": "node", "id": 10069205655, "lat": 51.3708623, "lon": 5.0536088, "tags": {"information": "map", "tourism": "information"}}, {"type": "node", "id": 10069205679, "lat": 51.3687885, "lon": 5.0105657, "tags": {"information": "map", "running": "yes", "tourism": "information"}}, {"type": "node", "id": 10069205683, "lat": 51.3641153, "lon": 5.0259744, "tags": {"information": "map", "tourism": "information"}}, {"type": "node", "id": 11362951341, "lat": 51.4558523, "lon": 5.0725758, "tags": {"board_type": "welcome_sign", "information": "board", "name": "Overbroek", "operator": "Natuurpunt", "tourism": "information"}}, {"type": "node", "id": 11472942254, "lat": 51.4031233, "lon": 4.9674394, "tags": {"addr:housenumber": "54", "addr:street": "Geeneinde", "name": "Brandweerdepot Weelde Depot", "opening_hours": "Mar-Oct Su[2] 10:00-16:00", "tourism": "museum", "website": "https://debrandweer.be/nl/het-brandweerdepot-beleven-met-uw-gezin"}}, {"type": "node", "id": 12023398517, "lat": 51.4115805, "lon": 5.0175835, "tags": {"capacity": "6", "internet_access": "wlan", "internet_access:fee": "no", "name": "Camperplaats De Brouwerij", "operator": "Provincie Antwerpen", "power_supply": "no", "reservation": "no", "sanitary_dump_station": "no", "tourism": "caravan_site", "wheelchair": "yes"}}, {"type": "way", "id": 967366143, "nodes": [911366882, 8949475035, 8949475034, 8949475033, 8949475032, 8952103507, 8952103504, 8952103505, 8952103506, 911367513, 911367339, 911367329, 911366882], "tags": {"cabins": "yes", "caravans": "yes", "name": "Tulderheyde", "opening_hours": "Apr 1 - Oct 31", "phone": "+32 14 65 56 12", "shower": "yes", "tents": "yes", "toilets": "yes", "tourism": "camp_site", "website": "https://www.tulderheyde.be/"}}]}