{"version": 0.6, "generator": "Overpass API 0.7.62.1 084b4234", "osm3s": {"timestamp_osm_base": "2024-11-20T00:53:28Z", "copyright": "The data included in this document is from www.openstreetmap.org. The data is made available under ODbL."}, "elements": [{"type": "node", "id": 416562417, "lat": 50.8523283, "lon": 4.3349296}, {"type": "node", "id": 513049178, "lat": 50.853048, "lon": 4.3345079}, {"type": "node", "id": 513049180, "lat": 50.8527954, "lon": 4.3345948}, {"type": "node", "id": 513049181, "lat": 50.8527078, "lon": 4.3347668}, {"type": "node", "id": 513049182, "lat": 50.8526095, "lon": 4.3346394}, {"type": "node", "id": 513049183, "lat": 50.852752, "lon": 4.3343652}, {"type": "node", "id": 1227757280, "lat": 50.8467748, "lon": 4.2995131, "tags": {"name": "New Prince de Li\u00e8ge", "tourism": "hotel"}}, {"type": "node", "id": 1650859277, "lat": 50.848862, "lon": 4.3387432, "tags": {"artist:wikidata": "Q2848686;Q2927018", "artist_name": "Andr\u00e9 Taymans;Bruno Wesel", "artwork_type": "mural", "name": "Caroline Baldwin", "tourism": "artwork", "website": "https://www.parcoursbd.brussels/fresques/caroline-baldwin/"}}, {"type": "node", "id": 2430169328, "lat": 50.8470239, "lon": 4.3056528, "tags": {"fee": "no", "name": "Mus\u00e9e de Chine des Missionnaires de Scheut - Chinamuseum", "name:fr": "Mus\u00e9e de Chine des Missionnaires de Scheut", "name:nl": "Chinamuseum", "tourism": "museum", "wikidata": "Q28841853"}}, {"type": "node", "id": 2481629936, "lat": 50.864816, "lon": 4.3299366, "tags": {"contact:phone": "+32 2 420 70 76", "contact:website": "https://www.belgianchocolatevillage.be/", "name": "Belgian Chocolate Village", "opening_hours": "Tu-Fr 09:00-18:00; Sa-Su,SH 10:00-18:00", "tourism": "museum", "wikidata": "Q13437154", "wikipedia": "nl:Belgian Chocolate Village"}}, {"type": "node", "id": 2509238073, "lat": 50.860083, "lon": 4.3422857}, {"type": "node", "id": 2509238091, "lat": 50.8601228, "lon": 4.3421518}, {"type": "node", "id": 2509238114, "lat": 50.8602258, "lon": 4.3422615}, {"type": "node", "id": 2509238125, "lat": 50.8602564, "lon": 4.3423789}, {"type": "node", "id": 2509238133, "lat": 50.8602813, "lon": 4.3423206}, {"type": "node", "id": 2509238140, "lat": 50.860305, "lon": 4.3425198}, {"type": "node", "id": 2509238149, "lat": 50.8603311, "lon": 4.3424586}, {"type": "node", "id": 2521923933, "lat": 50.8570168, "lon": 4.342524}, {"type": "node", "id": 2521923936, "lat": 50.8570421, "lon": 4.3424989}, {"type": "node", "id": 2521923939, "lat": 50.8570732, "lon": 4.3427754}, {"type": "node", "id": 2521923940, "lat": 50.8570906, "lon": 4.34285}, {"type": "node", "id": 2521923950, "lat": 50.8571236, "lon": 4.3424162}, {"type": "node", "id": 2521923953, "lat": 50.8571689, "lon": 4.3431992}, {"type": "node", "id": 2521923955, "lat": 50.8571609, "lon": 4.3423784}, {"type": "node", "id": 2521923957, "lat": 50.8571764, "lon": 4.3423626}, {"type": "node", "id": 2521923963, "lat": 50.8572418, "lon": 4.3422962}, {"type": "node", "id": 2521923969, "lat": 50.8572744, "lon": 4.3430963}, {"type": "node", "id": 2521923987, "lat": 50.8573481, "lon": 4.3425613}, {"type": "node", "id": 2521923993, "lat": 50.8573858, "lon": 4.3426586}, {"type": "node", "id": 2521923996, "lat": 50.8573952, "lon": 4.3429698}, {"type": "node", "id": 2521923997, "lat": 50.8574008, "lon": 4.3429811}, {"type": "node", "id": 2521924025, "lat": 50.8574821, "lon": 4.3428939}, {"type": "node", "id": 2521924052, "lat": 50.8575857, "lon": 4.3436229}, {"type": "node", "id": 2521924068, "lat": 50.857644, "lon": 4.3435615}, {"type": "node", "id": 2521924075, "lat": 50.8577199, "lon": 4.343484}, {"type": "node", "id": 2521924085, "lat": 50.8577718, "lon": 4.3436128}, {"type": "node", "id": 2538781286, "lat": 50.8526295, "lon": 4.334601}, {"type": "node", "id": 2538781289, "lat": 50.8526587, "lon": 4.3349885}, {"type": "node", "id": 2538781303, "lat": 50.8527277, "lon": 4.334848}, {"type": "node", "id": 2538781306, "lat": 50.8527434, "lon": 4.3343818}, {"type": "node", "id": 2538781321, "lat": 50.8530112, "lon": 4.3346985}, {"type": "node", "id": 2538838842, "lat": 50.8521477, "lon": 4.3353396}, {"type": "node", "id": 2538838857, "lat": 50.8521834, "lon": 4.3353689}, {"type": "node", "id": 2538838890, "lat": 50.8522819, "lon": 4.3357872}, {"type": "node", "id": 2538838905, "lat": 50.852316, "lon": 4.3354829}, {"type": "node", "id": 2538838906, "lat": 50.8523222, "lon": 4.3354882}, {"type": "node", "id": 2538838912, "lat": 50.8523343, "lon": 4.3356668}, {"type": "node", "id": 2538838919, "lat": 50.852355, "lon": 4.3355162}, {"type": "node", "id": 2538838928, "lat": 50.8523647, "lon": 4.3355964}, {"type": "node", "id": 2538838932, "lat": 50.8523777, "lon": 4.3358574}, {"type": "node", "id": 2538838937, "lat": 50.8523899, "lon": 4.3355443}, {"type": "node", "id": 2538838954, "lat": 50.8524204, "lon": 4.3358886}, {"type": "node", "id": 2538838982, "lat": 50.8525011, "lon": 4.3359508}, {"type": "node", "id": 2538839013, "lat": 50.8525996, "lon": 4.3360221}, {"type": "node", "id": 2538839131, "lat": 50.8529295, "lon": 4.3354163}, {"type": "node", "id": 2538839165, "lat": 50.8530241, "lon": 4.3352439}, {"type": "node", "id": 2538862736, "lat": 50.8521837, "lon": 4.3352621}, {"type": "node", "id": 2538862740, "lat": 50.8522571, "lon": 4.3350933}, {"type": "node", "id": 2538862742, "lat": 50.8522917, "lon": 4.3350135}, {"type": "node", "id": 2538862743, "lat": 50.8522984, "lon": 4.3349982}, {"type": "node", "id": 2538877349, "lat": 50.8507869, "lon": 4.3371142, "tags": {"contact:email": "info@belvuehotel.com", "contact:phone": "+32 2 832 32 32", "contact:website": "https://belvuehotel.com", "internet_access": "wlan", "name": "Hotel Belvue", "rooms": "29", "stars": "3", "tourism": "hotel"}}, {"type": "node", "id": 2539513997, "lat": 50.8508312, "lon": 4.3377211}, {"type": "node", "id": 2539513998, "lat": 50.8509009, "lon": 4.337658}, {"type": "node", "id": 2539514002, "lat": 50.8509432, "lon": 4.3381319}, {"type": "node", "id": 2539514006, "lat": 50.8510465, "lon": 4.3383088}, {"type": "node", "id": 2539514014, "lat": 50.8511044, "lon": 4.3382223}, {"type": "node", "id": 3122385574, "lat": 50.8467348, "lon": 4.2949924, "tags": {"contact:phone": "+32 2 414 95 41", "contact:website": "https://www.hotelphenix.be/", "name": "Hotel Phenix", "stars": "3", "tourism": "hotel"}}, {"type": "node", "id": 3697275662, "lat": 50.8571048, "lon": 4.3429133}, {"type": "node", "id": 3765787654, "lat": 50.8584103, "lon": 4.3462336, "tags": {"artwork_type": "statue", "tourism": "artwork"}}, {"type": "node", "id": 3765793665, "lat": 50.8589134, "lon": 4.3466891, "tags": {"artwork_type": "statue", "tourism": "artwork"}}, {"type": "node", "id": 3765793667, "lat": 50.8590324, "lon": 4.3462704, "tags": {"artwork_type": "statue", "tourism": "artwork"}}, {"type": "node", "id": 3814391308, "lat": 50.8548711, "lon": 4.3386842, "tags": {"artist_name": "Jo\u00eblle Tuerlinckx", "artwork_type": "sculpture", "name": "Moment-Point z\u00e9ro", "start_date": "2014", "tourism": "artwork"}}, {"type": "node", "id": 4262396628, "lat": 50.8644271, "lon": 4.3316861, "tags": {"contact:email": "reception@hello-hostel.eu", "contact:mobile": "+32 471 93 59 27", "contact:website": "https://hello-hostel.eu/", "internet_access": "wlan", "name": "Brussels Hello Hostel", "smoking": "outside", "tourism": "hostel"}}, {"type": "node", "id": 4793526891, "lat": 50.8636546, "lon": 4.3447455, "tags": {"information": "office", "name": "TravelTop", "tourism": "information"}}, {"type": "node", "id": 5055592837, "lat": 50.8577289, "lon": 4.337991, "tags": {"addr:city": "Molenbeek-Saint-Jean - Sint-Jans-Molenbeek", "addr:housenumber": "2A", "addr:postcode": "1080", "addr:street": "Rue Mommaerts - Mommaertsstraat", "name": "MoMuse", "tourism": "museum", "website": "https://www.momuse.be", "wikidata": "Q29957439"}}, {"type": "node", "id": 6534462291, "lat": 50.8554977, "lon": 4.3427849, "tags": {"artist_name": "Claire Daliers", "artwork_type": "mural", "name": "The Drunken Ship", "tourism": "artwork"}}, {"type": "node", "id": 6534464086, "lat": 50.8548232, "lon": 4.3434748, "tags": {"artwork_type": "mural", "level": "4-6", "tourism": "artwork"}}, {"type": "node", "id": 6644716672, "lat": 50.8516731, "lon": 4.3163392, "tags": {"artwork_type": "bust", "material": "bronze", "name": "Albert I", "tourism": "artwork"}}, {"type": "node", "id": 8743425217, "lat": 50.8531142, "lon": 4.3348097, "tags": {"addr:housenumber": "4", "addr:postcode": "1080", "addr:street": "Rue de l'\u00c9l\u00e9phant - Olifantstraat", "capacity": "5", "charge": "30 EUR / vehicle / night", "fee": "yes", "internet_access": "yes", "internet_access:fee": "no", "operator": "Auberge de Jeunesse Bruxelles Generation Europe", "permanent_camping": "no", "power_supply": "yes", "sanitary_dump_station": "yes", "shower": "yes", "toilets": "yes", "tourism": "caravan_site", "website": "https://www.lesaubergesdejeunesse.be/en/contact/motorhome-camper-van-site-center-brussels"}}, {"type": "node", "id": 8872003909, "lat": 50.8512835, "lon": 4.3410741, "tags": {"contact:email": "sleep@druum.be", "contact:mobile": "+32 472 05 42 40", "contact:phone": "+32 2 503 63 00", "contact:website": "https://www.druum.be", "guest_house": "bed_and_breakfast", "internet_access": "yes", "internet_access:fee": "customers", "name": "Druum", "tourism": "guest_house"}}, {"type": "node", "id": 8941240661, "lat": 50.8453492, "lon": 4.3127576}, {"type": "node", "id": 8941240662, "lat": 50.8453241, "lon": 4.3127776}, {"type": "node", "id": 8941240663, "lat": 50.8453331, "lon": 4.3128061}, {"type": "node", "id": 8941240664, "lat": 50.8453583, "lon": 4.3127861}, {"type": "node", "id": 8973915053, "lat": 50.8525643, "lon": 4.335182}, {"type": "node", "id": 8973915094, "lat": 50.8524576, "lon": 4.3359175, "tags": {"barrier": "gate"}}, {"type": "node", "id": 8973915097, "lat": 50.8527841, "lon": 4.3347288}, {"type": "node", "id": 9029953197, "lat": 50.8674415, "lon": 4.3354961}, {"type": "node", "id": 9029953198, "lat": 50.8675158, "lon": 4.335584}, {"type": "node", "id": 9029953199, "lat": 50.8675446, "lon": 4.3355228}, {"type": "node", "id": 9029953200, "lat": 50.8673858, "lon": 4.3355708, "tags": {"artwork_type": "sculpture", "tourism": "artwork"}}, {"type": "node", "id": 9030048318, "lat": 50.8584745, "lon": 4.3471351, "tags": {"artwork_type": "sculpture", "name": "A Temporary Monument for Brussels", "tourism": "artwork"}}, {"type": "node", "id": 9030048319, "lat": 50.8584226, "lon": 4.3469591, "tags": {"information": "board", "tourism": "information"}}, {"type": "node", "id": 9160715109, "lat": 50.8488186, "lon": 4.3327426, "tags": {"artwork_type": "sculpture", "tourism": "artwork"}}, {"type": "node", "id": 9174328933, "lat": 50.8542875, "lon": 4.3225914, "tags": {"artist:wikidata": "Q3013983", "artist_name": "Daniel Dutrieux", "artwork_type": "sculpture", "name": "Un livre \u00e0 ciel ouvert - Een boek in open lucht", "name:fr": "Un livre \u00e0 ciel ouvert", "name:nl": "Een boek in open lucht", "ref:urbanbrussels": "64700", "start_date": "2013", "tourism": "artwork"}}, {"type": "node", "id": 9174355182, "lat": 50.8547958, "lon": 4.3126871}, {"type": "node", "id": 9174355183, "lat": 50.8550079, "lon": 4.3132882}, {"type": "node", "id": 9174355184, "lat": 50.8551582, "lon": 4.3131562}, {"type": "node", "id": 9174355185, "lat": 50.8549495, "lon": 4.312563}, {"type": "node", "id": 9177597524, "lat": 50.8452793, "lon": 4.3259834, "tags": {"artwork_type": "pinwheel", "tourism": "artwork"}}, {"type": "node", "id": 9177597525, "lat": 50.8453294, "lon": 4.3260705, "tags": {"artwork_type": "pinwheel", "tourism": "artwork"}}, {"type": "node", "id": 9177597526, "lat": 50.8454285, "lon": 4.326245, "tags": {"artwork_type": "pinwheel", "tourism": "artwork"}}, {"type": "node", "id": 9177597527, "lat": 50.8454785, "lon": 4.3263319, "tags": {"artwork_type": "pinwheel", "tourism": "artwork"}}, {"type": "node", "id": 9177597528, "lat": 50.8455351, "lon": 4.3264307, "tags": {"artwork_type": "pinwheel", "tourism": "artwork"}}, {"type": "node", "id": 9177597529, "lat": 50.8455821, "lon": 4.3265132, "tags": {"artwork_type": "pinwheel", "tourism": "artwork"}}, {"type": "node", "id": 9177597530, "lat": 50.8456306, "lon": 4.3265998, "tags": {"artwork_type": "pinwheel", "tourism": "artwork"}}, {"type": "node", "id": 9177597531, "lat": 50.8456866, "lon": 4.3266962, "tags": {"artwork_type": "pinwheel", "tourism": "artwork"}}, {"type": "node", "id": 9177597532, "lat": 50.8457436, "lon": 4.3267946, "tags": {"artwork_type": "pinwheel", "tourism": "artwork"}}, {"type": "node", "id": 9177597533, "lat": 50.8457953, "lon": 4.3268828, "tags": {"artwork_type": "pinwheel", "tourism": "artwork"}}, {"type": "node", "id": 9177597534, "lat": 50.8458463, "lon": 4.3269723, "tags": {"artwork_type": "pinwheel", "tourism": "artwork"}}, {"type": "node", "id": 9177597535, "lat": 50.8459102, "lon": 4.3270852, "tags": {"artwork_type": "pinwheel", "tourism": "artwork"}}, {"type": "node", "id": 9177597536, "lat": 50.8459601, "lon": 4.3271723, "tags": {"artwork_type": "pinwheel", "tourism": "artwork"}}, {"type": "node", "id": 9177597537, "lat": 50.8460122, "lon": 4.3272592, "tags": {"artwork_type": "pinwheel", "tourism": "artwork"}}, {"type": "node", "id": 9177597538, "lat": 50.8460771, "lon": 4.3273761, "tags": {"artwork_type": "pinwheel", "tourism": "artwork"}}, {"type": "node", "id": 9177597539, "lat": 50.8461242, "lon": 4.3274577, "tags": {"artwork_type": "pinwheel", "tourism": "artwork"}}, {"type": "node", "id": 9177597540, "lat": 50.8461739, "lon": 4.3275464, "tags": {"artwork_type": "pinwheel", "tourism": "artwork"}}, {"type": "node", "id": 9177597541, "lat": 50.8462246, "lon": 4.3276347, "tags": {"artwork_type": "pinwheel", "tourism": "artwork"}}, {"type": "node", "id": 9177597542, "lat": 50.846276, "lon": 4.3277245, "tags": {"artwork_type": "pinwheel", "tourism": "artwork"}}, {"type": "node", "id": 9177597543, "lat": 50.8463372, "lon": 4.3278282, "tags": {"artwork_type": "pinwheel", "tourism": "artwork"}}, {"type": "node", "id": 9177597544, "lat": 50.8463889, "lon": 4.3279195, "tags": {"artwork_type": "pinwheel", "tourism": "artwork"}}, {"type": "node", "id": 9177597545, "lat": 50.8464389, "lon": 4.328009, "tags": {"artwork_type": "pinwheel", "tourism": "artwork"}}, {"type": "node", "id": 9177597546, "lat": 50.8464771, "lon": 4.3280721, "tags": {"artwork_type": "pinwheel", "tourism": "artwork"}}, {"type": "node", "id": 9177597547, "lat": 50.8465464, "lon": 4.3281931, "tags": {"artwork_type": "pinwheel", "tourism": "artwork"}}, {"type": "node", "id": 9177597548, "lat": 50.8465926, "lon": 4.3282733, "tags": {"artwork_type": "pinwheel", "tourism": "artwork"}}, {"type": "node", "id": 9177597549, "lat": 50.8466405, "lon": 4.3283561, "tags": {"artwork_type": "pinwheel", "tourism": "artwork"}}, {"type": "node", "id": 9177597550, "lat": 50.8466916, "lon": 4.3284452, "tags": {"artwork_type": "pinwheel", "tourism": "artwork"}}, {"type": "node", "id": 9177597551, "lat": 50.8469016, "lon": 4.3292986, "tags": {"artwork_type": "pinwheel", "tourism": "artwork"}}, {"type": "node", "id": 9177597552, "lat": 50.8468516, "lon": 4.3292186, "tags": {"artwork_type": "pinwheel", "tourism": "artwork"}}, {"type": "node", "id": 9177597553, "lat": 50.8468035, "lon": 4.329133, "tags": {"artwork_type": "pinwheel", "tourism": "artwork"}}, {"type": "node", "id": 9177597554, "lat": 50.8467407, "lon": 4.3290235, "tags": {"artwork_type": "pinwheel", "tourism": "artwork"}}, {"type": "node", "id": 9177597555, "lat": 50.8467027, "lon": 4.3289581, "tags": {"artwork_type": "pinwheel", "tourism": "artwork"}}, {"type": "node", "id": 9177597556, "lat": 50.8466491, "lon": 4.3288668, "tags": {"artwork_type": "pinwheel", "tourism": "artwork"}}, {"type": "node", "id": 9177597557, "lat": 50.8466028, "lon": 4.3287847, "tags": {"artwork_type": "pinwheel", "tourism": "artwork"}}, {"type": "node", "id": 9177597558, "lat": 50.8465571, "lon": 4.3287057, "tags": {"artwork_type": "pinwheel", "tourism": "artwork"}}, {"type": "node", "id": 9177597559, "lat": 50.8464893, "lon": 4.3285856, "tags": {"artwork_type": "pinwheel", "tourism": "artwork"}}, {"type": "node", "id": 9177597560, "lat": 50.8464377, "lon": 4.3284974, "tags": {"artwork_type": "pinwheel", "tourism": "artwork"}}, {"type": "node", "id": 9177597561, "lat": 50.8463859, "lon": 4.3284085, "tags": {"artwork_type": "pinwheel", "tourism": "artwork"}}, {"type": "node", "id": 9177597562, "lat": 50.8462747, "lon": 4.3282149, "tags": {"artwork_type": "pinwheel", "tourism": "artwork"}}, {"type": "node", "id": 9177597563, "lat": 50.8462241, "lon": 4.3281277, "tags": {"artwork_type": "pinwheel", "tourism": "artwork"}}, {"type": "node", "id": 9177597564, "lat": 50.8461722, "lon": 4.3280375, "tags": {"artwork_type": "pinwheel", "tourism": "artwork"}}, {"type": "node", "id": 9177597565, "lat": 50.84611, "lon": 4.3279282, "tags": {"artwork_type": "pinwheel", "tourism": "artwork"}}, {"type": "node", "id": 9177597566, "lat": 50.8460576, "lon": 4.327838, "tags": {"artwork_type": "pinwheel", "tourism": "artwork"}}, {"type": "node", "id": 9177597567, "lat": 50.8460095, "lon": 4.3277541, "tags": {"artwork_type": "pinwheel", "tourism": "artwork"}}, {"type": "node", "id": 9177597568, "lat": 50.84596, "lon": 4.3276682, "tags": {"artwork_type": "pinwheel", "tourism": "artwork"}}, {"type": "node", "id": 9177597569, "lat": 50.8458981, "lon": 4.3275589, "tags": {"artwork_type": "pinwheel", "tourism": "artwork"}}, {"type": "node", "id": 9177597570, "lat": 50.845847, "lon": 4.3274704, "tags": {"artwork_type": "pinwheel", "tourism": "artwork"}}, {"type": "node", "id": 9177597571, "lat": 50.8457941, "lon": 4.3273779, "tags": {"artwork_type": "pinwheel", "tourism": "artwork"}}, {"type": "node", "id": 9177597572, "lat": 50.8457302, "lon": 4.3272668, "tags": {"artwork_type": "pinwheel", "tourism": "artwork"}}, {"type": "node", "id": 9177597573, "lat": 50.8456702, "lon": 4.3271638, "tags": {"artwork_type": "pinwheel", "tourism": "artwork"}}, {"type": "node", "id": 9177597574, "lat": 50.8456196, "lon": 4.3270738, "tags": {"artwork_type": "pinwheel", "tourism": "artwork"}}, {"type": "node", "id": 9177597576, "lat": 50.8455588, "lon": 4.3269679, "tags": {"artwork_type": "pinwheel", "tourism": "artwork"}}, {"type": "node", "id": 9177597577, "lat": 50.845508, "lon": 4.3268801, "tags": {"artwork_type": "pinwheel", "tourism": "artwork"}}, {"type": "node", "id": 9177597578, "lat": 50.8454393, "lon": 4.3267597, "tags": {"artwork_type": "pinwheel", "tourism": "artwork"}}, {"type": "node", "id": 9177597579, "lat": 50.8453798, "lon": 4.326658, "tags": {"artwork_type": "pinwheel", "tourism": "artwork"}}, {"type": "node", "id": 9177597580, "lat": 50.8453277, "lon": 4.326565, "tags": {"artwork_type": "pinwheel", "tourism": "artwork"}}, {"type": "node", "id": 9177597581, "lat": 50.845161, "lon": 4.326275, "tags": {"artwork_type": "pinwheel", "tourism": "artwork"}}, {"type": "node", "id": 9177597582, "lat": 50.8451243, "lon": 4.3262116, "tags": {"artwork_type": "pinwheel", "tourism": "artwork"}}, {"type": "node", "id": 9177597583, "lat": 50.8452142, "lon": 4.3263691, "tags": {"artwork_type": "pinwheel", "tourism": "artwork"}}, {"type": "node", "id": 9177597584, "lat": 50.8452784, "lon": 4.32648, "tags": {"artwork_type": "pinwheel", "tourism": "artwork"}}, {"type": "node", "id": 9177597586, "lat": 50.8507048, "lon": 4.3377541, "tags": {"artwork_type": "pinwheel", "tourism": "artwork"}}, {"type": "node", "id": 9177597587, "lat": 50.8507328, "lon": 4.3378515, "tags": {"artwork_type": "pinwheel", "tourism": "artwork"}}, {"type": "node", "id": 9177597588, "lat": 50.8507756, "lon": 4.3379927, "tags": {"artwork_type": "pinwheel", "tourism": "artwork"}}, {"type": "node", "id": 9177597589, "lat": 50.8508049, "lon": 4.3380921, "tags": {"artwork_type": "pinwheel", "tourism": "artwork"}}, {"type": "node", "id": 9177597590, "lat": 50.8508361, "lon": 4.338193, "tags": {"artwork_type": "pinwheel", "tourism": "artwork"}}, {"type": "node", "id": 9177597592, "lat": 50.8508856, "lon": 4.3382921, "tags": {"artwork_type": "pinwheel", "tourism": "artwork"}}, {"type": "node", "id": 9177597593, "lat": 50.8509294, "lon": 4.3383643, "tags": {"artwork_type": "pinwheel", "tourism": "artwork"}}, {"type": "node", "id": 9177597594, "lat": 50.8509735, "lon": 4.3384394, "tags": {"artwork_type": "pinwheel", "tourism": "artwork"}}, {"type": "node", "id": 9177597595, "lat": 50.8510268, "lon": 4.3385304, "tags": {"artwork_type": "pinwheel", "tourism": "artwork"}}, {"type": "node", "id": 9177597596, "lat": 50.8510773, "lon": 4.3386152, "tags": {"artwork_type": "pinwheel", "tourism": "artwork"}}, {"type": "node", "id": 9177597597, "lat": 50.8511427, "lon": 4.3387316, "tags": {"artwork_type": "pinwheel", "tourism": "artwork"}}, {"type": "node", "id": 9177597598, "lat": 50.8512041, "lon": 4.3388379, "tags": {"artwork_type": "pinwheel", "tourism": "artwork"}}, {"type": "node", "id": 9177597599, "lat": 50.851255, "lon": 4.3389238, "tags": {"artwork_type": "pinwheel", "tourism": "artwork"}}, {"type": "node", "id": 9177597600, "lat": 50.8513646, "lon": 4.3391128, "tags": {"artwork_type": "pinwheel", "tourism": "artwork"}}, {"type": "node", "id": 9177597601, "lat": 50.8513051, "lon": 4.3390051, "tags": {"artwork_type": "pinwheel", "tourism": "artwork"}}, {"type": "node", "id": 9177597602, "lat": 50.851467, "lon": 4.3392627, "tags": {"artwork_type": "pinwheel", "tourism": "artwork"}}, {"type": "node", "id": 9177597603, "lat": 50.8515275, "lon": 4.3393214, "tags": {"artwork_type": "pinwheel", "tourism": "artwork"}}, {"type": "node", "id": 9177597604, "lat": 50.8514175, "lon": 4.3391996, "tags": {"artwork_type": "pinwheel", "tourism": "artwork"}}, {"type": "node", "id": 9177597605, "lat": 50.8515945, "lon": 4.3393849, "tags": {"artwork_type": "pinwheel", "tourism": "artwork"}}, {"type": "node", "id": 9177597606, "lat": 50.8516539, "lon": 4.3394406, "tags": {"artwork_type": "pinwheel", "tourism": "artwork"}}, {"type": "node", "id": 9177597607, "lat": 50.8517158, "lon": 4.3395005, "tags": {"artwork_type": "pinwheel", "tourism": "artwork"}}, {"type": "node", "id": 9177597608, "lat": 50.8517819, "lon": 4.3395599, "tags": {"artwork_type": "pinwheel", "tourism": "artwork"}}, {"type": "node", "id": 9177597609, "lat": 50.851838, "lon": 4.3396144, "tags": {"artwork_type": "pinwheel", "tourism": "artwork"}}, {"type": "node", "id": 9177597610, "lat": 50.8518992, "lon": 4.3396711, "tags": {"artwork_type": "pinwheel", "tourism": "artwork"}}, {"type": "node", "id": 9177597611, "lat": 50.8519596, "lon": 4.3397288, "tags": {"artwork_type": "pinwheel", "tourism": "artwork"}}, {"type": "node", "id": 9177597612, "lat": 50.8520203, "lon": 4.3397872, "tags": {"artwork_type": "pinwheel", "tourism": "artwork"}}, {"type": "node", "id": 9177597613, "lat": 50.8520869, "lon": 4.339853, "tags": {"artwork_type": "pinwheel", "tourism": "artwork"}}, {"type": "node", "id": 9177597614, "lat": 50.8521498, "lon": 4.3399097, "tags": {"artwork_type": "pinwheel", "tourism": "artwork"}}, {"type": "node", "id": 9177597615, "lat": 50.8522093, "lon": 4.3399662, "tags": {"artwork_type": "pinwheel", "tourism": "artwork"}}, {"type": "node", "id": 9177597616, "lat": 50.8522877, "lon": 4.3400398, "tags": {"artwork_type": "pinwheel", "tourism": "artwork"}}, {"type": "node", "id": 9177603817, "lat": 50.8523454, "lon": 4.3400965, "tags": {"artwork_type": "pinwheel", "tourism": "artwork"}}, {"type": "node", "id": 9177603818, "lat": 50.8524119, "lon": 4.3401566, "tags": {"artwork_type": "pinwheel", "tourism": "artwork"}}, {"type": "node", "id": 9177603819, "lat": 50.8525051, "lon": 4.3402456, "tags": {"artwork_type": "pinwheel", "tourism": "artwork"}}, {"type": "node", "id": 9177603820, "lat": 50.8525653, "lon": 4.3403048, "tags": {"artwork_type": "pinwheel", "tourism": "artwork"}}, {"type": "node", "id": 9177603821, "lat": 50.8526289, "lon": 4.3403631, "tags": {"artwork_type": "pinwheel", "tourism": "artwork"}}, {"type": "node", "id": 9177603822, "lat": 50.8527092, "lon": 4.3404377, "tags": {"artwork_type": "pinwheel", "tourism": "artwork"}}, {"type": "node", "id": 9177603823, "lat": 50.8527508, "lon": 4.3404782, "tags": {"artwork_type": "pinwheel", "tourism": "artwork"}}, {"type": "node", "id": 9177603824, "lat": 50.8528102, "lon": 4.3405355, "tags": {"artwork_type": "pinwheel", "tourism": "artwork"}}, {"type": "node", "id": 9177603825, "lat": 50.8529141, "lon": 4.340633, "tags": {"artwork_type": "pinwheel", "tourism": "artwork"}}, {"type": "node", "id": 9177603826, "lat": 50.8529764, "lon": 4.3406983, "tags": {"artwork_type": "pinwheel", "tourism": "artwork"}}, {"type": "node", "id": 9177603827, "lat": 50.8530405, "lon": 4.3407593, "tags": {"artwork_type": "pinwheel", "tourism": "artwork"}}, {"type": "node", "id": 9177603828, "lat": 50.8535542, "lon": 4.3412452, "tags": {"artwork_type": "pinwheel", "tourism": "artwork"}}, {"type": "node", "id": 9177603829, "lat": 50.8536168, "lon": 4.3413055, "tags": {"artwork_type": "pinwheel", "tourism": "artwork"}}, {"type": "node", "id": 9177603830, "lat": 50.8536822, "lon": 4.3413621, "tags": {"artwork_type": "pinwheel", "tourism": "artwork"}}, {"type": "node", "id": 9177603831, "lat": 50.8537508, "lon": 4.3414301, "tags": {"artwork_type": "pinwheel", "tourism": "artwork"}}, {"type": "node", "id": 9177603832, "lat": 50.8538698, "lon": 4.3415404, "tags": {"artwork_type": "pinwheel", "tourism": "artwork"}}, {"type": "node", "id": 9177603833, "lat": 50.8538121, "lon": 4.3414863, "tags": {"artwork_type": "pinwheel", "tourism": "artwork"}}, {"type": "node", "id": 9177603834, "lat": 50.8539323, "lon": 4.341599, "tags": {"artwork_type": "pinwheel", "tourism": "artwork"}}, {"type": "node", "id": 9177603835, "lat": 50.8540679, "lon": 4.3417263, "tags": {"artwork_type": "pinwheel", "tourism": "artwork"}}, {"type": "node", "id": 9177603836, "lat": 50.8540064, "lon": 4.3416697, "tags": {"artwork_type": "pinwheel", "tourism": "artwork"}}, {"type": "node", "id": 9177603837, "lat": 50.854135, "lon": 4.3417932, "tags": {"artwork_type": "pinwheel", "tourism": "artwork"}}, {"type": "node", "id": 9177603838, "lat": 50.8542702, "lon": 4.3419238, "tags": {"artwork_type": "pinwheel", "tourism": "artwork"}}, {"type": "node", "id": 9177603839, "lat": 50.8543321, "lon": 4.3419809, "tags": {"artwork_type": "pinwheel", "tourism": "artwork"}}, {"type": "node", "id": 9177603840, "lat": 50.854392, "lon": 4.3420392, "tags": {"artwork_type": "pinwheel", "tourism": "artwork"}}, {"type": "node", "id": 9177603841, "lat": 50.8544536, "lon": 4.3420965, "tags": {"artwork_type": "pinwheel", "tourism": "artwork"}}, {"type": "node", "id": 9177603842, "lat": 50.854535, "lon": 4.3421755, "tags": {"artwork_type": "pinwheel", "tourism": "artwork"}}, {"type": "node", "id": 9177603843, "lat": 50.8546577, "lon": 4.3422909, "tags": {"artwork_type": "pinwheel", "tourism": "artwork"}}, {"type": "node", "id": 9177603844, "lat": 50.8547773, "lon": 4.3424032, "tags": {"artwork_type": "pinwheel", "tourism": "artwork"}}, {"type": "node", "id": 9177603845, "lat": 50.854837, "lon": 4.3424613, "tags": {"artwork_type": "pinwheel", "tourism": "artwork"}}, {"type": "node", "id": 9177603846, "lat": 50.8547194, "lon": 4.3423482, "tags": {"artwork_type": "pinwheel", "tourism": "artwork"}}, {"type": "node", "id": 9177603847, "lat": 50.8545974, "lon": 4.3422318, "tags": {"artwork_type": "pinwheel", "tourism": "artwork"}}, {"type": "node", "id": 9177603848, "lat": 50.8549086, "lon": 4.3425269, "tags": {"artwork_type": "pinwheel", "tourism": "artwork"}}, {"type": "node", "id": 9177603849, "lat": 50.8549879, "lon": 4.3426035, "tags": {"artwork_type": "pinwheel", "tourism": "artwork"}}, {"type": "node", "id": 9177603850, "lat": 50.8550519, "lon": 4.3426644, "tags": {"artwork_type": "pinwheel", "tourism": "artwork"}}, {"type": "node", "id": 9177603851, "lat": 50.8551166, "lon": 4.3427258, "tags": {"artwork_type": "pinwheel", "tourism": "artwork"}}, {"type": "node", "id": 9177603852, "lat": 50.8556158, "lon": 4.3432044, "tags": {"artwork_type": "pinwheel", "tourism": "artwork"}}, {"type": "node", "id": 9177603853, "lat": 50.8555004, "lon": 4.3430941, "tags": {"artwork_type": "pinwheel", "tourism": "artwork"}}, {"type": "node", "id": 9177603854, "lat": 50.8555619, "lon": 4.3431487, "tags": {"artwork_type": "pinwheel", "tourism": "artwork"}}, {"type": "node", "id": 9177603855, "lat": 50.8557, "lon": 4.3432802, "tags": {"artwork_type": "pinwheel", "tourism": "artwork"}}, {"type": "node", "id": 9177603856, "lat": 50.8557805, "lon": 4.3433586, "tags": {"artwork_type": "pinwheel", "tourism": "artwork"}}, {"type": "node", "id": 9177603857, "lat": 50.8557311, "lon": 4.3433094, "tags": {"artwork_type": "pinwheel", "tourism": "artwork"}}, {"type": "node", "id": 9177603858, "lat": 50.8558327, "lon": 4.3434061, "tags": {"artwork_type": "pinwheel", "tourism": "artwork"}}, {"type": "node", "id": 9177603859, "lat": 50.8559059, "lon": 4.343476, "tags": {"artwork_type": "pinwheel", "tourism": "artwork"}}, {"type": "node", "id": 9177603860, "lat": 50.8559755, "lon": 4.343544, "tags": {"artwork_type": "pinwheel", "tourism": "artwork"}}, {"type": "node", "id": 9177603861, "lat": 50.8560561, "lon": 4.3436198, "tags": {"artwork_type": "pinwheel", "tourism": "artwork"}}, {"type": "node", "id": 9177603862, "lat": 50.8561323, "lon": 4.3436935, "tags": {"artwork_type": "pinwheel", "tourism": "artwork"}}, {"type": "node", "id": 9177603863, "lat": 50.8562008, "lon": 4.3437597, "tags": {"artwork_type": "pinwheel", "tourism": "artwork"}}, {"type": "node", "id": 9177603864, "lat": 50.856277, "lon": 4.343831, "tags": {"artwork_type": "pinwheel", "tourism": "artwork"}}, {"type": "node", "id": 9177603865, "lat": 50.8563525, "lon": 4.3439028, "tags": {"artwork_type": "pinwheel", "tourism": "artwork"}}, {"type": "node", "id": 9177603866, "lat": 50.8564289, "lon": 4.3439767, "tags": {"artwork_type": "pinwheel", "tourism": "artwork"}}, {"type": "node", "id": 9177603867, "lat": 50.8565056, "lon": 4.3440489, "tags": {"artwork_type": "pinwheel", "tourism": "artwork"}}, {"type": "node", "id": 9177603868, "lat": 50.8565716, "lon": 4.3441093, "tags": {"artwork_type": "pinwheel", "tourism": "artwork"}}, {"type": "node", "id": 9177603869, "lat": 50.8566471, "lon": 4.3441829, "tags": {"artwork_type": "pinwheel", "tourism": "artwork"}}, {"type": "node", "id": 9177603870, "lat": 50.8567235, "lon": 4.3442547, "tags": {"artwork_type": "pinwheel", "tourism": "artwork"}}, {"type": "node", "id": 9177603871, "lat": 50.8567974, "lon": 4.3443258, "tags": {"artwork_type": "pinwheel", "tourism": "artwork"}}, {"type": "node", "id": 9177603872, "lat": 50.8568737, "lon": 4.344398, "tags": {"artwork_type": "pinwheel", "tourism": "artwork"}}, {"type": "node", "id": 9177603873, "lat": 50.8569573, "lon": 4.3444763, "tags": {"artwork_type": "pinwheel", "tourism": "artwork"}}, {"type": "node", "id": 9177603874, "lat": 50.8570319, "lon": 4.3445483, "tags": {"artwork_type": "pinwheel", "tourism": "artwork"}}, {"type": "node", "id": 9177603875, "lat": 50.8571162, "lon": 4.3446282, "tags": {"artwork_type": "pinwheel", "tourism": "artwork"}}, {"type": "node", "id": 9177603876, "lat": 50.857182, "lon": 4.3446916, "tags": {"artwork_type": "pinwheel", "tourism": "artwork"}}, {"type": "node", "id": 9177603877, "lat": 50.8572591, "lon": 4.3447652, "tags": {"artwork_type": "pinwheel", "tourism": "artwork"}}, {"type": "node", "id": 9177603878, "lat": 50.8573424, "lon": 4.3448451, "tags": {"artwork_type": "pinwheel", "tourism": "artwork"}}, {"type": "node", "id": 9177603879, "lat": 50.8574336, "lon": 4.3449303, "tags": {"artwork_type": "pinwheel", "tourism": "artwork"}}, {"type": "node", "id": 9177603880, "lat": 50.8575245, "lon": 4.3450169, "tags": {"artwork_type": "pinwheel", "tourism": "artwork"}}, {"type": "node", "id": 9177603881, "lat": 50.8576151, "lon": 4.3451033, "tags": {"artwork_type": "pinwheel", "tourism": "artwork"}}, {"type": "node", "id": 9177603882, "lat": 50.8576902, "lon": 4.3451739, "tags": {"artwork_type": "pinwheel", "tourism": "artwork"}}, {"type": "node", "id": 9177603883, "lat": 50.8578848, "lon": 4.3453588, "tags": {"artwork_type": "pinwheel", "tourism": "artwork"}}, {"type": "node", "id": 9177603884, "lat": 50.85779, "lon": 4.3452681, "tags": {"artwork_type": "pinwheel", "tourism": "artwork"}}, {"type": "node", "id": 9177603885, "lat": 50.8579775, "lon": 4.3454463, "tags": {"artwork_type": "pinwheel", "tourism": "artwork"}}, {"type": "node", "id": 9177603886, "lat": 50.8580698, "lon": 4.3455347, "tags": {"artwork_type": "pinwheel", "tourism": "artwork"}}, {"type": "node", "id": 9177603887, "lat": 50.858161, "lon": 4.3456204, "tags": {"artwork_type": "pinwheel", "tourism": "artwork"}}, {"type": "node", "id": 9177603888, "lat": 50.8582535, "lon": 4.3457082, "tags": {"artwork_type": "pinwheel", "tourism": "artwork"}}, {"type": "node", "id": 9214351990, "lat": 50.8506236, "lon": 4.3194417, "tags": {"artwork_type": "bust", "inscription": "Oost West - De Dageraad", "material": "stone", "name": "L'Aube - De Dageraad", "name:fr": "L'Aube", "name:nl": "De Dageraad", "tourism": "artwork"}}, {"type": "node", "id": 9290819464, "lat": 50.8574115, "lon": 4.3438548, "tags": {"artwork_type": "sculpture", "tourism": "artwork"}}, {"type": "node", "id": 9307381191, "lat": 50.8510112, "lon": 4.3379576}, {"type": "node", "id": 9307381192, "lat": 50.8509987, "lon": 4.3379224}, {"type": "node", "id": 9307381193, "lat": 50.8508711, "lon": 4.3378669}, {"type": "node", "id": 9307381194, "lat": 50.8509543, "lon": 4.3377974}, {"type": "node", "id": 9307381195, "lat": 50.8509086, "lon": 4.338005}, {"type": "node", "id": 9307381203, "lat": 50.8509609, "lon": 4.3378149}, {"type": "node", "id": 9325766899, "lat": 50.8540818, "lon": 4.3421899, "tags": {"artwork_type": "sculpture", "tourism": "artwork"}}, {"type": "node", "id": 9325766900, "lat": 50.8542496, "lon": 4.3418275, "tags": {"artwork_type": "sculpture", "tourism": "artwork"}}, {"type": "node", "id": 9325766901, "lat": 50.8542225, "lon": 4.3419602, "tags": {"artwork_type": "sculpture", "tourism": "artwork"}}, {"type": "node", "id": 9325766902, "lat": 50.8541625, "lon": 4.3421187, "tags": {"artwork_type": "sculpture", "tourism": "artwork"}}, {"type": "node", "id": 9414833326, "lat": 50.8674703, "lon": 4.335435}, {"type": "node", "id": 9544976270, "lat": 50.8574458, "lon": 4.3437637}, {"type": "node", "id": 9544976271, "lat": 50.8575309, "lon": 4.3438538}, {"type": "node", "id": 9544976272, "lat": 50.8576968, "lon": 4.3436878}, {"type": "node", "id": 9544976273, "lat": 50.8576658, "lon": 4.3437188}, {"type": "node", "id": 9544976274, "lat": 50.8576132, "lon": 4.3435929}, {"type": "node", "id": 9577413430, "lat": 50.8480157, "lon": 4.3372166, "tags": {"artist_name": "Amandine Levy", "artwork_type": "mural", "name": "Yvonne Reynders", "start_date": "2019-07", "tourism": "artwork", "website": "https://www.bruxelles.be/sites/default/files/bxl/CP_Tour_de_France.pdf"}}, {"type": "node", "id": 9688686643, "lat": 50.8530748, "lon": 4.3351513}, {"type": "node", "id": 9688686645, "lat": 50.8522445, "lon": 4.3354214}, {"type": "node", "id": 9688686654, "lat": 50.8529534, "lon": 4.3353728}, {"type": "node", "id": 9749905074, "lat": 50.8611989, "lon": 4.3420543, "tags": {"artist_name": "Orlando Kintero", "artwork_type": "mural", "tourism": "artwork"}}, {"type": "node", "id": 9870698706, "lat": 50.8624083, "lon": 4.3293549, "tags": {"artwork_type": "bust", "panoramax": "4298481e-0625-4fc9-9f80-405569d41821", "tourism": "artwork"}}, {"type": "node", "id": 9885776733, "lat": 50.8540412, "lon": 4.3388355, "tags": {"artwork_type": "mural", "panoramax": "b01c6808-25f9-43aa-80f8-a93ca62df890", "tourism": "artwork"}}, {"type": "node", "id": 9885776734, "lat": 50.8525364, "lon": 4.3367176, "tags": {"artist_name": "Yvette", "artwork_type": "mural", "tourism": "artwork"}}, {"type": "node", "id": 9886067238, "lat": 50.8528821, "lon": 4.3344279, "tags": {"automatic_door": "button", "door": "sliding", "entrance": "yes"}}, {"type": "node", "id": 9968757838, "lat": 50.8555054, "lon": 4.3213715, "tags": {"artwork_type": "bust", "material": "bronze", "name": "Jules Delhaize", "subject:wikidata": "Q3188521", "tourism": "artwork"}}, {"type": "node", "id": 9995542128, "lat": 50.8532235, "lon": 4.3228554, "tags": {"artist:wikidata": "Q21396110", "artist_name": "Guy Vandenbranden", "artwork_type": "mosaic", "name": "Compositie", "tourism": "artwork"}}, {"type": "node", "id": 10032442325, "lat": 50.8630347, "lon": 4.3311637}, {"type": "node", "id": 10032442326, "lat": 50.8630312, "lon": 4.3311628}, {"type": "node", "id": 10032442327, "lat": 50.8630276, "lon": 4.331162}, {"type": "node", "id": 10032442328, "lat": 50.8630239, "lon": 4.3311634}, {"type": "node", "id": 10032442329, "lat": 50.8630205, "lon": 4.3311654}, {"type": "node", "id": 10032442330, "lat": 50.863017, "lon": 4.3311703}, {"type": "node", "id": 10032442331, "lat": 50.8630153, "lon": 4.331176}, {"type": "node", "id": 10032442332, "lat": 50.8630148, "lon": 4.3311819}, {"type": "node", "id": 10032442333, "lat": 50.8630149, "lon": 4.3311876}, {"type": "node", "id": 10032442334, "lat": 50.8630163, "lon": 4.3311935}, {"type": "node", "id": 10032442335, "lat": 50.8630177, "lon": 4.3311969}, {"type": "node", "id": 10032442336, "lat": 50.8630204, "lon": 4.3312011}, {"type": "node", "id": 10032442337, "lat": 50.8630234, "lon": 4.3312053}, {"type": "node", "id": 10032442338, "lat": 50.8630242, "lon": 4.3312106}, {"type": "node", "id": 10032442339, "lat": 50.8630235, "lon": 4.3312165}, {"type": "node", "id": 10032442340, "lat": 50.8630215, "lon": 4.3312216}, {"type": "node", "id": 10032442341, "lat": 50.8630185, "lon": 4.331225}, {"type": "node", "id": 10032442342, "lat": 50.863014, "lon": 4.3312262}, {"type": "node", "id": 10082665615, "lat": 50.8602246, "lon": 4.342435}, {"type": "node", "id": 10311949025, "lat": 50.8477123, "lon": 4.3287425, "tags": {"artwork_type": "sculpture", "material": "metal", "tourism": "artwork"}}, {"type": "node", "id": 10562009262, "lat": 50.8504346, "lon": 4.3351116, "tags": {"artwork_type": "mural", "panoramax": "1fdda07b-eadc-4a36-bbf7-787c1aeb4a62", "tourism": "artwork"}}, {"type": "node", "id": 10712997062, "lat": 50.8578933, "lon": 4.2963665, "tags": {"direction": "90", "panoramax": "https://panoramax.mapcomplete.org/api/pictures/4b4b6221-696d-4c80-abb8-eefb676aa1fc/hd.jpg", "tourism": "viewpoint"}}, {"type": "node", "id": 10805533245, "lat": 50.8574897, "lon": 4.3438102, "tags": {"entrance": "yes"}}, {"type": "node", "id": 10926842240, "lat": 50.84792, "lon": 4.3223233, "tags": {"artwork_type": "mural", "name": "Gevriye Cavas", "tourism": "artwork"}}, {"type": "node", "id": 11003301526, "lat": 50.8585419, "lon": 4.3457786, "tags": {"artwork_type": "statue", "tourism": "artwork"}}, {"type": "node", "id": 11178612235, "lat": 50.8569171, "lon": 4.3379091, "tags": {"amenity": "bench", "artist:wikidata": "Q111817514", "artist_name": "Mehdi-Georges Lahlou", "artwork_type": "sculpture", "material": "metal", "name": "Into the Palm, the Birds...", "start_date": "2023-09-09", "tourism": "artwork", "wikidata": "Q122363674"}}, {"type": "node", "id": 11343728773, "lat": 50.8585341, "lon": 4.3391853, "tags": {"artwork_type": "mural", "name": "Libris", "tourism": "artwork"}}, {"type": "node", "id": 11380323820, "lat": 50.857637, "lon": 4.3435686}, {"type": "node", "id": 11548784064, "lat": 50.8465222, "lon": 4.2987974}, {"type": "node", "id": 11548784065, "lat": 50.8465139, "lon": 4.2987792}, {"type": "node", "id": 11548784066, "lat": 50.846502, "lon": 4.2987669}, {"type": "node", "id": 11548784067, "lat": 50.8464881, "lon": 4.2987623}, {"type": "node", "id": 11548784068, "lat": 50.8464741, "lon": 4.2987659}, {"type": "node", "id": 11548828269, "lat": 50.8464618, "lon": 4.2987773}, {"type": "node", "id": 11548828270, "lat": 50.846453, "lon": 4.298795}, {"type": "node", "id": 11548828271, "lat": 50.8464488, "lon": 4.2988164}, {"type": "node", "id": 11548828272, "lat": 50.8464498, "lon": 4.2988389}, {"type": "node", "id": 11548828273, "lat": 50.8464558, "lon": 4.2988592}, {"type": "node", "id": 11548828274, "lat": 50.8464661, "lon": 4.2988748}, {"type": "node", "id": 11548828275, "lat": 50.8464792, "lon": 4.2988834}, {"type": "node", "id": 11548828276, "lat": 50.8464934, "lon": 4.2988839}, {"type": "node", "id": 11548828277, "lat": 50.8465068, "lon": 4.2988762}, {"type": "node", "id": 11548828278, "lat": 50.8465175, "lon": 4.2988614}, {"type": "node", "id": 11548828279, "lat": 50.8465241, "lon": 4.2988415}, {"type": "node", "id": 11548828280, "lat": 50.8465257, "lon": 4.2988192}, {"type": "node", "id": 11770041203, "lat": 50.8579912, "lon": 4.3458961, "tags": {"amenity": "waste_basket", "artist_name": "LGH Henry", "artwork_type": "statue", "material": "weathering_steel", "name": "Henry", "start_date": "2022-11", "subject:wikidata": "Q25440", "tourism": "artwork", "waste": "trash", "wikidata": "Q125198965"}}, {"type": "node", "id": 11844153324, "lat": 50.8517919, "lon": 4.3207659, "tags": {"artwork_type": "statue", "material": "stone", "tourism": "artwork"}}, {"type": "node", "id": 11844153325, "lat": 50.8517312, "lon": 4.3207693, "tags": {"artwork_type": "statue", "material": "stone", "tourism": "artwork"}}, {"type": "node", "id": 12002445904, "lat": 50.8540037, "lon": 4.2947798, "tags": {"board_type": "nature", "information": "board", "tourism": "information"}}, {"type": "node", "id": 12075417667, "lat": 50.8521716, "lon": 4.3343037, "tags": {"artwork_type": "sculpture", "tourism": "artwork"}}, {"type": "node", "id": 12075434992, "lat": 50.8517727, "lon": 4.3338511, "tags": {"artwork_type": "sculpture", "tourism": "artwork"}}, {"type": "node", "id": 12198011785, "lat": 50.8514244, "lon": 4.3384211, "tags": {"alt_name": "Meininger Hotel Brussels City Center", "check_date:internet_access": "2024-02-03", "contact:phone": "+32 2 588 14 74", "contact:website": "https://www.meininger-hotels.com/", "description": "This hostel is part of the Meininger Hotel", "internet_access": "wlan", "internet_access:fee": "no", "name": "Meininger Hotel Bruxelles City Center", "rooms": "150", "smoking": "no", "stars": "3", "toilets:wheelchair": "yes", "tourism": "hostel", "wheelchair": "yes"}}, {"type": "node", "id": 12287405671, "lat": 50.8554431, "lon": 4.3211527, "tags": {"artwork_type": "bust", "tourism": "artwork"}}, {"type": "node", "id": 12312175599, "lat": 50.8510488, "lon": 4.3383054, "tags": {"artist:wikidata": "Q1671666", "artist_name": "Invader", "artwork_type": "mosaic", "ref": "BXL_42", "support": "wall", "tourism": "artwork"}}, {"type": "way", "id": 41696903, "nodes": [2538781306, 513049183, 9886067238, 513049178, 2538781321, 513049180, 513049181, 513049182, 2538781286, 2538781306], "tags": {"addr:country": "BE", "addr:housenumber": "4", "addr:postcode": "1080", "addr:street": "Rue de l'\u00c9l\u00e9phant - Olifantstraat", "building": "hotel", "check_date:internet_access": "2023-07-20", "internet_access": "wlan", "name": "Auberge de Jeunesse G\u00e9n\u00e9ration Europe", "name:de": "Jugendherberge G\u00e9n\u00e9ration Europe", "name:nl": "Jeugdherberg G\u00e9n\u00e9ration Europe", "operator": "LAJ", "phone": "+32 2 410 38 58", "ref:UrbIS": "6119263", "toilets:wheelchair": "yes", "tourism": "hostel", "website": "https://www.lesaubergesdejeunesse.be/bruxelles-generation-europe", "wheelchair": "yes"}}, {"type": "way", "id": 165711537, "nodes": [2509238091, 2509238114, 2509238133, 2509238125, 2509238149, 2509238140, 10082665615, 2509238073, 2509238091], "tags": {"addr:housenumber": "63", "addr:street": "Boulevard L\u00e9opold II - Leopold II-laan", "building": "yes", "description": "Aparthotel", "name": "Sun Rise Apparthotel", "phone": "+32 2 425 26 00", "ref:UrbIS": "8101169", "tourism": "apartment", "website": "http://www.sunriseaparthotel.be"}}, {"type": "way", "id": 420362268, "nodes": [2539513998, 9307381194, 9307381203, 9307381192, 9307381191, 2539514014, 12312175599, 2539514006, 2539514002, 9307381195, 9307381193, 2539513997, 2539513998], "tags": {"building": "yes", "contact:website": "https://www.mimamuseum.eu", "museum": "art", "name": "Millennium Iconoclast Museum of Art", "opening_hours": "We-Fr 10:00-18:00; Sa, Su 11:00-19:00", "ref:UrbIS": "8152360", "short_name": "MIMA", "source:geometry:ref": "Urbis/153730799", "source:geometry:version": "5", "tourism": "museum", "wikidata": "Q28151371", "wikimedia_commons": "Category:Millennium Iconoclast Museum of Art", "wikipedia": "nl:Millennium Iconoclast Museum of Art"}}, {"type": "way", "id": 966435315, "nodes": [8941240661, 8941240662, 8941240663, 8941240664, 8941240661], "tags": {"tourism": "picnic_site"}}, {"type": "way", "id": 975823153, "nodes": [9414833326, 9029953197, 9029953198, 9029953199, 9414833326], "tags": {"area": "yes", "artist:wikidata": "Q21396103", "artist_name": "Camiel Van Breedam", "artwork_type": "sculpture", "start_date": "1987", "tourism": "artwork"}}, {"type": "way", "id": 993038885, "nodes": [9174355185, 9174355182, 9174355183, 9174355184, 9174355185], "tags": {"area": "yes", "artwork_type": "installation", "name": "Open Cube", "ref:urbanbrussels": "64701", "start_date": "2016", "tourism": "artwork"}}, {"type": "way", "id": 1035986134, "nodes": [2521924075, 2521924068, 11380323820, 9544976274, 2521924052, 9544976270, 10805533245, 9544976271, 9544976273, 9544976272, 2521924085, 2521924075], "tags": {"contact:email": "museum@foyer.be", "contact:facebook": "MigratieMuseumMigration", "contact:instagram": "migratie_museum_migration", "contact:phone": "+32 2 609 55 61", "contact:website": "https://mmm.brussels/", "ehl:inscription_date": "2021", "heritage": "1", "heritage:operator": "ehl", "museum": "history", "name": "MigratieMuseumMigration", "opening_hours": "Tu-Th 10:00-17:00; Fr 10:00-19:00; Sa,Su 12:00-17:00", "operator:type": "private_non_profit", "ref:vatin": "BE0759880083", "short_name": "MMM", "start_date": "2019-10-12", "tourism": "museum", "wheelchair": "yes", "wikidata": "Q84737703"}}, {"type": "way", "id": 1035988485, "nodes": [2521923963, 2521923957, 2521923955, 2521923950, 2521923936, 2521923933, 2521923939, 2521923940, 3697275662, 2521923953, 2521923969, 2521923996, 2521923997, 2521924025, 2521923993, 2521923987, 2521923963], "tags": {"addr:street": "Rue des Ateliers - Werkhuizenstraat", "amenity": "community_centre", "community_centre": "youth_centre", "contact:email": "brussel@jes.be", "contact:phone": "+32 2 411 68 83", "contact:website": "https://jesbrussels.be/over-jes-brussels/de-distillerie/", "group_only": "yes", "name": "JES \u2014 De Distillerie", "tourism": "hostel"}}, {"type": "way", "id": 1054279810, "nodes": [2538839013, 2538839131, 9688686654, 2538839165, 9688686643, 8973915097, 2538781303, 2538781289, 8973915053, 416562417, 2538862743, 2538862742, 2538862740, 2538862736, 2538838842, 2538838857, 9688686645, 2538838905, 2538838906, 2538838919, 2538838937, 2538838928, 2538838912, 2538838890, 2538838932, 2538838954, 8973915094, 2538838982, 2538839013], "tags": {"addr:housenumber": "27", "addr:street": "Rue Ransfort - Ransfortstraat", "contact:email": "info@lafonderie.be", "contact:facebook": "LaFonderieBXL", "contact:phone": "+32 2 410 10 80", "contact:website": "https://www.lafonderie.be/", "fee": "yes", "museum": "history", "name": "La Fonderie", "opening_hours": "Tu-Su 10:00-17:00", "operator:type": "private_non_profit", "ref:vatin": "BE0425593042", "short_name": "La Fonderie", "start_date": "1983-05-17", "tourism": "museum", "wheelchair": "limited", "wikidata": "Q20706201", "wikimedia_commons": "Category:La Fonderie, Brussels Museum of Industry and Labour", "wikipedia": "en:La Fonderie, Brussels Museum of Industry and Labour"}}, {"type": "way", "id": 1095493956, "nodes": [10032442325, 10032442326, 10032442327, 10032442328, 10032442329, 10032442330, 10032442331, 10032442332, 10032442333, 10032442334, 10032442335, 10032442336, 10032442337, 10032442338, 10032442339, 10032442340, 10032442341, 10032442342], "tags": {"artist:wikidata": "Q111574774", "artist_name": "Annie Jungers", "artwork_type": "installation", "tourism": "artwork"}}, {"type": "way", "id": 1242707887, "nodes": [11548828280, 11548828279, 11548828278, 11548828277, 11548828276, 11548828275, 11548828274, 11548828273, 11548828272, 11548828271, 11548828270, 11548828269, 11548784068, 11548784067, 11548784066, 11548784065, 11548784064, 11548828280], "tags": {"amenity": "fountain", "artist_name": "Marie-Jos\u00e9 Aerts", "mapillary": "587610796668454", "name": "Les trois Dauphins - De drie Dolfijnen", "name:fr": "Les trois Dauphins", "name:nl": "De drie Dolfijnen", "ref:urbanbrussels": "46192", "start_date": "1995", "tourism": "artwork"}}]}