{"version": 0.6, "generator": "Overpass API 0.7.62.1 084b4234", "osm3s": {"timestamp_osm_base": "2024-11-20T01:03:27Z", "copyright": "The data included in this document is from www.openstreetmap.org. The data is made available under ODbL."}, "elements": [{"type": "node", "id": 3807024198, "lat": 16.5309838, "lon": -88.4186}, {"type": "node", "id": 3807024199, "lat": 16.5308817, "lon": -88.4185675}, {"type": "node", "id": 3807024200, "lat": 16.5308535, "lon": -88.418664}, {"type": "node", "id": 3807024201, "lat": 16.5309556, "lon": -88.4186965}, {"type": "node", "id": 4984933422, "lat": 16.5351896, "lon": -88.4166151, "tags": {"addr:street": "Gran Nain Street", "name": "Ursula's Guest House", "tourism": "guest_house"}}, {"type": "node", "id": 5366985124, "lat": 16.4791513, "lon": -88.4019154, "tags": {"internet_access": "wlan", "name": "Luxury Beach Villas", "operator": "Norwegian Cruiseline", "tourism": "chalet", "website": "https://www.ncl.com/"}}, {"type": "node", "id": 5366994421, "lat": 16.4783913, "lon": -88.4036382}, {"type": "node", "id": 5366994422, "lat": 16.478313, "lon": -88.403214, "tags": {"name": "Harvest Caye Beach", "tourism": "attraction", "website": "https://www.ncl.com/"}}, {"type": "node", "id": 6256224787, "lat": 16.6189336, "lon": -88.5542774, "tags": {"name": "Scarlet Macaw Bed & Breakfast", "tourism": "guest_house"}}, {"type": "node", "id": 6658446286, "lat": 16.534486, "lon": -88.4258201, "tags": {"name": "Golden Garden Hotel", "name:es": "Hotel Golden Garden", "phone": "+501-523-2801;+501-605-1250", "tourism": "hotel"}}, {"type": "node", "id": 7473965070, "lat": 16.5328173, "lon": -88.4278805, "tags": {"name": "Pandy's Guest House", "name:es": "Casa de Hu\u00e9spedes de Pandy", "tourism": "guest_house"}}, {"type": "node", "id": 7473965071, "lat": 16.5319166, "lon": -88.4271312, "tags": {"name": "Tai Shan City", "tourism": "motel"}}, {"type": "node", "id": 7594009231, "lat": 16.5710653, "lon": -88.5265053, "tags": {"name": "COWPEN Sign", "tourism": "attraction"}}, {"type": "node", "id": 8011485240, "lat": 16.5067284, "lon": -88.5298751, "tags": {"name": "Bella Guesthouse", "tourism": "guest_house"}}, {"type": "node", "id": 8011537708, "lat": 16.5041373, "lon": -88.527558, "tags": {"name": "Cuarter\u00eda Alba Luz", "name:es": "Cuarter\u00eda Alba Luz", "tourism": "hostel"}}, {"type": "node", "id": 8619330129, "lat": 16.5343959, "lon": -88.4300632}, {"type": "node", "id": 8619330130, "lat": 16.534391, "lon": -88.4299453}, {"type": "node", "id": 8619330131, "lat": 16.5340222, "lon": -88.4299997}, {"type": "node", "id": 8619330132, "lat": 16.5340254, "lon": -88.4300797}, {"type": "node", "id": 8828200171, "lat": 16.4783836, "lon": -88.4036242}, {"type": "node", "id": 8828200172, "lat": 16.4784713, "lon": -88.4035959}, {"type": "node", "id": 8828200173, "lat": 16.4784654, "lon": -88.4035817}, {"type": "node", "id": 8828200174, "lat": 16.478403, "lon": -88.4036487}, {"type": "node", "id": 8828200175, "lat": 16.4784174, "lon": -88.4036546}, {"type": "node", "id": 8828200176, "lat": 16.4784328, "lon": -88.4036552}, {"type": "node", "id": 8828200177, "lat": 16.4784475, "lon": -88.4036504}, {"type": "node", "id": 8828200178, "lat": 16.4784599, "lon": -88.4036408}, {"type": "node", "id": 8828200179, "lat": 16.4784686, "lon": -88.4036275}, {"type": "node", "id": 8828200180, "lat": 16.4784725, "lon": -88.4036119}, {"type": "node", "id": 8828200181, "lat": 16.4784554, "lon": -88.4035702}, {"type": "node", "id": 8828200182, "lat": 16.4784424, "lon": -88.4035626}, {"type": "node", "id": 8828200183, "lat": 16.4784278, "lon": -88.4035598}, {"type": "node", "id": 8828200184, "lat": 16.4784131, "lon": -88.4035619}, {"type": "node", "id": 8828200185, "lat": 16.4783998, "lon": -88.4035688}, {"type": "node", "id": 8828200186, "lat": 16.4783894, "lon": -88.4035798}, {"type": "node", "id": 8828200187, "lat": 16.4783828, "lon": -88.4035937}, {"type": "node", "id": 8828200188, "lat": 16.4783808, "lon": -88.403609}, {"type": "node", "id": 8828200251, "lat": 16.4763714, "lon": -88.4061965, "tags": {"name": "Marina & Tours", "tourism": "attraction"}}, {"type": "node", "id": 8828200256, "lat": 16.4767283, "lon": -88.4057563, "tags": {"name": "Village Stage", "tourism": "attraction"}}, {"type": "node", "id": 8828200383, "lat": 16.4775117, "lon": -88.4051207, "tags": {"name": "Wildlife Experience", "tourism": "attraction"}}, {"type": "node", "id": 8828200495, "lat": 16.4755921, "lon": -88.4059237}, {"type": "node", "id": 8828200496, "lat": 16.475711, "lon": -88.4058892}, {"type": "node", "id": 8828200497, "lat": 16.4756615, "lon": -88.4057032}, {"type": "node", "id": 8828200498, "lat": 16.4755425, "lon": -88.4057377}, {"type": "node", "id": 9155603067, "lat": 16.5342243, "lon": -88.4299907}, {"type": "node", "id": 9155603068, "lat": 16.5342228, "lon": -88.4299528}, {"type": "node", "id": 11509490869, "lat": 16.3627432, "lon": -88.4854463, "tags": {"tourism": "hotel"}}, {"type": "way", "id": 377325789, "nodes": [3807024198, 3807024199, 3807024200, 3807024201, 3807024198], "tags": {"amenity": "restaurant", "amenity_1": "bar", "building": "yes", "name": "Cardie's Hotel, Restaurant, & Bar", "source": "KG Ground Survey 2015", "tourism": "hotel"}}, {"type": "way", "id": 929426118, "nodes": [8619330129, 8619330130, 9155603068, 9155603067, 8619330131, 8619330132, 8619330129], "tags": {"building": "yes", "name": "Dolphin Hotel", "tourism": "hotel"}}, {"type": "way", "id": 953825242, "nodes": [8828200181, 8828200182, 8828200183, 8828200184, 8828200185, 8828200186, 8828200187, 8828200188, 8828200171, 5366994421, 8828200174, 8828200175, 8828200176, 8828200177, 8828200178, 8828200179, 8828200180, 8828200172, 8828200173, 8828200181], "tags": {"building": "yes", "man_made": "lighthouse", "name": "Flighthouse", "tourism": "attraction", "website": "https://www.ncl.com/"}}, {"type": "way", "id": 953825283, "nodes": [8828200495, 8828200496, 8828200497, 8828200498, 8828200495], "tags": {"building": "yes", "information": "office", "tourism": "information"}}]}