{"version": 0.6, "generator": "Overpass API 0.7.62.1 084b4234", "osm3s": {"timestamp_osm_base": "2024-11-20T01:03:27Z", "copyright": "The data included in this document is from www.openstreetmap.org. The data is made available under ODbL."}, "elements": [{"type": "node", "id": 1932949890, "lat": 16.092844, "lon": -88.8083197}, {"type": "node", "id": 1932949953, "lat": 16.0945225, "lon": -88.8327193, "tags": {"name": "Hickatee Cottages", "tourism": "guest_house"}}, {"type": "node", "id": 1933036212, "lat": 16.119197, "lon": -88.8328163, "tags": {"name": "Cerro Hill", "tourism": "viewpoint"}}, {"type": "node", "id": 1979626858, "lat": 16.1661991, "lon": -88.8118834, "tags": {"name": "Copal Tree Lodge", "old_name": "Belcampo Lodge", "tourism": "hotel"}}, {"type": "node", "id": 2001831196, "lat": 16.1004164, "lon": -88.804454}, {"type": "node", "id": 2001831197, "lat": 16.1005497, "lon": -88.8043615}, {"type": "node", "id": 2001831198, "lat": 16.1002455, "lon": -88.8041872}, {"type": "node", "id": 2001831199, "lat": 16.1003789, "lon": -88.8040947}, {"type": "node", "id": 2129985576, "lat": 16.0929093, "lon": -88.8083675}, {"type": "node", "id": 2129985582, "lat": 16.0927087, "lon": -88.8082353}, {"type": "node", "id": 2129985590, "lat": 16.0928806, "lon": -88.8082647}, {"type": "node", "id": 2129985594, "lat": 16.0929463, "lon": -88.8083127}, {"type": "node", "id": 2129985598, "lat": 16.0928499, "lon": -88.8081799}, {"type": "node", "id": 2129985604, "lat": 16.0927523, "lon": -88.8083557}, {"type": "node", "id": 2271833881, "lat": 16.1118368, "lon": -88.8053225}, {"type": "node", "id": 2271833882, "lat": 16.1118945, "lon": -88.8054364}, {"type": "node", "id": 2271833883, "lat": 16.111972, "lon": -88.8052483}, {"type": "node", "id": 2271833884, "lat": 16.1120297, "lon": -88.8053622}, {"type": "node", "id": 2271841894, "lat": 16.1557642, "lon": -88.8898225, "tags": {"name": "Tranquility Lodge", "tourism": "hotel"}}, {"type": "node", "id": 2716339163, "lat": 16.1085747, "lon": -88.8166774, "tags": {"name": "Warasa Garifuna Drum School", "tourism": "attraction"}}, {"type": "node", "id": 2727203107, "lat": 16.2559827, "lon": -88.8865212, "tags": {"name": "Big Falls Extreme Adventures", "phone": "+501 634 6979", "tourism": "attraction", "website": "https://bigfallsextremeadventures.com/"}}, {"type": "node", "id": 2837044920, "lat": 16.2475466, "lon": -88.9005299, "tags": {"name": "Lindo Hill Scenic Outlook", "tourism": "viewpoint"}}, {"type": "node", "id": 3796230485, "lat": 16.1349312, "lon": -88.8189623}, {"type": "node", "id": 3796230486, "lat": 16.1348556, "lon": -88.8189645}, {"type": "node", "id": 3796230487, "lat": 16.1348438, "lon": -88.8185251}, {"type": "node", "id": 3796230488, "lat": 16.1347525, "lon": -88.8185278}, {"type": "node", "id": 3796230489, "lat": 16.1347484, "lon": -88.818375}, {"type": "node", "id": 3796230490, "lat": 16.1349153, "lon": -88.8183702}, {"type": "node", "id": 3796259840, "lat": 16.1000992, "lon": -88.802362}, {"type": "node", "id": 3796259841, "lat": 16.1001034, "lon": -88.8023488}, {"type": "node", "id": 3796259842, "lat": 16.1001031, "lon": -88.8023349}, {"type": "node", "id": 3796259843, "lat": 16.1000404, "lon": -88.8023096}, {"type": "node", "id": 3796259844, "lat": 16.1000315, "lon": -88.8023193}, {"type": "node", "id": 3796259845, "lat": 16.1000261, "lon": -88.8023314}, {"type": "node", "id": 3796259846, "lat": 16.1000246, "lon": -88.8023447}, {"type": "node", "id": 3796259847, "lat": 16.1000985, "lon": -88.8023219}, {"type": "node", "id": 3796259848, "lat": 16.10009, "lon": -88.8023113}, {"type": "node", "id": 3796259849, "lat": 16.1000785, "lon": -88.8023042}, {"type": "node", "id": 3796259850, "lat": 16.1000655, "lon": -88.8023014}, {"type": "node", "id": 3796259851, "lat": 16.1000523, "lon": -88.8023033}, {"type": "node", "id": 3796259852, "lat": 16.1000274, "lon": -88.8023577}, {"type": "node", "id": 3796259853, "lat": 16.1000339, "lon": -88.8023692}, {"type": "node", "id": 3796259854, "lat": 16.1000437, "lon": -88.8023779}, {"type": "node", "id": 3796259855, "lat": 16.1000556, "lon": -88.8023829}, {"type": "node", "id": 3796259856, "lat": 16.1000684, "lon": -88.8023836}, {"type": "node", "id": 3796259857, "lat": 16.1000808, "lon": -88.8023801}, {"type": "node", "id": 3796259858, "lat": 16.1000914, "lon": -88.8023726}, {"type": "node", "id": 3796259877, "lat": 16.1030685, "lon": -88.8019926}, {"type": "node", "id": 3796259878, "lat": 16.1029056, "lon": -88.801681}, {"type": "node", "id": 3796259879, "lat": 16.1029785, "lon": -88.8016396}, {"type": "node", "id": 3796259880, "lat": 16.1029921, "lon": -88.8016656}, {"type": "node", "id": 3796259881, "lat": 16.1030677, "lon": -88.8016228}, {"type": "node", "id": 3796259882, "lat": 16.1031929, "lon": -88.8018622}, {"type": "node", "id": 3796259889, "lat": 16.1022513, "lon": -88.8030728}, {"type": "node", "id": 3796259890, "lat": 16.1021965, "lon": -88.8029811}, {"type": "node", "id": 3796259891, "lat": 16.102326, "lon": -88.8028973}, {"type": "node", "id": 3796259892, "lat": 16.1023807, "lon": -88.802989}, {"type": "node", "id": 3796997210, "lat": 16.1019183, "lon": -88.8025275}, {"type": "node", "id": 3796997213, "lat": 16.1019567, "lon": -88.8022776}, {"type": "node", "id": 3796997215, "lat": 16.1020512, "lon": -88.8024473}, {"type": "node", "id": 3797011430, "lat": 16.1002888, "lon": -88.8040269}, {"type": "node", "id": 3797011431, "lat": 16.1002539, "lon": -88.8039893}, {"type": "node", "id": 3797011432, "lat": 16.1002864, "lon": -88.8039566}, {"type": "node", "id": 3797011433, "lat": 16.1003213, "lon": -88.8039943}, {"type": "node", "id": 3797011434, "lat": 16.1002155, "lon": -88.8040751, "tags": {"name": "Flames of Independence", "tourism": "attraction", "tourism_1": "artwork"}}, {"type": "node", "id": 3797176010, "lat": 16.0962649, "lon": -88.8060605}, {"type": "node", "id": 3797176011, "lat": 16.0961974, "lon": -88.8059564}, {"type": "node", "id": 3797176012, "lat": 16.0963362, "lon": -88.8058589}, {"type": "node", "id": 3797176013, "lat": 16.0964036, "lon": -88.805963}, {"type": "node", "id": 3797176016, "lat": 16.0938641, "lon": -88.8075116}, {"type": "node", "id": 3797176017, "lat": 16.0937903, "lon": -88.8073213}, {"type": "node", "id": 3797176018, "lat": 16.0938934, "lon": -88.807278}, {"type": "node", "id": 3797176019, "lat": 16.0939672, "lon": -88.8074683}, {"type": "node", "id": 3797199612, "lat": 16.1002312, "lon": -88.8044037}, {"type": "node", "id": 3797199613, "lat": 16.1001412, "lon": -88.8042617}, {"type": "node", "id": 3797199614, "lat": 16.1002406, "lon": -88.8041934}, {"type": "node", "id": 3797199615, "lat": 16.1003306, "lon": -88.8043354}, {"type": "node", "id": 3797252772, "lat": 16.1000451, "lon": -88.8102772}, {"type": "node", "id": 3797252773, "lat": 16.099975, "lon": -88.8101653}, {"type": "node", "id": 3797252774, "lat": 16.1000368, "lon": -88.8101233}, {"type": "node", "id": 3797252775, "lat": 16.1001069, "lon": -88.8102352}, {"type": "node", "id": 3797269010, "lat": 16.1057256, "lon": -88.8006722}, {"type": "node", "id": 3797269011, "lat": 16.1056001, "lon": -88.8006538}, {"type": "node", "id": 3797269013, "lat": 16.1057532, "lon": -88.8004678}, {"type": "node", "id": 3797269015, "lat": 16.1112983, "lon": -88.7991005}, {"type": "node", "id": 3797269016, "lat": 16.111157, "lon": -88.7990957}, {"type": "node", "id": 3797269017, "lat": 16.1111643, "lon": -88.798861}, {"type": "node", "id": 3797269018, "lat": 16.1113056, "lon": -88.7988658}, {"type": "node", "id": 3797348138, "lat": 16.1004817, "lon": -88.8024571}, {"type": "node", "id": 3797348139, "lat": 16.1003782, "lon": -88.8023006}, {"type": "node", "id": 3797348140, "lat": 16.1004802, "lon": -88.8022275}, {"type": "node", "id": 3797348141, "lat": 16.1005837, "lon": -88.802384}, {"type": "node", "id": 3797348142, "lat": 16.1001791, "lon": -88.8025001}, {"type": "node", "id": 3797348143, "lat": 16.1002476, "lon": -88.8024233}, {"type": "node", "id": 3797348144, "lat": 16.1003692, "lon": -88.8025919}, {"type": "node", "id": 3797348145, "lat": 16.1002666, "lon": -88.802672}, {"type": "node", "id": 3797348146, "lat": 16.1001558, "lon": -88.8025183}, {"type": "node", "id": 3797348147, "lat": 16.1001683, "lon": -88.8024852}, {"type": "node", "id": 3797485366, "lat": 16.1017566, "lon": -88.8080818}, {"type": "node", "id": 3797485367, "lat": 16.101731, "lon": -88.8080533}, {"type": "node", "id": 3797485368, "lat": 16.1017533, "lon": -88.8080316}, {"type": "node", "id": 3797485369, "lat": 16.1017789, "lon": -88.8080601}, {"type": "node", "id": 3797485378, "lat": 16.1005151, "lon": -88.8066664}, {"type": "node", "id": 3797485379, "lat": 16.1004641, "lon": -88.8067001}, {"type": "node", "id": 3797485380, "lat": 16.1004245, "lon": -88.8066352}, {"type": "node", "id": 3797485381, "lat": 16.1004755, "lon": -88.8066015}, {"type": "node", "id": 4858673723, "lat": 16.0911325, "lon": -88.8104021, "tags": {"addr:housenumber": "12", "addr:street": "Pelican Street", "internet_access": "wlan", "name": "A Piece of Ground", "phone": "+501-665-2695", "tourism": "guest_house", "website": "https://www.apieceofground.com/"}}, {"type": "node", "id": 5409735121, "lat": 16.100838, "lon": -88.8021847, "tags": {"addr:street": "Front Street", "name": "Memo's boat service to Livingston and Puerto barrios", "tourism": "information"}}, {"type": "node", "id": 5421194221, "lat": 16.1017053, "lon": -88.8039343, "tags": {"name": "Tate\u2019s Guest House", "tourism": "guest_house"}}, {"type": "node", "id": 6711164299, "lat": 16.1144809, "lon": -88.7991913, "tags": {"information": "office", "name": "TIDE Tours Office (NGO)", "tourism": "information"}}, {"type": "node", "id": 8624032967, "lat": 16.1056277, "lon": -88.8004494}, {"type": "node", "id": 8631535450, "lat": 16.1018238, "lon": -88.8023579}, {"type": "node", "id": 9531719917, "lat": 16.097797, "lon": -88.8068799, "tags": {"name": "Grandma\u2019s House", "tourism": "guest_house"}}, {"type": "node", "id": 9883382303, "lat": 16.0723553, "lon": -88.8998269, "tags": {"name": "Fideicomiso de Conservaci\u00f3n y Granja Ixchel Ha", "name:es": "Fideicomiso de Conservaci\u00f3n y Granja Ixchel Ha", "tourism": "attraction"}}, {"type": "node", "id": 10704763907, "lat": 16.2788045, "lon": -88.8776272, "tags": {"name": "7 miles to Lubaantun", "tourism": "information"}}, {"type": "node", "id": 11367444782, "lat": 16.1031182, "lon": -88.8019045}, {"type": "node", "id": 11367444783, "lat": 16.1031424, "lon": -88.8019507}, {"type": "way", "id": 189596407, "nodes": [2001831196, 2001831198, 2001831199, 2001831197, 2001831196], "tags": {"addr:city": "Punta Gorda", "addr:street": "Main Middle Street", "building": "yes", "name": "The Inn at Joyful Garden", "tourism": "hotel"}}, {"type": "way", "id": 203034628, "nodes": [2129985594, 2129985576, 1932949890, 2129985604, 2129985582, 2129985598, 2129985590, 2129985594], "tags": {"addr:city": "Punta Gorda", "addr:street": "Main Street", "name": "Coral House Inn", "name:es": "Posada Coral House", "source": "KG Ground Survey 2015", "tourism": "guest_house"}}, {"type": "way", "id": 217874884, "nodes": [2271833883, 2271833881, 2271833882, 2271833884, 2271833883], "tags": {"building": "yes", "name": "Maroon Creole Drum School", "tourism": "attraction"}}, {"type": "way", "id": 376166182, "nodes": [3796230485, 3796230486, 3796230487, 3796230488, 3796230489, 3796230490, 3796230485], "tags": {"addr:street": "Southern Highway", "building": "yes", "name": "Golden Motel", "source": "KG Ground Survey 2015", "tourism": "motel"}}, {"type": "way", "id": 376169524, "nodes": [3796259852, 3796259853, 3796259854, 3796259855, 3796259856, 3796259857, 3796259858, 3796259840, 3796259841, 3796259842, 3796259847, 3796259848, 3796259849, 3796259850, 3796259851, 3796259843, 3796259844, 3796259845, 3796259846, 3796259852], "tags": {"addr:city": "Punta Gorda", "addr:street": "Front Street", "building": "yes", "information": "office", "name": "Punta Gorda Tourist Information Center", "tourism": "information"}}, {"type": "way", "id": 376169529, "nodes": [3796259877, 3796259878, 3796259879, 3796259880, 3796259881, 3796259882, 11367444782, 11367444783, 3796259877], "tags": {"addr:city": "Punta Gorda", "addr:street": "Main Street", "building": "yes", "name": "Charlton's Inn", "tourism": "hotel"}}, {"type": "way", "id": 376169531, "nodes": [3796259889, 3796259890, 3796259891, 3796259892, 3796259889], "tags": {"addr:city": "Punta Gorda", "addr:street": "King Street", "building": "yes", "name": "Saint Charles Inn", "source": "KG Ground Survey 2015", "tourism": "hotel", "wikidata": "Q111884936"}}, {"type": "way", "id": 376258278, "nodes": [3796997210, 8631535450, 3796997213, 3796997215, 3796997210], "tags": {"addr:city": "Punta Gorda", "building": "yes", "building:levels": "2", "name": "Grace's Restaurant & Hotel", "source": "KG Ground Survey 2015", "tourism": "hotel"}}, {"type": "way", "id": 376259511, "nodes": [3797011430, 3797011431, 3797011432, 3797011433, 3797011430], "tags": {"amenity": "clock", "height": "11", "man_made": "tower", "tourism": "artwork", "tower:type": "clock_tower"}}, {"type": "way", "id": 376277185, "nodes": [3797176010, 3797176011, 3797176012, 3797176013, 3797176010], "tags": {"addr:city": "Punta Gorda", "addr:street": "Front Street", "building": "yes", "name": "Nature's Way", "source": "St. Peter Claver R.C. School", "tourism": "guest_house"}}, {"type": "way", "id": 376277186, "nodes": [3797176016, 3797176017, 3797176018, 3797176019, 3797176016], "tags": {"addr:city": "Punta Gorda", "addr:housenumber": "139", "addr:street": "Front Street", "building": "yes", "name": "Blue Belize", "tourism": "guest_house"}}, {"type": "way", "id": 376278408, "nodes": [3797199612, 3797199613, 3797199614, 3797199615, 3797199612], "tags": {"addr:city": "Punta Gorda", "addr:street": "Main Middle Street", "building": "yes", "shop": "yes", "source": "KG Ground Survey 2015", "tourism": "hotel"}}, {"type": "way", "id": 376284855, "nodes": [3797252772, 3797252773, 3797252774, 3797252775, 3797252772], "tags": {"addr:city": "Punta Gorda", "addr:street": "Belize Street", "building": "yes", "name": "Waruguma Inn", "phone": "602-0343", "source": "KG Ground Survey 2015", "tourism": "hotel"}}, {"type": "way", "id": 376286383, "nodes": [3797269010, 3797269011, 8624032967, 3797269013, 3797269010], "tags": {"addr:city": "Punta Gorda", "addr:street": "Southern Highway", "building": "yes", "name": "Sea Front Inn", "tourism": "hotel", "wikidata": "Q111884935"}}, {"type": "way", "id": 376286384, "nodes": [3797269015, 3797269016, 3797269017, 3797269018, 3797269015], "tags": {"addr:city": "Punta Gorda", "addr:street": "Thomas Vincent Ramos Highway", "building": "yes", "name": "Beya Suites", "source": "KG Ground Survey 2015", "tourism": "hotel"}}, {"type": "way", "id": 376293361, "nodes": [3797348138, 3797348139, 3797348140, 3797348141, 3797348138], "tags": {"addr:city": "Punta Gorda", "addr:street": "Front Street", "building": "yes", "name": "Mira Mar Hotel", "phone": "722-2093", "source": "KG Ground Survey 2015", "tourism": "hotel"}}, {"type": "way", "id": 376293362, "nodes": [3797348142, 3797348147, 3797348143, 3797348144, 3797348145, 3797348146, 3797348142], "tags": {"addr:city": "Punta Gorda", "addr:street": "Front Street", "building": "yes", "internet_access": "wlan", "internet_access:fee": "no", "name": "Amaya's Inn", "phone": "+501-602-4251", "source": "KG Ground Survey 2015", "tourism": "hotel"}}, {"type": "way", "id": 376305715, "nodes": [3797485366, 3797485367, 3797485368, 3797485369, 3797485366], "tags": {"addr:city": "Punta Gorda", "building": "yes", "name": "Frontier Inn", "phone": "722-2450", "source": "KG Ground Survey 2015", "tourism": "hotel"}}, {"type": "way", "id": 376305718, "nodes": [3797485378, 3797485379, 3797485380, 3797485381, 3797485378], "tags": {"addr:city": "Punta Gorda", "addr:street": "Far West Street", "building": "yes", "name": "We Art Gallery", "shop": "art", "source": "KG Ground Survey 2015", "tourism": "artwork"}}]}