{"version": 0.6, "generator": "Overpass API 0.7.62.1 084b4234", "osm3s": {"timestamp_osm_base": "2024-11-20T00:54:28Z", "copyright": "The data included in this document is from www.openstreetmap.org. The data is made available under ODbL."}, "elements": [{"type": "node", "id": 3056202274, "lat": 51.1212732, "lon": 4.3259479, "tags": {"artwork_type": "statue", "tourism": "artwork"}}, {"type": "node", "id": 3063454631, "lat": 51.1296615, "lon": 4.327778, "tags": {"board_type": "nature", "description": "Natuur aan de Benedenvliet", "information": "board", "tourism": "information"}}, {"type": "node", "id": 3063454632, "lat": 51.129664, "lon": 4.327755, "tags": {"board_type": "history", "description": "Historiek van 3 bedrijven aan de Benedenvliet", "information": "board", "tourism": "information"}}, {"type": "node", "id": 3063800283, "lat": 51.131905, "lon": 4.3306257, "tags": {"addr:housenumber": "4", "addr:street": "Bernardusabdij 4", "name": "Omtrent Den Hover", "opening_hours": "Su[1] 14:00-18:00", "operator": "Heemkring Heymissen", "tourism": "museum", "website": "http://heemkundigekringheymissen.tk/museum/"}}, {"type": "node", "id": 3063801260, "lat": 51.1317932, "lon": 4.32907, "tags": {"board_type": "notice", "description": "luchtfoto van de Rupelstreek met daarop aangeduid de bezienswaardigheden", "information": "board", "tourism": "information"}}, {"type": "node", "id": 3063801261, "lat": 51.1317961, "lon": 4.3291015, "tags": {"board_type": "history", "description": "Geschiedenis van Sint Bernardus Abdij", "information": "board", "tourism": "information"}}, {"type": "node", "id": 3063801266, "lat": 51.1319075, "lon": 4.3298114, "tags": {"board_type": "history", "description": "Museum Gilliot & Roelants Tegelmuseum", "information": "board", "tourism": "information"}}, {"type": "node", "id": 3071671521, "lat": 51.1283851, "lon": 4.3382849}, {"type": "node", "id": 3071671522, "lat": 51.1283944, "lon": 4.3383075}, {"type": "node", "id": 3071671524, "lat": 51.1284091, "lon": 4.3383352}, {"type": "node", "id": 3071671527, "lat": 51.1284295, "lon": 4.3383468}, {"type": "node", "id": 3071671532, "lat": 51.1284439, "lon": 4.3382513, "tags": {"artist_name": "Roger Pintens Jr", "artwork_type": "statue", "tourism": "artwork"}}, {"type": "node", "id": 3071671833, "lat": 51.1284558, "lon": 4.3383503}, {"type": "node", "id": 3071671834, "lat": 51.1284798, "lon": 4.3383322}, {"type": "node", "id": 3075644583, "lat": 51.12643, "lon": 4.3343753}, {"type": "node", "id": 3075644584, "lat": 51.1264276, "lon": 4.334627}, {"type": "node", "id": 3075644595, "lat": 51.1265212, "lon": 4.3343766}, {"type": "node", "id": 3075644597, "lat": 51.1265177, "lon": 4.334571}, {"type": "node", "id": 3075644600, "lat": 51.1265825, "lon": 4.3345738}, {"type": "node", "id": 3075644601, "lat": 51.1265817, "lon": 4.3346379}, {"type": "node", "id": 3121980731, "lat": 51.1291007, "lon": 4.335661, "tags": {"hiking": "yes", "information": "guidepost", "tourism": "information"}}, {"type": "node", "id": 3121980734, "lat": 51.1291308, "lon": 4.3357279, "tags": {"board_type": "history", "description": "Information in verband met de restauratie van de kerk", "information": "board", "note": "ook in braille", "tourism": "information"}}, {"type": "node", "id": 3121980738, "lat": 51.1291685, "lon": 4.3359144, "tags": {"artwork_type": "statue", "inscription": "Schelle aan het Heilig Hart", "tourism": "artwork"}}, {"type": "node", "id": 9208219663, "lat": 51.1264318, "lon": 4.3343823}, {"type": "node", "id": 9208219664, "lat": 51.12643, "lon": 4.3343822}, {"type": "way", "id": 302884285, "nodes": [3071671834, 3071671833, 3071671527, 3071671524, 3071671522, 3071671521], "tags": {"area": "no", "description": "Fotoboog met alle vrijwilligers in Schelle in 2005", "tourism": "artwork"}}, {"type": "way", "id": 303226845, "nodes": [3075644583, 9208219664, 9208219663, 3075644584, 3075644601, 3075644600, 3075644597, 3075644595, 3075644583], "tags": {"addr:housenumber": "48", "addr:street": "Peperstraat", "building": "yes", "name": "Heemmuseum Bystervelt", "operator": "Heemkring Scella", "source:geometry:date": "2014-06-02", "source:geometry:ref": "Gbg/1010543", "tourism": "museum"}}]}